{"type":"FeatureCollection","name":"g2-siam-tc-boundary-preview","features":[{"type":"Feature","id":"38-STC","properties":{"layerId":"38-STC","plotId":"38-STC","plotMatchStatus":"tentative-area-province","sourceLabel":"กระบี่ 34.57 ไร่","geometryAreaRai":34.57,"sourceCrs":"EPSG:32647","sourceFile":"Company-data/T-VER  Standard กลุ่ม 2 สยามทีซี  ขึ้นทะเบียน/Shpfile/Boundary/Boundary_MOC2(21-6-24).shp","province":"กระบี่","allocatedAreaRai":34.57,"officialParticipatingAreaRai":34.57,"matchedLayerId":"38-STC","areaDifferenceRai":0.0,"matchMethod":"auto matched by same province and nearest official participating area"},"geometry":{"type":"Polygon","coordinates":[[[99.0865059,7.8188418],[99.0861336,7.8186736],[99.085638,7.8194502],[99.0853141,7.8200486],[99.0848822,7.8204378],[99.0846011,7.8207092],[99.0842283,7.8207369],[99.084193,7.8213425],[99.0850458,7.8222831],[99.0855266,7.8225272],[99.0855902,7.822889],[99.0851458,7.8231152],[99.0850461,7.8235856],[99.0864973,7.8232959],[99.0863792,7.8224275],[99.0858531,7.8221201],[99.085354,7.8209443],[99.0861746,7.8200105],[99.0865059,7.8188418]]]}},{"type":"Feature","id":"39-STC","properties":{"layerId":"39-STC","plotId":"39-STC","plotMatchStatus":"tentative-area-province","sourceLabel":"กระบี่ 100.01 ไร่","geometryAreaRai":100.01,"sourceCrs":"EPSG:32647","sourceFile":"Company-data/T-VER  Standard กลุ่ม 2 สยามทีซี  ขึ้นทะเบียน/Shpfile/Boundary/Boundary_MOC2(21-6-24).shp","province":"กระบี่","allocatedAreaRai":100.01,"officialParticipatingAreaRai":100.01,"matchedLayerId":"39-STC","areaDifferenceRai":0.0,"matchMethod":"auto matched by same province and nearest official participating area"},"geometry":{"type":"Polygon","coordinates":[[[99.1046551,7.8168422],[99.1060245,7.816073],[99.1068133,7.8145713],[99.1067858,7.8134858],[99.1076835,7.8126534],[99.1080914,7.8116311],[99.1077283,7.8105276],[99.1067941,7.8105279],[99.1063045,7.8113873],[99.1060871,7.8122377],[99.104899,7.813043],[99.1041011,7.8139478],[99.1035208,7.8149249],[99.1039383,7.8158836],[99.1046551,7.8168422]]]}},{"type":"Feature","id":"40-STC","properties":{"layerId":"40-STC","plotId":"40-STC","plotMatchStatus":"tentative-area-province","sourceLabel":"กระบี่ 50.17 ไร่","geometryAreaRai":49.69,"sourceCrs":"EPSG:32647","sourceFile":"Company-data/T-VER  Standard กลุ่ม 2 สยามทีซี  ขึ้นทะเบียน/Shpfile/Boundary/Boundary_MOC2(21-6-24).shp","province":"กระบี่","allocatedAreaRai":50.17,"officialParticipatingAreaRai":49.69,"matchedLayerId":"40-STC","areaDifferenceRai":0.0,"matchMethod":"auto matched by same province and nearest official participating area"},"geometry":{"type":"Polygon","coordinates":[[[99.1262474,7.7902331],[99.1261801,7.7893196],[99.1235951,7.7888862],[99.1229782,7.788624],[99.1229774,7.7856571],[99.1223153,7.7857839],[99.1221885,7.7864262],[99.121944,7.7876564],[99.1219807,7.7892846],[99.1230602,7.7897999],[99.1238946,7.7897092],[99.1250374,7.7898446],[99.1248742,7.7899803],[99.1252099,7.7903692],[99.1254294,7.7903264],[99.1262474,7.7902331]]]}},{"type":"Feature","id":"41-STC","properties":{"layerId":"41-STC","plotId":"41-STC","plotMatchStatus":"tentative-area-province","sourceLabel":"กระบี่ 105.91 ไร่","geometryAreaRai":105.91,"sourceCrs":"EPSG:32647","sourceFile":"Company-data/T-VER  Standard กลุ่ม 2 สยามทีซี  ขึ้นทะเบียน/Shpfile/Boundary/Boundary_MOC2(21-6-24).shp","province":"กระบี่","allocatedAreaRai":105.91,"officialParticipatingAreaRai":105.91,"matchedLayerId":"41-STC","areaDifferenceRai":-0.0,"matchMethod":"auto matched by same province and nearest official participating area"},"geometry":{"type":"Polygon","coordinates":[[[99.1078064,7.9603434],[99.106787,7.9598253],[99.1058708,7.9606125],[99.1055898,7.9615714],[99.1064161,7.9641401],[99.1077774,7.9651077],[99.1091475,7.9649807],[99.109519,7.9629453],[99.108466,7.9610189],[99.1078064,7.9603434]]]}},{"type":"Feature","id":"42-STC","properties":{"layerId":"42-STC","plotId":"42-STC","plotMatchStatus":"tentative-area-province","sourceLabel":"กระบี่ 10.4 ไร่","geometryAreaRai":10.4,"sourceCrs":"EPSG:32647","sourceFile":"Company-data/T-VER  Standard กลุ่ม 2 สยามทีซี  ขึ้นทะเบียน/Shpfile/Boundary/Boundary_MOC2(21-6-24).shp","province":"กระบี่","allocatedAreaRai":10.4,"officialParticipatingAreaRai":10.4,"matchedLayerId":"42-STC","areaDifferenceRai":0.0,"matchMethod":"auto matched by same province and nearest official participating area"},"geometry":{"type":"Polygon","coordinates":[[[99.1165603,7.9635856],[99.1159614,7.9633054],[99.1152901,7.9636855],[99.1150634,7.9643549],[99.1154174,7.9646714],[99.1159708,7.9644904],[99.1165333,7.9642188],[99.1165603,7.9635856]]]}},{"type":"Feature","id":"43-STC","properties":{"layerId":"43-STC","plotId":"43-STC","plotMatchStatus":"tentative-area-province","sourceLabel":"กระบี่ 25.97 ไร่","geometryAreaRai":25.97,"sourceCrs":"EPSG:32647","sourceFile":"Company-data/T-VER  Standard กลุ่ม 2 สยามทีซี  ขึ้นทะเบียน/Shpfile/Boundary/Boundary_MOC2(21-6-24).shp","province":"กระบี่","allocatedAreaRai":25.97,"officialParticipatingAreaRai":25.97,"matchedLayerId":"43-STC","areaDifferenceRai":0.0,"matchMethod":"auto matched by same province and nearest official participating area"},"geometry":{"type":"Polygon","coordinates":[[[99.1142192,7.9631792],[99.1132029,7.9629081],[99.1121959,7.9634421],[99.1119512,7.9644824],[99.112777,7.9648711],[99.1133485,7.9646177],[99.114392,7.9645089],[99.1142192,7.9631792]]]}},{"type":"Feature","id":"44-STC","properties":{"layerId":"44-STC","plotId":"44-STC","plotMatchStatus":"tentative-area-province","sourceLabel":"กระบี่ 55.84 ไร่","geometryAreaRai":55.84,"sourceCrs":"EPSG:32647","sourceFile":"Company-data/T-VER  Standard กลุ่ม 2 สยามทีซี  ขึ้นทะเบียน/Shpfile/Boundary/Boundary_MOC2(21-6-24).shp","province":"กระบี่","allocatedAreaRai":55.84,"officialParticipatingAreaRai":55.84,"matchedLayerId":"44-STC","areaDifferenceRai":0.0,"matchMethod":"auto matched by same province and nearest official participating area"},"geometry":{"type":"Polygon","coordinates":[[[99.1287561,7.8195402],[99.1293456,7.8193501],[99.1303707,7.8197297],[99.1305791,7.8188793],[99.1290822,7.8179752],[99.1288876,7.8181079],[99.1281934,7.8185816],[99.1280428,7.8186684],[99.1257902,7.8199663],[99.1269336,7.8218112],[99.1278405,7.8212773],[99.1281305,7.8204088],[99.1287561,7.8195402]]]}},{"type":"Feature","id":"45-STC","properties":{"layerId":"45-STC","plotId":"45-STC","plotMatchStatus":"tentative-area-province","sourceLabel":"กระบี่ 45.06 ไร่","geometryAreaRai":45.06,"sourceCrs":"EPSG:32647","sourceFile":"Company-data/T-VER  Standard กลุ่ม 2 สยามทีซี  ขึ้นทะเบียน/Shpfile/Boundary/Boundary_MOC2(21-6-24).shp","province":"กระบี่","allocatedAreaRai":45.06,"officialParticipatingAreaRai":45.06,"matchedLayerId":"45-STC","areaDifferenceRai":0.0,"matchMethod":"auto matched by same province and nearest official participating area"},"geometry":{"type":"Polygon","coordinates":[[[99.1471883,7.8220489],[99.147328,7.8209776],[99.1480384,7.8210779],[99.1481696,7.8187659],[99.1486518,7.8181913],[99.1485939,7.8173656],[99.1478848,7.8167027],[99.1475858,7.8169998],[99.1471504,7.8174356],[99.1467605,7.8179455],[99.1470059,7.8194709],[99.1469967,7.8207982],[99.1465532,7.8217777],[99.1465987,7.8219767],[99.1468484,7.8221792],[99.1471883,7.8220489]]]}},{"type":"Feature","id":"46-STC","properties":{"layerId":"46-STC","plotId":"46-STC","plotMatchStatus":"tentative-area-province","sourceLabel":"กระบี่ 71.26 ไร่","geometryAreaRai":71.26,"sourceCrs":"EPSG:32647","sourceFile":"Company-data/T-VER  Standard กลุ่ม 2 สยามทีซี  ขึ้นทะเบียน/Shpfile/Boundary/Boundary_MOC2(21-6-24).shp","province":"กระบี่","allocatedAreaRai":71.26,"officialParticipatingAreaRai":71.26,"matchedLayerId":"46-STC","areaDifferenceRai":-0.0,"matchMethod":"auto matched by same province and nearest official participating area"},"geometry":{"type":"Polygon","coordinates":[[[99.1021963,7.8138397],[99.1008532,7.8112982],[99.097866,7.8105825],[99.0970435,7.8103855],[99.0963089,7.8108379],[99.0967808,7.8116021],[99.097048,7.8120349],[99.0976334,7.8119412],[99.0981958,7.8119411],[99.0991071,7.8118047],[99.1006902,7.8121123],[99.1017339,7.8147082],[99.1017889,7.8170239],[99.1013086,7.819005],[99.1018438,7.8190682],[99.1025142,7.815893],[99.1021963,7.8138397]]]}},{"type":"Feature","id":"47-STC","properties":{"layerId":"47-STC","plotId":"47-STC","plotMatchStatus":"tentative-area-province","sourceLabel":"กระบี่ 50.48 ไร่","geometryAreaRai":50.48,"sourceCrs":"EPSG:32647","sourceFile":"Company-data/T-VER  Standard กลุ่ม 2 สยามทีซี  ขึ้นทะเบียน/Shpfile/Boundary/Boundary_MOC2(21-6-24).shp","province":"กระบี่","allocatedAreaRai":50.48,"officialParticipatingAreaRai":50.48,"matchedLayerId":"47-STC","areaDifferenceRai":0.0,"matchMethod":"auto matched by same province and nearest official participating area"},"geometry":{"type":"Polygon","coordinates":[[[99.0853474,7.8143303],[99.0863694,7.8135709],[99.0864496,7.8135113],[99.0866603,7.8133097],[99.0872752,7.8127214],[99.0879172,7.8123577],[99.0887084,7.8129382],[99.0893977,7.8130179],[99.0901324,7.8129379],[99.0900779,7.8125942],[99.0891437,7.8125401],[99.0887016,7.8122642],[99.0886628,7.8117894],[99.0884813,7.8115814],[99.0883633,7.8109934],[99.0876739,7.8109303],[99.0875423,7.8114531],[99.0873294,7.8117535],[99.0867219,7.8123687],[99.0859873,7.8131378],[99.0856064,7.8134454],[99.0851456,7.8136866],[99.0846776,7.8136866],[99.0842822,7.813518],[99.0836191,7.813055],[99.083384,7.8128126],[99.0828414,7.8122941],[99.0826945,7.8116549],[99.0822501,7.8122701],[99.0830792,7.8134428],[99.0838873,7.8141647],[99.0840646,7.8143231],[99.0852043,7.8144366],[99.0853474,7.8143303]]]}},{"type":"Feature","id":"48-STC","properties":{"layerId":"48-STC","plotId":"48-STC","plotMatchStatus":"tentative-area-province","sourceLabel":"กระบี่ 46.15 ไร่","geometryAreaRai":46.15,"sourceCrs":"EPSG:32647","sourceFile":"Company-data/T-VER  Standard กลุ่ม 2 สยามทีซี  ขึ้นทะเบียน/Shpfile/Boundary/Boundary_MOC2(21-6-24).shp","province":"กระบี่","allocatedAreaRai":46.15,"officialParticipatingAreaRai":46.15,"matchedLayerId":"48-STC","areaDifferenceRai":0.0,"matchMethod":"auto matched by same province and nearest official participating area"},"geometry":{"type":"Polygon","coordinates":[[[99.0913487,7.8168544],[99.0905777,7.816755],[99.0904509,7.8176144],[99.0893175,7.8196047],[99.0896987,7.8207624],[99.0894543,7.8215066],[99.0904702,7.8229785],[99.0907697,7.8237834],[99.0923121,7.8253842],[99.0930744,7.8272474],[99.0938275,7.828197],[99.0941267,7.8278442],[99.0936278,7.8274192],[99.0928453,7.8254735],[99.0922666,7.8247148],[99.0912595,7.8238648],[99.0912957,7.8231954],[99.0909028,7.8224012],[99.0901707,7.8221192],[99.0898893,7.8214046],[99.0902339,7.8208618],[99.089871,7.8204187],[99.0898073,7.8195051],[99.090686,7.8184092],[99.0909952,7.8178223],[99.0913487,7.8168544]]]}},{"type":"Feature","id":"49-STC","properties":{"layerId":"49-STC","plotId":"49-STC","plotMatchStatus":"tentative-area-province","sourceLabel":"กระบี่ 37.18 ไร่","geometryAreaRai":37.04,"sourceCrs":"EPSG:32647","sourceFile":"Company-data/T-VER  Standard กลุ่ม 2 สยามทีซี  ขึ้นทะเบียน/Shpfile/Boundary/Boundary_MOC2(21-6-24).shp","province":"กระบี่","allocatedAreaRai":37.18,"officialParticipatingAreaRai":37.04,"matchedLayerId":"49-STC","areaDifferenceRai":0.0,"matchMethod":"auto matched by same province and nearest official participating area"},"geometry":{"type":"Polygon","coordinates":[[[99.1020112,7.9104377],[99.1023196,7.9101301],[99.1027187,7.909732],[99.1028365,7.9093159],[99.1032994,7.9086566],[99.1039612,7.9080221],[99.1037069,7.9068281],[99.1034344,7.9056794],[99.1041965,7.9055797],[99.1046681,7.9049283],[99.1051671,7.9049282],[99.1051942,7.9046658],[99.1044502,7.9044127],[99.1026179,7.9057067],[99.1032354,7.9078504],[99.1015484,7.910076],[99.1020112,7.9104377]]]}},{"type":"Feature","id":"50-STC","properties":{"layerId":"50-STC","plotId":"50-STC","plotMatchStatus":"tentative-area-province","sourceLabel":"กระบี่ 108.15 ไร่","geometryAreaRai":108.03,"sourceCrs":"EPSG:32647","sourceFile":"Company-data/T-VER  Standard กลุ่ม 2 สยามทีซี  ขึ้นทะเบียน/Shpfile/Boundary/Boundary_MOC2(21-6-24).shp","province":"กระบี่","allocatedAreaRai":108.15,"officialParticipatingAreaRai":108.03,"matchedLayerId":"50-STC","areaDifferenceRai":-0.0,"matchMethod":"auto matched by same province and nearest official participating area"},"geometry":{"type":"Polygon","coordinates":[[[99.0900016,7.7947924],[99.0906545,7.794141],[99.0889945,7.7935172],[99.0895656,7.7921511],[99.0902002,7.7906042],[99.0900095,7.7894645],[99.0904354,7.7878181],[99.0895738,7.7876193],[99.0889298,7.7877099],[99.0881498,7.78771],[99.0879958,7.788678],[99.0888485,7.7891572],[99.0889665,7.7895914],[99.0883681,7.7904327],[99.0877061,7.7913465],[99.0874703,7.7912289],[99.0868536,7.7913286],[99.0864999,7.7916271],[99.0867268,7.7924141],[99.0876611,7.7930471],[99.0877429,7.7935898],[99.0882146,7.7939153],[99.0884415,7.794648],[99.0900016,7.7947924]]]}},{"type":"Feature","id":"51-STC","properties":{"layerId":"51-STC","plotId":"51-STC","plotMatchStatus":"tentative-area-province","sourceLabel":"กระบี่ 63.12 ไร่","geometryAreaRai":173.16,"sourceCrs":"EPSG:32647","sourceFile":"Company-data/T-VER  Standard กลุ่ม 2 สยามทีซี  ขึ้นทะเบียน/Shpfile/Boundary/Boundary_MOC2(21-6-24).shp","province":"กระบี่","allocatedAreaRai":173.29,"officialParticipatingAreaRai":173.16,"matchedLayerId":"51-STC","areaDifferenceRai":0.0,"matchMethod":"auto matched by same province and nearest official participating area"},"geometry":{"type":"Polygon","coordinates":[[[99.0814834,7.8805556],[99.0831616,7.8803653],[99.0834246,7.8795873],[99.0827528,7.8771451],[99.0818182,7.8762679],[99.0821897,7.8740426],[99.0808468,7.8724328],[99.0813632,7.8690315],[99.0826296,7.8686843],[99.0819254,7.8676203],[99.0823061,7.8663538],[99.0863522,7.8673209],[99.0860072,7.8657742],[99.0850545,7.8646708],[99.0859159,7.8630967],[99.0861422,7.8607629],[99.0856342,7.8604464],[99.0854532,7.862545],[99.0843469,7.86468],[99.0848551,7.8659644],[99.0824148,7.8656573],[99.0812719,7.8659198],[99.0812905,7.8683169],[99.080465,7.8683442],[99.0800757,7.8725143],[99.080974,7.8737805],[99.0812736,7.874676],[99.0808022,7.8765757],[99.081764,7.8774891],[99.0821727,7.8796418],[99.0814834,7.8805556]]]}},{"type":"Feature","id":"52-STC","properties":{"layerId":"52-STC","plotId":"52-STC","plotMatchStatus":"tentative-area-province","sourceLabel":"กระบี่ 106.8 ไร่","geometryAreaRai":106.8,"sourceCrs":"EPSG:32647","sourceFile":"Company-data/T-VER  Standard กลุ่ม 2 สยามทีซี  ขึ้นทะเบียน/Shpfile/Boundary/Boundary_MOC2(21-6-24).shp","province":"กระบี่","allocatedAreaRai":106.8,"officialParticipatingAreaRai":106.8,"matchedLayerId":"52-STC","areaDifferenceRai":0.0,"matchMethod":"auto matched by same province and nearest official participating area"},"geometry":{"type":"Polygon","coordinates":[[[99.0888606,7.8888579],[99.0905837,7.8864876],[99.0908827,7.8844794],[99.0922791,7.8815665],[99.0903645,7.8793326],[99.0896933,7.8799479],[99.0913901,7.8816119],[99.0905111,7.8835923],[99.0899642,7.8860625],[99.0883634,7.8887922],[99.0867283,7.8870312],[99.0868096,7.885412],[99.0872993,7.8847968],[99.086764,7.884227],[99.0839063,7.8841914],[99.0838157,7.8847704],[99.0859657,7.8844805],[99.0863196,7.8852221],[99.086039,7.8879902],[99.0889516,7.8904861],[99.0888606,7.8888579]]]}},{"type":"Feature","id":"53-STC","properties":{"layerId":"53-STC","plotId":"53-STC","plotMatchStatus":"tentative-area-province","sourceLabel":"กระบี่ 42.45 ไร่","geometryAreaRai":42.45,"sourceCrs":"EPSG:32647","sourceFile":"Company-data/T-VER  Standard กลุ่ม 2 สยามทีซี  ขึ้นทะเบียน/Shpfile/Boundary/Boundary_MOC2(21-6-24).shp","province":"กระบี่","allocatedAreaRai":42.45,"officialParticipatingAreaRai":42.45,"matchedLayerId":"53-STC","areaDifferenceRai":-0.0,"matchMethod":"auto matched by same province and nearest official participating area"},"geometry":{"type":"Polygon","coordinates":[[[99.124495,7.8264071],[99.125039,7.8254753],[99.1263633,7.8255201],[99.1267808,7.8262255],[99.1274066,7.8262706],[99.1290215,7.8270118],[99.1287309,7.8261254],[99.1281141,7.8262251],[99.127461,7.8260263],[99.1263269,7.8250769],[99.1245852,7.8245437],[99.1220918,7.8283436],[99.1225273,7.8285606],[99.1234522,7.8275743],[99.124495,7.8264071]]]}},{"type":"Feature","id":"54-STC","properties":{"layerId":"54-STC","plotId":"54-STC","plotMatchStatus":"tentative-area-province","sourceLabel":"กระบี่ 71.76 ไร่","geometryAreaRai":71.76,"sourceCrs":"EPSG:32647","sourceFile":"Company-data/T-VER  Standard กลุ่ม 2 สยามทีซี  ขึ้นทะเบียน/Shpfile/Boundary/Boundary_MOC2(21-6-24).shp","province":"กระบี่","allocatedAreaRai":71.76,"officialParticipatingAreaRai":71.76,"matchedLayerId":"54-STC","areaDifferenceRai":0.0,"matchMethod":"auto matched by same province and nearest official participating area"},"geometry":{"type":"Polygon","coordinates":[[[99.0521457,7.8444201],[99.0501085,7.8432926],[99.0499362,7.844351],[99.0521316,7.8454633],[99.0551251,7.8459152],[99.0555244,7.84748],[99.0557967,7.8483032],[99.0566857,7.8484839],[99.0566401,7.8468557],[99.0558871,7.8465573],[99.0559233,7.8457432],[99.0562227,7.8456075],[99.0562861,7.8449924],[99.0538912,7.8444319],[99.0521457,7.8444201]]]}},{"type":"Feature","id":"55-STC","properties":{"layerId":"55-STC","plotId":"55-STC","plotMatchStatus":"tentative-area-province","sourceLabel":"กระบี่ 47.21 ไร่","geometryAreaRai":47.21,"sourceCrs":"EPSG:32647","sourceFile":"Company-data/T-VER  Standard กลุ่ม 2 สยามทีซี  ขึ้นทะเบียน/Shpfile/Boundary/Boundary_MOC2(21-6-24).shp","province":"กระบี่","allocatedAreaRai":47.21,"officialParticipatingAreaRai":47.21,"matchedLayerId":"55-STC","areaDifferenceRai":0.0,"matchMethod":"auto matched by same province and nearest official participating area"},"geometry":{"type":"Polygon","coordinates":[[[99.1039294,7.8531786],[99.1031581,7.85222],[99.1028497,7.8522834],[99.1020971,7.8534233],[99.1013533,7.8536858],[99.1009904,7.8534417],[99.1009477,7.8534766],[99.1003827,7.8539393],[99.0999382,7.8537766],[99.0998288,7.8517504],[99.0993661,7.8511264],[99.0991031,7.8514702],[99.0996298,7.8541657],[99.1003737,7.8544007],[99.101191,7.8541745],[99.1023693,7.8538484],[99.103004,7.8526723],[99.1034305,7.8533868],[99.1029772,7.8543005],[99.1021247,7.8551782],[99.1017572,7.8561094],[99.1015536,7.8566256],[99.1012726,7.8575031],[99.1012364,7.8578921],[99.1019864,7.8575092],[99.1020164,7.8574939],[99.1024607,7.8566706],[99.102143,7.8558385],[99.1023334,7.8552957],[99.1029501,7.8546895],[99.1035668,7.8544089],[99.1039294,7.8531786]]]}},{"type":"Feature","id":"59-STC","properties":{"layerId":"59-STC","plotId":"59-STC","plotMatchStatus":"tentative-area-province","sourceLabel":"กระบี่ 471.57 ไร่","geometryAreaRai":468.39,"sourceCrs":"EPSG:32647","sourceFile":"Company-data/T-VER  Standard กลุ่ม 2 สยามทีซี  ขึ้นทะเบียน/Shpfile/Boundary/Boundary_MOC2(21-6-24).shp","province":"กระบี่","allocatedAreaRai":471.57,"officialParticipatingAreaRai":468.39,"matchedLayerId":"59-STC","areaDifferenceRai":0.0,"matchMethod":"auto matched by same province and nearest official participating area"},"geometry":{"type":"Polygon","coordinates":[[[98.9377764,8.0549846],[98.9375081,8.0550552],[98.9378082,8.0547132],[98.9381467,8.0539359],[98.9385794,8.0538782],[98.9388582,8.0538329],[98.9387598,8.0539455],[98.9383755,8.0539578],[98.938173,8.0540457],[98.937777,8.0549845],[98.9381128,8.0551835],[98.9383033,8.0556268],[98.9385393,8.0556811],[98.9388207,8.055265],[98.9388571,8.0546228],[98.938957,8.0543605],[98.9392111,8.054243],[98.9396104,8.0544511],[98.9398282,8.0548762],[98.9403637,8.0545597],[98.9429959,8.0522173],[98.9433318,8.051756],[98.9431554,8.0514465],[98.9429626,8.0515322],[98.9427795,8.0512754],[98.9424937,8.0512589],[98.9423314,8.0511243],[98.9418376,8.0501203],[98.9416961,8.0501491],[98.9416518,8.0500475],[98.9417794,8.0500146],[98.9419625,8.0501409],[98.9424729,8.0510748],[98.9427809,8.0511792],[98.9430035,8.0514567],[98.943105,8.051358],[98.943105,8.051358],[98.9431958,8.0510595],[98.9433864,8.0510324],[98.9434409,8.0507339],[98.9437222,8.050544],[98.9440308,8.0507249],[98.9441487,8.0508697],[98.9450836,8.04992],[98.9461366,8.0488076],[98.9463726,8.0484096],[98.9469081,8.0476951],[98.9469535,8.0476227],[98.9466903,8.0475865],[98.9463908,8.0475684],[98.9460732,8.0478759],[98.9457736,8.0479934],[98.9455831,8.0479482],[98.9452291,8.0479029],[98.9450204,8.0479571],[98.9447391,8.0477852],[98.9444941,8.0475229],[98.9444396,8.0473239],[98.9440947,8.0474776],[98.943877,8.0470524],[98.9436229,8.0470524],[98.9434685,8.0474232],[98.943169,8.0476222],[98.9428514,8.0476674],[98.942797,8.0473056],[98.9426245,8.0472332],[98.9422887,8.0474593],[98.9421163,8.0473416],[98.9420982,8.046817],[98.9413087,8.0467083],[98.9410637,8.0461656],[98.9402378,8.0462921],[98.9400926,8.0461745],[98.9393484,8.0464005],[98.9395026,8.0469614],[98.9395116,8.0474136],[98.9397203,8.0474318],[98.9397203,8.0480107],[98.9377053,8.0492044],[98.9376744,8.0492137],[98.9365708,8.0495479],[98.9363166,8.0503077],[98.9363179,8.050313],[98.9363801,8.05057],[98.9358537,8.0507418],[98.9358627,8.0510675],[98.9357265,8.0511036],[98.9350638,8.0523789],[98.935218,8.0530664],[98.9348822,8.0531387],[98.9348005,8.0528945],[98.9342015,8.0532743],[98.9344101,8.0539347],[98.9336749,8.0542783],[98.9338653,8.0556261],[98.9340014,8.0561327],[98.9345096,8.0563589],[98.9344009,8.0548754],[98.9352722,8.0549027],[98.9353354,8.0566575],[98.9352446,8.0572364],[98.93578,8.0575712],[98.9360613,8.0575622],[98.9362158,8.0566305],[98.9362341,8.0554184],[98.9367061,8.0552647],[98.937296,8.055111],[98.9377764,8.0549846]],[[98.9415523,8.0502666],[98.9416577,8.0502006],[98.9416702,8.0504822],[98.9415523,8.0502666]]]}},{"type":"Feature","id":"62-STC","properties":{"layerId":"62-STC","plotId":"62-STC","plotMatchStatus":"tentative-area-province","sourceLabel":"กระบี่ 65.93 ไร่","geometryAreaRai":65.93,"sourceCrs":"EPSG:32647","sourceFile":"Company-data/T-VER  Standard กลุ่ม 2 สยามทีซี  ขึ้นทะเบียน/Shpfile/Boundary/Boundary_MOC2(21-6-24).shp","province":"กระบี่","allocatedAreaRai":65.93,"officialParticipatingAreaRai":65.93,"matchedLayerId":"62-STC","areaDifferenceRai":-0.0,"matchMethod":"auto matched by same province and nearest official participating area"},"geometry":{"type":"Polygon","coordinates":[[[98.9383437,8.0362953],[98.9388048,8.035642],[98.9390498,8.0353476],[98.938524,8.034845],[98.9378757,8.03445],[98.9378613,8.0343925],[98.9377893,8.0342274],[98.937494,8.0340406],[98.9372203,8.0339114],[98.936889,8.0336399],[98.9365432,8.0336901],[98.9362046,8.033848],[98.9359525,8.0340059],[98.9356787,8.0341854],[98.9355202,8.0342644],[98.9353689,8.0345802],[98.9368383,8.0353631],[98.9365356,8.0360308],[98.9353904,8.0352408],[98.9350302,8.0355926],[98.9347996,8.0356069],[98.9346195,8.0357505],[98.9338199,8.0358293],[98.9342133,8.0363682],[98.9347488,8.0360517],[98.935021,8.0360789],[98.9348758,8.0364588],[98.935384,8.0366307],[98.9358196,8.0365856],[98.9360374,8.0362147],[98.9365638,8.0361605],[98.9368269,8.0365586],[98.9373063,8.0370203],[98.9374286,8.0374367],[98.9377023,8.0380255],[98.937976,8.0379466],[98.93794,8.0377886],[98.9379329,8.0373865],[98.9382211,8.0370707],[98.9381779,8.0369055],[98.9381779,8.036604],[98.9383437,8.0362953]]]}},{"type":"Feature","id":"63-STC","properties":{"layerId":"63-STC","plotId":"63-STC","plotMatchStatus":"tentative-area-province","sourceLabel":"กระบี่ 55.58 ไร่","geometryAreaRai":55.53,"sourceCrs":"EPSG:32647","sourceFile":"Company-data/T-VER  Standard กลุ่ม 2 สยามทีซี  ขึ้นทะเบียน/Shpfile/Boundary/Boundary_MOC2(21-6-24).shp","province":"กระบี่","allocatedAreaRai":55.58,"officialParticipatingAreaRai":55.53,"matchedLayerId":"63-STC","areaDifferenceRai":-0.0,"matchMethod":"auto matched by same province and nearest official participating area"},"geometry":{"type":"Polygon","coordinates":[[[98.9406393,8.031358],[98.9408571,8.0313761],[98.9412563,8.032136],[98.9415376,8.0320817],[98.9418645,8.0312858],[98.943752,8.0318378],[98.9437793,8.0316388],[98.9416922,8.0303903],[98.9415744,8.0291781],[98.9400045,8.0284271],[98.9389879,8.0294853],[98.9393509,8.0298472],[98.9397139,8.029603],[98.9400769,8.0298382],[98.9400998,8.0308335],[98.9394686,8.0316834],[98.9406392,8.0324434],[98.9406393,8.031358]]]}},{"type":"Feature","id":"64-STC","properties":{"layerId":"64-STC","plotId":"64-STC","plotMatchStatus":"tentative-area-province","sourceLabel":"กระบี่ 12.14 ไร่","geometryAreaRai":12.14,"sourceCrs":"EPSG:32647","sourceFile":"Company-data/T-VER  Standard กลุ่ม 2 สยามทีซี  ขึ้นทะเบียน/Shpfile/Boundary/Boundary_MOC2(21-6-24).shp","province":"กระบี่","allocatedAreaRai":12.14,"officialParticipatingAreaRai":12.14,"matchedLayerId":"64-STC","areaDifferenceRai":-0.0,"matchMethod":"auto matched by same province and nearest official participating area"},"geometry":{"type":"Polygon","coordinates":[[[98.9406737,8.0442569],[98.9408916,8.0439132],[98.941055,8.0439494],[98.9412001,8.0442027],[98.9414088,8.0443294],[98.941663,8.0441304],[98.9416812,8.0437957],[98.9414543,8.04366],[98.9416903,8.0434249],[98.9417811,8.0432621],[98.9419445,8.0431716],[98.9420352,8.0431807],[98.9421623,8.0429998],[98.9421532,8.0428098],[98.9420081,8.042647],[98.9417993,8.0426651],[98.941645,8.0428098],[98.9415633,8.0431083],[98.9415996,8.0433615],[98.9412637,8.0436419],[98.9409733,8.0436419],[98.9408553,8.0437323],[98.940456,8.0437141],[98.9403743,8.0438046],[98.9399568,8.0437683],[98.9394577,8.0437954],[98.9393487,8.0440849],[98.9394395,8.04432],[98.9398025,8.0444015],[98.9400566,8.044483],[98.9403833,8.0445011],[98.9405104,8.044284],[98.9406737,8.0442569]]]}},{"type":"Feature","id":"65-STC","properties":{"layerId":"65-STC","plotId":"65-STC","plotMatchStatus":"verified-from-attribute","sourceLabel":"65-STC","geometryAreaRai":60.99,"sourceCrs":"EPSG:32647","sourceFile":"Company-data/T-VER  Standard กลุ่ม 2 สยามทีซี  ขึ้นทะเบียน/Shpfile/Boundary/Boundary_MOC2(21-6-24).shp","province":"กระบี่","allocatedAreaRai":61.11,"officialParticipatingAreaRai":60.99,"matchedLayerId":"65-STC","areaDifferenceRai":-0.0,"matchMethod":"source attribute Name equals official plot id"},"geometry":{"type":"Polygon","coordinates":[[[98.9359036,8.0420449],[98.9362853,8.0420501],[98.9363139,8.0420505],[98.9362988,8.0419628],[98.9362302,8.0415647],[98.9386818,8.0403065],[98.9387459,8.0402946],[98.9388712,8.0402715],[98.9386784,8.0389439],[98.9386589,8.0388096],[98.9375017,8.0392925],[98.9375445,8.0398996],[98.9365336,8.040125],[98.9361333,8.0393871],[98.9370172,8.0387095],[98.9368358,8.0380401],[98.9364018,8.0377343],[98.9363437,8.0373869],[98.9363338,8.0373273],[98.9362956,8.0369972],[98.9351651,8.0371521],[98.9352023,8.0376147],[98.9356121,8.0385088],[98.9351829,8.0387752],[98.9353174,8.0398464],[98.9356329,8.0403264],[98.9357262,8.0409304],[98.9360685,8.0409093],[98.9359036,8.0420449]]]}},{"type":"Feature","id":"67-STC","properties":{"layerId":"67-STC","plotId":"67-STC","plotMatchStatus":"tentative-area-province","sourceLabel":"พังงา 381.23 ไร่","geometryAreaRai":377.26,"sourceCrs":"EPSG:32647","sourceFile":"Company-data/T-VER  Standard กลุ่ม 2 สยามทีซี  ขึ้นทะเบียน/Shpfile/Boundary/Boundary_MOC2(21-6-24).shp","province":"พังงา","allocatedAreaRai":381.23,"officialParticipatingAreaRai":377.26,"matchedLayerId":"67-STC","areaDifferenceRai":-0.0,"matchMethod":"auto matched by same province and nearest official participating area"},"geometry":{"type":"Polygon","coordinates":[[[98.5972004,8.4281786],[98.5998095,8.4261913],[98.598857,8.4249059],[98.5988491,8.4238024],[98.5999316,8.4222659],[98.5995964,8.4214605],[98.5982806,8.4201386],[98.5978357,8.419921],[98.5974539,8.4201287],[98.5973717,8.4205989],[98.5976885,8.4216666],[98.5967882,8.4226968],[98.5958978,8.4227954],[98.5952626,8.4222249],[98.5954717,8.4220623],[98.5958545,8.4207602],[98.5957458,8.4204616],[98.5953645,8.4203255],[98.5940287,8.4207854],[98.5931475,8.4208026],[98.5928753,8.4205129],[98.5936219,8.4188946],[98.5935497,8.418397],[98.5921421,8.4180066],[98.5907589,8.4203931],[98.5922895,8.4247635],[98.59337,8.425244],[98.5938136,8.4266646],[98.5943763,8.4271898],[98.5972004,8.4281786]]]}},{"type":"Feature","id":"68-STC","properties":{"layerId":"68-STC","plotId":"68-STC","plotMatchStatus":"tentative-area-province","sourceLabel":"พังงา 50.43 ไร่","geometryAreaRai":50.43,"sourceCrs":"EPSG:32647","sourceFile":"Company-data/T-VER  Standard กลุ่ม 2 สยามทีซี  ขึ้นทะเบียน/Shpfile/Boundary/Boundary_MOC2(21-6-24).shp","province":"พังงา","allocatedAreaRai":50.43,"officialParticipatingAreaRai":50.43,"matchedLayerId":"68-STC","areaDifferenceRai":-0.0,"matchMethod":"auto matched by same province and nearest official participating area"},"geometry":{"type":"Polygon","coordinates":[[[98.3282978,8.2007858],[98.3268999,8.2007292],[98.326588,8.2026642],[98.3268207,8.2046002],[98.3276646,8.2048549],[98.3285726,8.2047569],[98.3287097,8.2042416],[98.3281314,8.2026125],[98.3283143,8.2017717],[98.3282978,8.2007858]]]}},{"type":"Feature","id":"69-STC","properties":{"layerId":"69-STC","plotId":"69-STC","plotMatchStatus":"tentative-area-province","sourceLabel":"พังงา 75.89 ไร่","geometryAreaRai":75.89,"sourceCrs":"EPSG:32647","sourceFile":"Company-data/T-VER  Standard กลุ่ม 2 สยามทีซี  ขึ้นทะเบียน/Shpfile/Boundary/Boundary_MOC2(21-6-24).shp","province":"พังงา","allocatedAreaRai":75.89,"officialParticipatingAreaRai":75.89,"matchedLayerId":"69-STC","areaDifferenceRai":0.0,"matchMethod":"auto matched by same province and nearest official participating area"},"geometry":{"type":"Polygon","coordinates":[[[98.3259058,8.1926414],[98.3265144,8.1924344],[98.3272038,8.1927702],[98.3272236,8.1917662],[98.3269166,8.190807],[98.3269103,8.1908067],[98.3255458,8.1907504],[98.3247555,8.1910566],[98.3247281,8.1912173],[98.3245732,8.1921243],[98.3243626,8.1933578],[98.3241596,8.1945469],[98.322387,8.1958916],[98.3235299,8.1964905],[98.3251813,8.1970088],[98.3246835,8.1960673],[98.325067,8.1948017],[98.3251506,8.193626],[98.3254968,8.1929482],[98.3259058,8.1926414]]]}},{"type":"Feature","id":"70-STC","properties":{"layerId":"70-STC","plotId":"70-STC","plotMatchStatus":"tentative-area-province","sourceLabel":"พังงา 136.31 ไร่","geometryAreaRai":136.31,"sourceCrs":"EPSG:32647","sourceFile":"Company-data/T-VER  Standard กลุ่ม 2 สยามทีซี  ขึ้นทะเบียน/Shpfile/Boundary/Boundary_MOC2(21-6-24).shp","province":"พังงา","allocatedAreaRai":136.31,"officialParticipatingAreaRai":136.31,"matchedLayerId":"70-STC","areaDifferenceRai":0.0,"matchMethod":"auto matched by same province and nearest official participating area"},"geometry":{"type":"Polygon","coordinates":[[[98.6135621,8.4449738],[98.6136904,8.4438433],[98.6139272,8.4432104],[98.6146361,8.4429035],[98.6144917,8.4419265],[98.6136924,8.4418714],[98.6138927,8.4414465],[98.6145395,8.43962],[98.6145488,8.4393577],[98.6143491,8.4391947],[98.6128233,8.4388495],[98.6123144,8.4390118],[98.6119234,8.4393642],[98.6118494,8.4407752],[98.6107488,8.4421218],[98.6094037,8.4427717],[98.6090582,8.4430518],[98.6091215,8.4433051],[98.6104655,8.443822],[98.6111737,8.4441845],[98.6114645,8.4441396],[98.6126265,8.4449367],[98.6135621,8.4449738]]]}},{"type":"Feature","id":"71-STC","properties":{"layerId":"71-STC","plotId":"71-STC","plotMatchStatus":"tentative-area-province","sourceLabel":"พังงา 72.17 ไร่","geometryAreaRai":72.17,"sourceCrs":"EPSG:32647","sourceFile":"Company-data/T-VER  Standard กลุ่ม 2 สยามทีซี  ขึ้นทะเบียน/Shpfile/Boundary/Boundary_MOC2(21-6-24).shp","province":"พังงา","allocatedAreaRai":72.17,"officialParticipatingAreaRai":72.17,"matchedLayerId":"71-STC","areaDifferenceRai":0.0,"matchMethod":"auto matched by same province and nearest official participating area"},"geometry":{"type":"Polygon","coordinates":[[[98.6111925,8.434461],[98.6109474,8.4342708],[98.6099386,8.4347221],[98.6089025,8.4352728],[98.6080115,8.4359684],[98.6095728,8.4372001],[98.6115422,8.4390201],[98.6118511,8.4390656],[98.6119784,8.4388849],[98.6119153,8.4384506],[98.6119162,8.4374828],[98.6116181,8.4358272],[98.6112913,8.435646],[98.6112372,8.4351937],[98.6111925,8.434461]]]}},{"type":"Feature","id":"72-STC","properties":{"layerId":"72-STC","plotId":"72-STC","plotMatchStatus":"tentative-area-province","sourceLabel":"พังงา 1,047.43 ไร่","geometryAreaRai":1017.01,"sourceCrs":"EPSG:32647","sourceFile":"Company-data/T-VER  Standard กลุ่ม 2 สยามทีซี  ขึ้นทะเบียน/Shpfile/Boundary/Boundary_MOC2(21-6-24).shp","province":"พังงา","allocatedAreaRai":1047.43,"officialParticipatingAreaRai":1017.01,"matchedLayerId":"72-STC","areaDifferenceRai":-0.0,"matchMethod":"auto matched by same province and nearest official participating area"},"geometry":{"type":"MultiPolygon","coordinates":[[[[98.6078275,8.4383561],[98.6078275,8.4383561],[98.6073825,8.4389602],[98.6071178,8.4397934],[98.6070201,8.4396977],[98.6071405,8.4394593],[98.6067817,8.4394314],[98.6063673,8.4391924],[98.6067817,8.4394314],[98.6077433,8.4407168],[98.6093058,8.4407184],[98.6096957,8.4414605],[98.6106774,8.4409097],[98.6110777,8.4402498],[98.6108877,8.439526],[98.6093711,8.4390089],[98.6078275,8.4383561]]],[[[98.6070833,8.4375684],[98.6067117,8.436745],[98.6067309,8.43575],[98.6073499,8.4344662],[98.6081409,8.4338338],[98.6088952,8.4334547],[98.6099043,8.4326869],[98.6087068,8.4311028],[98.6089623,8.4314407],[98.6078504,8.4318391],[98.6065442,8.4328718],[98.6057576,8.4331404],[98.6053503,8.4334832],[98.6052614,8.4338536],[98.6055844,8.4341917],[98.6051958,8.4339139],[98.6051724,8.4336962],[98.6053737,8.4333211],[98.6057249,8.4330478],[98.6064927,8.4327653],[98.6074759,8.4318298],[98.6085293,8.4313621],[98.6087068,8.4311028],[98.6087068,8.4311028],[98.6056567,8.4290193],[98.6042223,8.4281767],[98.6041212,8.4280975],[98.6032317,8.4289468],[98.6027913,8.4291321],[98.6027328,8.4296998],[98.6030021,8.4301562],[98.6025969,8.4296673],[98.6026672,8.4290904],[98.6022878,8.4290811],[98.602077,8.4292039],[98.6019786,8.429424],[98.602269,8.4300728],[98.6023088,8.4304064],[98.6022667,8.4307771],[98.6024728,8.4312173],[98.6028054,8.4314676],[98.602871,8.431741],[98.6030209,8.4318383],[98.6030068,8.4320375],[98.6029225,8.4324592],[98.6029225,8.4320005],[98.6027679,8.4317688],[98.6026695,8.4315139],[98.6023416,8.4312266],[98.6021824,8.4307308],[98.6022011,8.4302767],[98.6018732,8.4295955],[98.6015547,8.4294611],[98.6015359,8.4292989],[98.6017982,8.4294148],[98.6020465,8.4290163],[98.6028944,8.4288587],[98.6033441,8.4286224],[98.6037517,8.4281034],[98.6035688,8.4276649],[98.6038041,8.4278492],[98.6026611,8.426954],[98.601935,8.426293],[98.601926,8.4262839],[98.6003165,8.4278652],[98.599762,8.4282626],[98.5981984,8.4293645],[98.5981984,8.4293645],[98.5981153,8.4298137],[98.5985273,8.4308346],[98.5984649,8.4312956],[98.597874,8.4322424],[98.5978698,8.4328433],[98.5981819,8.4331335],[98.598519,8.4332035],[98.5988467,8.4334145],[98.5988663,8.4335169],[98.5987705,8.4336145],[98.598656,8.4334127],[98.5984436,8.4333139],[98.5979439,8.433215],[98.5977461,8.4336104],[98.5976254,8.4335116],[98.5973089,8.4339894],[98.5972569,8.4339214],[98.5974151,8.4335548],[98.5978273,8.4331182],[98.5977628,8.4329061],[98.597615,8.4324489],[98.597769,8.4319052],[98.5981438,8.4312626],[98.5982271,8.4308837],[98.5977297,8.4297005],[98.5974802,8.4298794],[98.5938807,8.4319741],[98.5935899,8.4321457],[98.5937598,8.4320455],[98.5937521,8.4323491],[98.5939161,8.4329037],[98.5941815,8.4331956],[98.5938208,8.4330025],[98.5935975,8.4332512],[98.593724,8.4329546],[98.5937349,8.4327121],[98.5935899,8.4321457],[98.5932811,8.4321001],[98.5914645,8.4318088],[98.5910739,8.4318627],[98.5906469,8.4319255],[98.5902744,8.4319794],[98.5899561,8.4322595],[98.5888104,8.4332894],[98.5886468,8.433434],[98.5887011,8.433624],[98.588891,8.4343749],[98.5889453,8.4345649],[98.5909324,8.4368012],[98.5912954,8.4372086],[98.5923319,8.436278],[98.5932033,8.4369573],[98.5936851,8.436596],[98.5952745,8.4369142],[98.5978458,8.4364737],[98.5990006,8.4354527],[98.5989379,8.4345482],[98.5985387,8.4340412],[98.5988663,8.4335169],[98.6000928,8.4333916],[98.6012911,8.4342159],[98.6030265,8.4338739],[98.6034425,8.4357015],[98.603069,8.4367051],[98.6019698,8.436704],[98.6017779,8.4378525],[98.6018219,8.4391913],[98.6038653,8.4397179],[98.6056196,8.4387609],[98.6056196,8.4387609],[98.605182,8.4389996],[98.6053995,8.4386985],[98.604943,8.438202],[98.6047454,8.4380993],[98.604524,8.4380994],[98.604275,8.4382831],[98.6042434,8.4381541],[98.6044726,8.4380407],[98.6050102,8.438072],[98.605605,8.438676],[98.606777,8.4393466],[98.6070151,8.4392518],[98.6077014,8.4382227],[98.6070833,8.4375684]]]]}},{"type":"Feature","id":"73-STC","properties":{"layerId":"73-STC","plotId":"73-STC","plotMatchStatus":"tentative-area-province","sourceLabel":"พังงา 493.35 ไร่","geometryAreaRai":484.41,"sourceCrs":"EPSG:32647","sourceFile":"Company-data/T-VER  Standard กลุ่ม 2 สยามทีซี  ขึ้นทะเบียน/Shpfile/Boundary/Boundary_MOC2(21-6-24).shp","province":"พังงา","allocatedAreaRai":493.35,"officialParticipatingAreaRai":484.41,"matchedLayerId":"73-STC","areaDifferenceRai":0.0,"matchMethod":"auto matched by same province and nearest official participating area"},"geometry":{"type":"Polygon","coordinates":[[[98.6112687,8.4309425],[98.6117864,8.4310335],[98.6121046,8.4307805],[98.612214,8.4303826],[98.6124868,8.4300935],[98.6131135,8.4301755],[98.613586,8.4300945],[98.6139406,8.4297874],[98.6140773,8.4293443],[98.6129335,8.4266826],[98.6121507,8.4264593],[98.6128719,8.4265391],[98.6120831,8.4250006],[98.6111488,8.4236972],[98.6111488,8.4236972],[98.6107211,8.4236918],[98.6106662,8.4238505],[98.6104172,8.4238922],[98.6101608,8.4240321],[98.6100943,8.4241793],[98.6101302,8.4246782],[98.6101091,8.4249412],[98.6099487,8.425127],[98.6096891,8.425173],[98.6096722,8.4250853],[98.6099149,8.4250268],[98.6100669,8.4248369],[98.6099698,8.4241688],[98.6101133,8.4240143],[98.6104932,8.423791],[98.6108416,8.4234347],[98.610804,8.4232627],[98.6089357,8.420285],[98.6085178,8.420366],[98.6085178,8.420366],[98.608285,8.4207086],[98.6083783,8.4213508],[98.6088808,8.4221645],[98.6094722,8.4220502],[98.608992,8.4222877],[98.6094856,8.4231982],[98.6095122,8.4233874],[98.6093922,8.4237173],[98.608992,8.4240384],[98.608574,8.4241879],[98.6082939,8.4245486],[98.6076713,8.4244035],[98.6082805,8.4243947],[98.6085251,8.4240692],[98.6090765,8.4238668],[98.6093877,8.4234974],[98.6094433,8.4232708],[98.6092499,8.4229255],[98.6090231,8.4228617],[98.6089786,8.422589],[98.6086407,8.4221272],[98.6082538,8.4221228],[98.6085206,8.4219644],[98.6081938,8.4213288],[98.6081138,8.4208581],[98.6081265,8.4204027],[98.6079455,8.4204197],[98.6076092,8.420555],[98.6066187,8.4209611],[98.6063187,8.4211959],[98.6057732,8.4216115],[98.6054825,8.4216112],[98.6054644,8.4216112],[98.6050644,8.4218369],[98.6042464,8.4222883],[98.6040556,8.4223967],[98.6039101,8.4225322],[98.6035464,8.4228575],[98.6032825,8.4233637],[98.6033362,8.4240964],[98.6039891,8.4252187],[98.6068204,8.4280708],[98.608454,8.4295558],[98.6097521,8.430543],[98.6106868,8.4314937],[98.611023,8.4314307],[98.6110415,8.4310599],[98.6112687,8.4309425]]]}},{"type":"Feature","id":"74-STC","properties":{"layerId":"74-STC","plotId":"74-STC","plotMatchStatus":"tentative-area-province","sourceLabel":"พังงา 104.4 ไร่","geometryAreaRai":104.32,"sourceCrs":"EPSG:32647","sourceFile":"Company-data/T-VER  Standard กลุ่ม 2 สยามทีซี  ขึ้นทะเบียน/Shpfile/Boundary/Boundary_MOC2(21-6-24).shp","province":"พังงา","allocatedAreaRai":104.4,"officialParticipatingAreaRai":104.32,"matchedLayerId":"74-STC","areaDifferenceRai":-0.0,"matchMethod":"auto matched by same province and nearest official participating area"},"geometry":{"type":"Polygon","coordinates":[[[98.3584291,8.9327813],[98.3572345,8.9292971],[98.3563404,8.9308422],[98.3553889,8.9321672],[98.3561896,8.9338628],[98.3566324,8.9354916],[98.3579598,8.9358466],[98.3593789,8.9357767],[98.3590362,8.934121],[98.3584291,8.9327813]]]}},{"type":"Feature","id":"75-STC","properties":{"layerId":"75-STC","plotId":"75-STC","plotMatchStatus":"tentative-area-province","sourceLabel":"พังงา 445.98 ไร่","geometryAreaRai":438.64,"sourceCrs":"EPSG:32647","sourceFile":"Company-data/T-VER  Standard กลุ่ม 2 สยามทีซี  ขึ้นทะเบียน/Shpfile/Boundary/Boundary_MOC2(21-6-24).shp","province":"พังงา","allocatedAreaRai":445.98,"officialParticipatingAreaRai":438.64,"matchedLayerId":"75-STC","areaDifferenceRai":0.0,"matchMethod":"auto matched by same province and nearest official participating area"},"geometry":{"type":"Polygon","coordinates":[[[98.3584669,8.9267396],[98.3585593,8.9259258],[98.3584057,8.9253557],[98.3585695,8.9252926],[98.3589227,8.9261796],[98.3595513,8.9255747],[98.3611164,8.9252066],[98.3613723,8.9245106],[98.3619172,8.9249999],[98.3622727,8.9245393],[98.3624382,8.9235447],[98.3623951,8.9221517],[98.3623422,8.9212019],[98.3619159,8.9205138],[98.3622713,8.9201255],[98.3615537,8.9195545],[98.3607814,8.9190828],[98.3596175,8.9188999],[98.3595081,8.9190806],[98.3592174,8.918854],[98.3594452,8.9186283],[98.360282,8.9186297],[98.3619631,8.91951],[98.3624634,8.9194746],[98.3637168,8.9204988],[98.3637465,8.9191422],[98.3619378,8.9183522],[98.3583956,8.915488],[98.3566951,8.9153132],[98.3553847,8.9156908],[98.3553018,8.9162605],[98.3550554,8.9167666],[98.3557535,8.9180159],[98.3560135,8.920178],[98.3564455,8.9227836],[98.3568781,8.9250546],[98.3573661,8.9268734],[98.3578558,8.9277244],[98.3584669,8.9267396]],[[98.3608272,8.9187385],[98.3608501,8.9189272],[98.3605988,8.9187956],[98.3607707,8.9187194],[98.3606862,8.9186158],[98.3605062,8.9183259],[98.3607754,8.9185107],[98.3608272,8.9187385]],[[98.361991,8.9186138],[98.3618189,8.9186138],[98.3617222,8.9185045],[98.3620053,8.9185224],[98.3622096,8.9187375],[98.362215,8.9190081],[98.3621128,8.9189973],[98.3621272,8.9187465],[98.361991,8.9186138]],[[98.3622713,8.9201255],[98.3619979,8.9204242],[98.3615742,8.9202215],[98.3614289,8.9202852],[98.3612937,8.9200365],[98.3617094,8.9199629],[98.3618606,8.9200823],[98.3618915,8.9198233],[98.3622713,8.9201255]],[[98.3580896,8.9211245],[98.3581577,8.920974],[98.358276,8.9209579],[98.3584068,8.9210672],[98.3585556,8.921026],[98.3587921,8.9210743],[98.3587581,8.9212034],[98.3586147,8.9211765],[98.358457,8.9212231],[98.3582599,8.9212267],[98.3580896,8.9211245]],[[98.3605012,8.925123],[98.3603801,8.9253798],[98.3601871,8.9254252],[98.3603789,8.9251104],[98.3603161,8.9243572],[98.3605515,8.9229858],[98.360859,8.9232243],[98.3604605,8.9240999],[98.3604291,8.9244639],[98.3606519,8.9251418],[98.3605012,8.925123]]]}},{"type":"Feature","id":"76-STC","properties":{"layerId":"76-STC","plotId":"76-STC","plotMatchStatus":"tentative-area-province","sourceLabel":"พังงา 106.01 ไร่","geometryAreaRai":106.01,"sourceCrs":"EPSG:32647","sourceFile":"Company-data/T-VER  Standard กลุ่ม 2 สยามทีซี  ขึ้นทะเบียน/Shpfile/Boundary/Boundary_MOC2(21-6-24).shp","province":"พังงา","allocatedAreaRai":106.01,"officialParticipatingAreaRai":106.01,"matchedLayerId":"76-STC","areaDifferenceRai":-0.0,"matchMethod":"auto matched by same province and nearest official participating area"},"geometry":{"type":"Polygon","coordinates":[[[98.3068951,8.8879455],[98.3063759,8.8883968],[98.3064572,8.8886954],[98.3058471,8.8891012],[98.3055382,8.8889379],[98.3044364,8.8896322],[98.3034889,8.8905168],[98.3044867,8.8918935],[98.30586,8.8919141],[98.306452,8.8914539],[98.3094271,8.8908625],[98.3095915,8.8904558],[98.3085298,8.8891876],[98.3091319,8.8882119],[98.3088142,8.8878767],[98.3079122,8.8887614],[98.307285,8.8885703],[98.3068951,8.8879455]]]}},{"type":"Feature","id":"77-STC","properties":{"layerId":"77-STC","plotId":"77-STC","plotMatchStatus":"tentative-area-province","sourceLabel":"พังงา 52.11 ไร่","geometryAreaRai":52.11,"sourceCrs":"EPSG:32647","sourceFile":"Company-data/T-VER  Standard กลุ่ม 2 สยามทีซี  ขึ้นทะเบียน/Shpfile/Boundary/Boundary_MOC2(21-6-24).shp","province":"พังงา","allocatedAreaRai":52.11,"officialParticipatingAreaRai":52.11,"matchedLayerId":"77-STC","areaDifferenceRai":-0.0,"matchMethod":"auto matched by same province and nearest official participating area"},"geometry":{"type":"Polygon","coordinates":[[[98.3381605,8.9747757],[98.3400539,8.9740645],[98.3411103,8.9734333],[98.3397471,8.9726983],[98.3410244,8.9706022],[98.339405,8.970744],[98.3394217,8.9715219],[98.337361,8.9742316],[98.3381605,8.9747757]]]}},{"type":"Feature","id":"78-STC","properties":{"layerId":"78-STC","plotId":"78-STC","plotMatchStatus":"tentative-area-province","sourceLabel":"ภูเก็ต 26.31 ไร่","geometryAreaRai":26.31,"sourceCrs":"EPSG:32647","sourceFile":"Company-data/T-VER  Standard กลุ่ม 2 สยามทีซี  ขึ้นทะเบียน/Shpfile/Boundary/Boundary_MOC2(21-6-24).shp","province":"ภูเก็ต","allocatedAreaRai":26.31,"officialParticipatingAreaRai":26.31,"matchedLayerId":"78-STC","areaDifferenceRai":-0.0,"matchMethod":"auto matched by same province and nearest official participating area"},"geometry":{"type":"Polygon","coordinates":[[[98.3458568,8.1386309],[98.3454574,8.1386212],[98.3452115,8.1391273],[98.3453012,8.1398058],[98.3457367,8.139897],[98.3459359,8.140241],[98.3463988,8.1402689],[98.3465893,8.1403144],[98.3467791,8.1408303],[98.3467418,8.1414181],[98.3466582,8.1425938],[98.3472663,8.1426853],[98.3474374,8.1417109],[98.3477308,8.1417092],[98.3478135,8.141049],[98.3475185,8.140916],[98.3471604,8.1407766],[98.3469428,8.1406316],[98.3467445,8.139781],[98.3466815,8.1394553],[98.3463735,8.1390659],[98.3458568,8.1386309]]]}},{"type":"Feature","id":"79-STC","properties":{"layerId":"79-STC","plotId":"79-STC","plotMatchStatus":"tentative-area-province","sourceLabel":"ภูเก็ต 50.74 ไร่","geometryAreaRai":50.74,"sourceCrs":"EPSG:32647","sourceFile":"Company-data/T-VER  Standard กลุ่ม 2 สยามทีซี  ขึ้นทะเบียน/Shpfile/Boundary/Boundary_MOC2(21-6-24).shp","province":"ภูเก็ต","allocatedAreaRai":50.74,"officialParticipatingAreaRai":50.74,"matchedLayerId":"79-STC","areaDifferenceRai":0.0,"matchMethod":"auto matched by same province and nearest official participating area"},"geometry":{"type":"Polygon","coordinates":[[[98.4110167,8.0045272],[98.4102998,8.0037592],[98.410171,8.004962],[98.4101162,8.0052242],[98.4093383,8.0077032],[98.409004,8.0087683],[98.4094394,8.0089317],[98.4099202,8.0089957],[98.4109203,8.0095132],[98.4117066,8.0087587],[98.4109715,8.0079092],[98.4109125,8.006763],[98.4110234,8.0059835],[98.4106688,8.0058672],[98.4104247,8.0051975],[98.4108192,8.0050187],[98.4110167,8.0045272]]]}},{"type":"Feature","id":"80-STC","properties":{"layerId":"80-STC","plotId":"80-STC","plotMatchStatus":"tentative-area-province","sourceLabel":"ภูเก็ต 70.81 ไร่","geometryAreaRai":70.81,"sourceCrs":"EPSG:32647","sourceFile":"Company-data/T-VER  Standard กลุ่ม 2 สยามทีซี  ขึ้นทะเบียน/Shpfile/Boundary/Boundary_MOC2(21-6-24).shp","province":"ภูเก็ต","allocatedAreaRai":70.81,"officialParticipatingAreaRai":70.81,"matchedLayerId":"80-STC","areaDifferenceRai":-0.0,"matchMethod":"auto matched by same province and nearest official participating area"},"geometry":{"type":"MultiPolygon","coordinates":[[[[98.4116245,8.0101288],[98.4105449,8.0099916],[98.4099089,8.0105696],[98.4102324,8.0127589],[98.4104314,8.0132115],[98.4100861,8.0135366],[98.4102122,8.0141609],[98.4109382,8.0141258],[98.4118742,8.0131683],[98.4116245,8.0101288]]],[[[98.4108911,8.0153558],[98.4101381,8.0152372],[98.4099421,8.0190177],[98.4102415,8.0190453],[98.4106604,8.0180148],[98.4113258,8.0159353],[98.4108911,8.0153558]]]]}},{"type":"Feature","id":"88-STC","properties":{"layerId":"88-STC","plotId":"88-STC","plotMatchStatus":"tentative-area-province","sourceLabel":"สตูล 438.58 ไร่","geometryAreaRai":438.58,"sourceCrs":"EPSG:32647","sourceFile":"Company-data/T-VER  Standard กลุ่ม 2 สยามทีซี  ขึ้นทะเบียน/Shpfile/Boundary/Boundary_MOC2(21-6-24).shp","province":"สตูล","allocatedAreaRai":438.58,"officialParticipatingAreaRai":438.58,"matchedLayerId":"88-STC","areaDifferenceRai":-0.0,"matchMethod":"auto matched by same province and nearest official participating area"},"geometry":{"type":"Polygon","coordinates":[[[100.0931359,6.5878701],[100.0927297,6.5882147],[100.0923588,6.5881974],[100.0925838,6.5876633],[100.0923478,6.5873021],[100.092555,6.5869127],[100.0926716,6.5864602],[100.0896467,6.5804703],[100.0872575,6.5797972],[100.0862305,6.5816445],[100.0856083,6.5825051],[100.0853021,6.5830846],[100.0851595,6.5840617],[100.0858316,6.5853807],[100.0867037,6.5871154],[100.087393,6.5880274],[100.0884274,6.5895356],[100.0891431,6.5900857],[100.0897959,6.5907988],[100.0901749,6.5904181],[100.0905549,6.5904896],[100.0908449,6.5907513],[100.0909451,6.5910405],[100.0917964,6.5915542],[100.0937127,6.5910525],[100.0940354,6.5897404],[100.0931359,6.5878701]]]}},{"type":"Feature","id":"89-STC","properties":{"layerId":"89-STC","plotId":"89-STC","plotMatchStatus":"tentative-area-province","sourceLabel":"สตูล 175.34 ไร่","geometryAreaRai":168.8,"sourceCrs":"EPSG:32647","sourceFile":"Company-data/T-VER  Standard กลุ่ม 2 สยามทีซี  ขึ้นทะเบียน/Shpfile/Boundary/Boundary_MOC2(21-6-24).shp","province":"สตูล","allocatedAreaRai":175.34,"officialParticipatingAreaRai":168.8,"matchedLayerId":"89-STC","areaDifferenceRai":0.0,"matchMethod":"auto matched by same province and nearest official participating area"},"geometry":{"type":"Polygon","coordinates":[[[100.04541,6.5499034],[100.0467311,6.5502172],[100.0483063,6.5509375],[100.0489367,6.549679],[100.0483382,6.5489205],[100.0471543,6.5492938],[100.0465559,6.5485715],[100.0459683,6.5487355],[100.0457684,6.5482746],[100.0462743,6.5480203],[100.045376,6.546575],[100.0440377,6.5466592],[100.0432164,6.5472722],[100.0431761,6.5476052],[100.0434483,6.5479778],[100.0435602,6.5486335],[100.043928,6.5491745],[100.0442274,6.5509444],[100.0443608,6.5514855],[100.0442039,6.551919],[100.0444257,6.5522522],[100.0447304,6.5522612],[100.0448784,6.5521392],[100.0449344,6.5524388],[100.0442292,6.552326],[100.0440272,6.5519605],[100.0442509,6.5514087],[100.0440417,6.5508283],[100.0438037,6.5492518],[100.0434105,6.5485209],[100.0433312,6.5481053],[100.0429633,6.5476251],[100.0430534,6.5473939],[100.0406769,6.5483666],[100.041006,6.5500844],[100.0423993,6.5503257],[100.0428072,6.550759],[100.0432415,6.5508667],[100.0437399,6.5513269],[100.0438327,6.5524482],[100.0443317,6.553216],[100.0446124,6.5533963],[100.0449018,6.5533957],[100.045,6.5527895],[100.0447074,6.5512254],[100.0448684,6.5503929],[100.04541,6.5499034]]]}},{"type":"Feature","id":"90(1)-STC","properties":{"layerId":"90(1)-STC","plotId":"90(1)-STC","plotMatchStatus":"tentative-area-province","sourceLabel":"สตูล 425.39 ไร่","geometryAreaRai":425.3,"sourceCrs":"EPSG:32647","sourceFile":"Company-data/T-VER  Standard กลุ่ม 2 สยามทีซี  ขึ้นทะเบียน/Shpfile/Boundary/Boundary_MOC2(21-6-24).shp","province":"สตูล","allocatedAreaRai":425.39,"officialParticipatingAreaRai":425.3,"matchedLayerId":"90(1)-STC","areaDifferenceRai":-0.0,"matchMethod":"auto matched by same province and nearest official participating area"},"geometry":{"type":"Polygon","coordinates":[[[100.0849078,6.5764377],[100.0843923,6.5764479],[100.0845419,6.5745663],[100.0852744,6.5745104],[100.0857246,6.5735688],[100.0870044,6.571522],[100.0872381,6.5708341],[100.0867131,6.5706362],[100.0765281,6.5742942],[100.0773456,6.5759023],[100.0789507,6.5779068],[100.0790963,6.5783135],[100.0790266,6.5795165],[100.0868415,6.579789],[100.0853358,6.5777754],[100.0850079,6.576754],[100.0849078,6.5764377]]]}},{"type":"Feature","id":"90-STC","properties":{"layerId":"90-STC","plotId":"90-STC","plotMatchStatus":"tentative-area-province","sourceLabel":"สตูล 1877.5 ไร่","geometryAreaRai":1863.45,"sourceCrs":"EPSG:32647","sourceFile":"Company-data/T-VER  Standard กลุ่ม 2 สยามทีซี  ขึ้นทะเบียน/Shpfile/Boundary/Boundary_MOC2(21-6-24).shp","province":"สตูล","allocatedAreaRai":1877.5,"officialParticipatingAreaRai":1863.46,"matchedLayerId":"90-STC","areaDifferenceRai":-0.01,"matchMethod":"auto matched by same province and nearest official participating area"},"geometry":{"type":"Polygon","coordinates":[[[100.1083343,6.5199127],[100.1098088,6.5201265],[100.1108506,6.5209382],[100.1111427,6.5222038],[100.1132441,6.5196215],[100.1142018,6.5192304],[100.1142188,6.5187239],[100.1149513,6.5187133],[100.1151391,6.5177632],[100.1146583,6.5170769],[100.1154603,6.5157908],[100.1164715,6.515074],[100.1169327,6.5150911],[100.1176491,6.5159578],[100.1180009,6.5155952],[100.1180526,6.5144374],[100.1155251,6.5123718],[100.1157848,6.5125841],[100.1145186,6.513066],[100.1141436,6.512912],[100.1138875,6.5122992],[100.1135557,6.5118693],[100.1123728,6.5113461],[100.1120266,6.5113909],[100.1119057,6.5113157],[100.1122898,6.5112619],[100.1129372,6.5113981],[100.1137414,6.5118925],[100.1143545,6.5129245],[100.1155251,6.5123718],[100.1155251,6.5123718],[100.1152295,6.5095596],[100.1161834,6.5074864],[100.1176338,6.5049597],[100.1204699,6.503443],[100.1207459,6.5014888],[100.1186973,6.4992684],[100.1167614,6.49892],[100.1147378,6.4998379],[100.1113145,6.5016272],[100.1113145,6.5016272],[100.1110238,6.5021042],[100.1111103,6.502637],[100.1109348,6.5021329],[100.1110722,6.5016935],[100.1090823,6.5022381],[100.1061801,6.5025248],[100.105264,6.5053849],[100.106079,6.5059077],[100.1033371,6.5091697],[100.1046638,6.5121334],[100.1025588,6.5130696],[100.1011126,6.5133622],[100.1008875,6.513842],[100.1033955,6.5152475],[100.1043122,6.5167559],[100.1049208,6.5180118],[100.1065487,6.51628],[100.1070968,6.5161295],[100.1077568,6.5164233],[100.1080886,6.5163302],[100.1082942,6.5159324],[100.1082112,6.5163158],[100.1078254,6.5165237],[100.1072519,6.5162531],[100.1067745,6.5162782],[100.1059779,6.5169021],[100.1050078,6.5180953],[100.1036524,6.5210354],[100.1036524,6.5210354],[100.1038898,6.5220931],[100.1043967,6.5223],[100.1052013,6.5221987],[100.1058241,6.5216457],[100.1066814,6.5208479],[100.1083343,6.5199127]],[[100.1200773,6.5033477],[100.120554,6.5028473],[100.1204699,6.503443],[100.1176338,6.5049597],[100.1200773,6.5033477]]]}},{"type":"Feature","id":"91-STC","properties":{"layerId":"91-STC","plotId":"91-STC","plotMatchStatus":"tentative-area-province","sourceLabel":"สมุทรสงคราม 279.43 ไร่","geometryAreaRai":279.43,"sourceCrs":"EPSG:32647","sourceFile":"Company-data/T-VER  Standard กลุ่ม 2 สยามทีซี  ขึ้นทะเบียน/Shpfile/Boundary/Boundary_MOC2(21-6-24).shp","province":"สมุทรสงคราม","allocatedAreaRai":279.43,"officialParticipatingAreaRai":279.43,"matchedLayerId":"91-STC","areaDifferenceRai":0.0,"matchMethod":"auto matched by same province and nearest official participating area"},"geometry":{"type":"Polygon","coordinates":[[[99.9567358,13.3048007],[99.9661105,13.3129024],[99.9675366,13.3116584],[99.9649789,13.3068852],[99.961766,13.3044924],[99.9612122,13.3045306],[99.9590209,13.30368],[99.9567358,13.3048007]]]}},{"type":"Feature","id":"92-STC","properties":{"layerId":"92-STC","plotId":"92-STC","plotMatchStatus":"tentative-area-province","sourceLabel":"สมุทรสงคราม 100.36 ไร่","geometryAreaRai":98.94,"sourceCrs":"EPSG:32647","sourceFile":"Company-data/T-VER  Standard กลุ่ม 2 สยามทีซี  ขึ้นทะเบียน/Shpfile/Boundary/Boundary_MOC2(21-6-24).shp","province":"สมุทรสงคราม","allocatedAreaRai":100.36,"officialParticipatingAreaRai":98.94,"matchedLayerId":"92-STC","areaDifferenceRai":0.0,"matchMethod":"auto matched by same province and nearest official participating area"},"geometry":{"type":"Polygon","coordinates":[[[99.9738423,13.3163538],[99.9748239,13.3147859],[99.9736672,13.3141213],[99.9736574,13.3139586],[99.9718452,13.3132874],[99.9715699,13.3137044],[99.9687787,13.3129375],[99.968012,13.3128138],[99.9676715,13.3130954],[99.9672919,13.3128256],[99.9662146,13.3135259],[99.9738423,13.3163538]],[[99.9713406,13.3148636],[99.9711703,13.3153632],[99.9710611,13.3153227],[99.9712523,13.3147951],[99.9713146,13.3136342],[99.9715699,13.3137044],[99.9713283,13.31422],[99.9713406,13.3148636]]]}},{"type":"Feature","id":"93-STC","properties":{"layerId":"93-STC","plotId":"93-STC","plotMatchStatus":"tentative-area-province","sourceLabel":"สมุทรสงคราม 79.02 ไร่","geometryAreaRai":79.02,"sourceCrs":"EPSG:32647","sourceFile":"Company-data/T-VER  Standard กลุ่ม 2 สยามทีซี  ขึ้นทะเบียน/Shpfile/Boundary/Boundary_MOC2(21-6-24).shp","province":"สมุทรสงคราม","allocatedAreaRai":79.02,"officialParticipatingAreaRai":79.02,"matchedLayerId":"93-STC","areaDifferenceRai":-0.0,"matchMethod":"auto matched by same province and nearest official participating area"},"geometry":{"type":"Polygon","coordinates":[[[99.9744399,13.3157186],[99.9804932,13.3195469],[99.9807009,13.3184069],[99.977966,13.3155695],[99.9764313,13.3150419],[99.9754246,13.3149283],[99.9744399,13.3157186]]]}},{"type":"Feature","id":"94-STC","properties":{"layerId":"94-STC","plotId":"94-STC","plotMatchStatus":"tentative-area-province","sourceLabel":"สมุทรสงคราม 30.66 ไร่","geometryAreaRai":30.66,"sourceCrs":"EPSG:32647","sourceFile":"Company-data/T-VER  Standard กลุ่ม 2 สยามทีซี  ขึ้นทะเบียน/Shpfile/Boundary/Boundary_MOC2(21-6-24).shp","province":"สมุทรสงคราม","allocatedAreaRai":30.66,"officialParticipatingAreaRai":30.66,"matchedLayerId":"94-STC","areaDifferenceRai":0.0,"matchMethod":"auto matched by same province and nearest official participating area"},"geometry":{"type":"Polygon","coordinates":[[[99.9789822,13.3226268],[99.9824474,13.3233819],[99.9828882,13.3228016],[99.9823317,13.3221618],[99.9818413,13.3219015],[99.9816555,13.3216129],[99.9813602,13.3216502],[99.9809169,13.3215977],[99.980161,13.3218899],[99.9795518,13.3219194],[99.9789822,13.3226268]]]}},{"type":"Feature","id":"95-STC","properties":{"layerId":"95-STC","plotId":"95-STC","plotMatchStatus":"tentative-area-province","sourceLabel":"สมุทรสงคราม 22.91 ไร่","geometryAreaRai":22.91,"sourceCrs":"EPSG:32647","sourceFile":"Company-data/T-VER  Standard กลุ่ม 2 สยามทีซี  ขึ้นทะเบียน/Shpfile/Boundary/Boundary_MOC2(21-6-24).shp","province":"สมุทรสงคราม","allocatedAreaRai":22.91,"officialParticipatingAreaRai":22.91,"matchedLayerId":"95-STC","areaDifferenceRai":0.0,"matchMethod":"auto matched by same province and nearest official participating area"},"geometry":{"type":"Polygon","coordinates":[[[99.9831289,13.3229453],[99.9849585,13.3233451],[99.9853429,13.3225208],[99.9847688,13.3221072],[99.9844175,13.321982],[99.9842689,13.3217655],[99.9833266,13.3216155],[99.9824599,13.3219082],[99.9831289,13.3229453]]]}},{"type":"Feature","id":"96-STC","properties":{"layerId":"96-STC","plotId":"96-STC","plotMatchStatus":"tentative-area-province","sourceLabel":"สมุทรสงคราม 5.15 ไร่","geometryAreaRai":5.15,"sourceCrs":"EPSG:32647","sourceFile":"Company-data/T-VER  Standard กลุ่ม 2 สยามทีซี  ขึ้นทะเบียน/Shpfile/Boundary/Boundary_MOC2(21-6-24).shp","province":"สมุทรสงคราม","allocatedAreaRai":5.15,"officialParticipatingAreaRai":5.15,"matchedLayerId":"96-STC","areaDifferenceRai":-0.0,"matchMethod":"auto matched by same province and nearest official participating area"},"geometry":{"type":"Polygon","coordinates":[[[99.9849132,13.3235713],[99.985663,13.3240385],[99.9860383,13.3232414],[99.9855935,13.3228363],[99.9849132,13.3235713]]]}},{"type":"Feature","id":"97-STC","properties":{"layerId":"97-STC","plotId":"97-STC","plotMatchStatus":"tentative-area-province","sourceLabel":"สมุทรสงคราม 15.96 ไร่","geometryAreaRai":15.96,"sourceCrs":"EPSG:32647","sourceFile":"Company-data/T-VER  Standard กลุ่ม 2 สยามทีซี  ขึ้นทะเบียน/Shpfile/Boundary/Boundary_MOC2(21-6-24).shp","province":"สมุทรสงคราม","allocatedAreaRai":15.96,"officialParticipatingAreaRai":15.96,"matchedLayerId":"97-STC","areaDifferenceRai":-0.0,"matchMethod":"auto matched by same province and nearest official participating area"},"geometry":{"type":"Polygon","coordinates":[[[99.9857277,13.3240654],[99.9875234,13.3251976],[99.9878086,13.3249524],[99.9880471,13.3245808],[99.9878052,13.3241116],[99.9871296,13.3237164],[99.986242,13.3233944],[99.9857277,13.3240654]]]}},{"type":"Feature","id":"98-STC","properties":{"layerId":"98-STC","plotId":"98-STC","plotMatchStatus":"tentative-area-province","sourceLabel":"สมุทรสงคราม 3.59 ไร่","geometryAreaRai":3.59,"sourceCrs":"EPSG:32647","sourceFile":"Company-data/T-VER  Standard กลุ่ม 2 สยามทีซี  ขึ้นทะเบียน/Shpfile/Boundary/Boundary_MOC2(21-6-24).shp","province":"สมุทรสงคราม","allocatedAreaRai":3.59,"officialParticipatingAreaRai":3.59,"matchedLayerId":"98-STC","areaDifferenceRai":0.0,"matchMethod":"auto matched by same province and nearest official participating area"},"geometry":{"type":"Polygon","coordinates":[[[99.9882046,13.3246977],[99.9874855,13.3253325],[99.987544,13.3254243],[99.9880155,13.3249303],[99.9892977,13.3260559],[99.9893008,13.3259249],[99.9888346,13.3252377],[99.9882046,13.3246977]]]}},{"type":"Feature","id":"81-STC","properties":{"province":"ระนอง","plotId":"81-STC","allocatedAreaRai":667.2,"officialParticipatingAreaRai":666.56,"plotMatchStatus":"verified-from-filename","matchedLayerId":"81-STC","geometryAreaRai":666.56,"areaDifferenceRai":0.0,"matchMethod":"source filename equals official plot id","layerId":"81-STC","sourceLabel":"81-STC","sourceCrs":"EPSG:32647","sourceFile":"Company-data/T-VER  Standard กลุ่ม 2 สยามทีซี  ขึ้นทะเบียน/Shpfile/Boundary/81-STC.shp"},"geometry":{"type":"Polygon","coordinates":[[[98.6151798,9.9679007],[98.6147125,9.9665164],[98.6144405,9.9635043],[98.6121129,9.9606164],[98.6113957,9.9591685],[98.6068345,9.9558167],[98.6056826,9.9555169],[98.6041354,9.955497],[98.6027102,9.9556219],[98.6015286,9.9558104],[98.6001075,9.956279],[98.5999787,9.9564778],[98.6007724,9.9571752],[98.6019556,9.9580449],[98.6029756,9.9587516],[98.6035547,9.9588789],[98.603453,9.9592677],[98.6024884,9.9587691],[98.6012658,9.9580441],[98.6005778,9.9574734],[98.6000921,9.9570116],[98.5995237,9.9567017],[98.5992303,9.9566007],[98.5985826,9.9567113],[98.5978997,9.9570452],[98.5977928,9.9572169],[98.598546,9.9589995],[98.5997913,9.9605024],[98.6002386,9.9610004],[98.6008786,9.96139],[98.6015564,9.9614361],[98.6028369,9.9610125],[98.6042458,9.9600645],[98.605017,9.9597579],[98.6058187,9.9599759],[98.6062415,9.9603653],[98.6066204,9.9609175],[98.6064247,9.9621527],[98.6057518,9.9625173],[98.6056953,9.9632137],[98.6061029,9.9641638],[98.6120702,9.9643607],[98.6133771,9.968586],[98.6151798,9.9679007]]]}}]}