{"type":"FeatureCollection","name":"g2-wisutti-sample-plots","features":[{"type":"Feature","id":"SMKH3-01","properties":{"coast":"อ่าวไทย","province":"สมุทรสงคราม","density":"มาก","samplePlotId":"SMKH3","sampleAreaRai":"1","pinId":"SMKH3-01","sourceCrs":"EPSG:32647","sourceFile":"Company-data/T-VER  Standard กลุ่ม 2  สยามทีซี&วิสุทธิ  ขึ้นทะเบียน/24-6-67(sample plot)/พิกัดแปลงตัวอย่าง_VSD.csv"},"geometry":{"type":"Point","coordinates":[99.8660502,13.2630192]}},{"type":"Feature","id":"SMKH3-02","properties":{"coast":"อ่าวไทย","province":"สมุทรสงคราม","density":"มาก","samplePlotId":"SMKH3","sampleAreaRai":"1","pinId":"SMKH3-02","sourceCrs":"EPSG:32647","sourceFile":"Company-data/T-VER  Standard กลุ่ม 2  สยามทีซี&วิสุทธิ  ขึ้นทะเบียน/24-6-67(sample plot)/พิกัดแปลงตัวอย่าง_VSD.csv"},"geometry":{"type":"Point","coordinates":[99.8664472,13.2630449]}},{"type":"Feature","id":"SMKH3-03","properties":{"coast":"อ่าวไทย","province":"สมุทรสงคราม","density":"มาก","samplePlotId":"SMKH3","sampleAreaRai":"1","pinId":"SMKH3-03","sourceCrs":"EPSG:32647","sourceFile":"Company-data/T-VER  Standard กลุ่ม 2  สยามทีซี&วิสุทธิ  ขึ้นทะเบียน/24-6-67(sample plot)/พิกัดแปลงตัวอย่าง_VSD.csv"},"geometry":{"type":"Point","coordinates":[99.8664459,13.2626652]}},{"type":"Feature","id":"SMKH3-04","properties":{"coast":"อ่าวไทย","province":"สมุทรสงคราม","density":"มาก","samplePlotId":"SMKH3","sampleAreaRai":"1","pinId":"SMKH3-04","sourceCrs":"EPSG:32647","sourceFile":"Company-data/T-VER  Standard กลุ่ม 2  สยามทีซี&วิสุทธิ  ขึ้นทะเบียน/24-6-67(sample plot)/พิกัดแปลงตัวอย่าง_VSD.csv"},"geometry":{"type":"Point","coordinates":[99.8660582,13.2626756]}},{"type":"Feature","id":"CMPH1-01","properties":{"coast":"อ่าวไทย","province":"ชุมพร","density":"มาก","samplePlotId":"CMPH1","sampleAreaRai":"1","pinId":"CMPH1-01","sourceCrs":"EPSG:32647","sourceFile":"Company-data/T-VER  Standard กลุ่ม 2  สยามทีซี&วิสุทธิ  ขึ้นทะเบียน/24-6-67(sample plot)/พิกัดแปลงตัวอย่าง_VSD.csv"},"geometry":{"type":"Point","coordinates":[99.4376907,10.8885915]}},{"type":"Feature","id":"CMPH1-02","properties":{"coast":"อ่าวไทย","province":"ชุมพร","density":"มาก","samplePlotId":"CMPH1","sampleAreaRai":"1","pinId":"CMPH1-02","sourceCrs":"EPSG:32647","sourceFile":"Company-data/T-VER  Standard กลุ่ม 2  สยามทีซี&วิสุทธิ  ขึ้นทะเบียน/24-6-67(sample plot)/พิกัดแปลงตัวอย่าง_VSD.csv"},"geometry":{"type":"Point","coordinates":[99.4377106,10.8882235]}},{"type":"Feature","id":"CMPH1-03","properties":{"coast":"อ่าวไทย","province":"ชุมพร","density":"มาก","samplePlotId":"CMPH1","sampleAreaRai":"1","pinId":"CMPH1-03","sourceCrs":"EPSG:32647","sourceFile":"Company-data/T-VER  Standard กลุ่ม 2  สยามทีซี&วิสุทธิ  ขึ้นทะเบียน/24-6-67(sample plot)/พิกัดแปลงตัวอย่าง_VSD.csv"},"geometry":{"type":"Point","coordinates":[99.4373417,10.8882127]}},{"type":"Feature","id":"CMPH1-04","properties":{"coast":"อ่าวไทย","province":"ชุมพร","density":"มาก","samplePlotId":"CMPH1","sampleAreaRai":"1","pinId":"CMPH1-04","sourceCrs":"EPSG:32647","sourceFile":"Company-data/T-VER  Standard กลุ่ม 2  สยามทีซี&วิสุทธิ  ขึ้นทะเบียน/24-6-67(sample plot)/พิกัดแปลงตัวอย่าง_VSD.csv"},"geometry":{"type":"Point","coordinates":[99.4373169,10.8885759]}},{"type":"Feature","id":"CHUH3-02","properties":{"coast":"อ่าวไทย","province":"ชุมพร","density":"มาก","samplePlotId":"CMPH3","sampleAreaRai":"1","pinId":"CHUH3-02","sourceCrs":"EPSG:32647","sourceFile":"Company-data/T-VER  Standard กลุ่ม 2  สยามทีซี&วิสุทธิ  ขึ้นทะเบียน/24-6-67(sample plot)/พิกัดแปลงตัวอย่าง_VSD.csv"},"geometry":{"type":"Point","coordinates":[99.4398555,10.8900301]}},{"type":"Feature","id":"CHUH3-03","properties":{"coast":"อ่าวไทย","province":"ชุมพร","density":"มาก","samplePlotId":"CMPH3","sampleAreaRai":"1","pinId":"CHUH3-03","sourceCrs":"EPSG:32647","sourceFile":"Company-data/T-VER  Standard กลุ่ม 2  สยามทีซี&วิสุทธิ  ขึ้นทะเบียน/24-6-67(sample plot)/พิกัดแปลงตัวอย่าง_VSD.csv"},"geometry":{"type":"Point","coordinates":[99.4398754,10.8896621]}},{"type":"Feature","id":"CHUH3-01","properties":{"coast":"อ่าวไทย","province":"ชุมพร","density":"มาก","samplePlotId":"CMPH3","sampleAreaRai":"1","pinId":"CHUH3-01","sourceCrs":"EPSG:32647","sourceFile":"Company-data/T-VER  Standard กลุ่ม 2  สยามทีซี&วิสุทธิ  ขึ้นทะเบียน/24-6-67(sample plot)/พิกัดแปลงตัวอย่าง_VSD.csv"},"geometry":{"type":"Point","coordinates":[99.4395065,10.8896513]}},{"type":"Feature","id":"CHUH3-04","properties":{"coast":"อ่าวไทย","province":"ชุมพร","density":"มาก","samplePlotId":"CMPH3","sampleAreaRai":"1","pinId":"CHUH3-04","sourceCrs":"EPSG:32647","sourceFile":"Company-data/T-VER  Standard กลุ่ม 2  สยามทีซี&วิสุทธิ  ขึ้นทะเบียน/24-6-67(sample plot)/พิกัดแปลงตัวอย่าง_VSD.csv"},"geometry":{"type":"Point","coordinates":[99.4394816,10.8900145]}},{"type":"Feature","id":"CHUH4-01","properties":{"coast":"อ่าวไทย","province":"ชุมพร","density":"มาก","samplePlotId":"CMPH4","sampleAreaRai":"1","pinId":"CHUH4-01","sourceCrs":"EPSG:32647","sourceFile":"Company-data/T-VER  Standard กลุ่ม 2  สยามทีซี&วิสุทธิ  ขึ้นทะเบียน/24-6-67(sample plot)/พิกัดแปลงตัวอย่าง_VSD.csv"},"geometry":{"type":"Point","coordinates":[99.439647,10.8893258]}},{"type":"Feature","id":"CHUH4-04","properties":{"coast":"อ่าวไทย","province":"ชุมพร","density":"มาก","samplePlotId":"CMPH4","sampleAreaRai":"1","pinId":"CHUH4-04","sourceCrs":"EPSG:32647","sourceFile":"Company-data/T-VER  Standard กลุ่ม 2  สยามทีซี&วิสุทธิ  ขึ้นทะเบียน/24-6-67(sample plot)/พิกัดแปลงตัวอย่าง_VSD.csv"},"geometry":{"type":"Point","coordinates":[99.4399487,10.8891264]}},{"type":"Feature","id":"CHUH4-02","properties":{"coast":"อ่าวไทย","province":"ชุมพร","density":"มาก","samplePlotId":"CMPH4","sampleAreaRai":"1","pinId":"CHUH4-02","sourceCrs":"EPSG:32647","sourceFile":"Company-data/T-VER  Standard กลุ่ม 2  สยามทีซี&วิสุทธิ  ขึ้นทะเบียน/24-6-67(sample plot)/พิกัดแปลงตัวอย่าง_VSD.csv"},"geometry":{"type":"Point","coordinates":[99.4397652,10.8888191]}},{"type":"Feature","id":"CHUH4-03","properties":{"coast":"อ่าวไทย","province":"ชุมพร","density":"มาก","samplePlotId":"CMPH4","sampleAreaRai":"1","pinId":"CHUH4-03","sourceCrs":"EPSG:32647","sourceFile":"Company-data/T-VER  Standard กลุ่ม 2  สยามทีซี&วิสุทธิ  ขึ้นทะเบียน/24-6-67(sample plot)/พิกัดแปลงตัวอย่าง_VSD.csv"},"geometry":{"type":"Point","coordinates":[99.4394544,10.8890185]}},{"type":"Feature","id":"CHUH5-01","properties":{"coast":"อ่าวไทย","province":"ชุมพร","density":"มาก","samplePlotId":"CMPH5","sampleAreaRai":"0.5","pinId":"CHUH5-01","sourceCrs":"EPSG:32647","sourceFile":"Company-data/T-VER  Standard กลุ่ม 2  สยามทีซี&วิสุทธิ  ขึ้นทะเบียน/24-6-67(sample plot)/พิกัดแปลงตัวอย่าง_VSD.csv"},"geometry":{"type":"Point","coordinates":[99.4511652,10.8768355]}},{"type":"Feature","id":"CHUH5-02","properties":{"coast":"อ่าวไทย","province":"ชุมพร","density":"มาก","samplePlotId":"CMPH5","sampleAreaRai":"0.5","pinId":"CHUH5-02","sourceCrs":"EPSG:32647","sourceFile":"Company-data/T-VER  Standard กลุ่ม 2  สยามทีซี&วิสุทธิ  ขึ้นทะเบียน/24-6-67(sample plot)/พิกัดแปลงตัวอย่าง_VSD.csv"},"geometry":{"type":"Point","coordinates":[99.4512589,10.8766893]}},{"type":"Feature","id":"CHUH5-03","properties":{"coast":"อ่าวไทย","province":"ชุมพร","density":"มาก","samplePlotId":"CMPH5","sampleAreaRai":"0.5","pinId":"CHUH5-03","sourceCrs":"EPSG:32647","sourceFile":"Company-data/T-VER  Standard กลุ่ม 2  สยามทีซี&วิสุทธิ  ขึ้นทะเบียน/24-6-67(sample plot)/พิกัดแปลงตัวอย่าง_VSD.csv"},"geometry":{"type":"Point","coordinates":[99.4509248,10.8765101]}},{"type":"Feature","id":"CHUH5-04","properties":{"coast":"อ่าวไทย","province":"ชุมพร","density":"มาก","samplePlotId":"CMPH5","sampleAreaRai":"0.5","pinId":"CHUH5-04","sourceCrs":"EPSG:32647","sourceFile":"Company-data/T-VER  Standard กลุ่ม 2  สยามทีซี&วิสุทธิ  ขึ้นทะเบียน/24-6-67(sample plot)/พิกัดแปลงตัวอย่าง_VSD.csv"},"geometry":{"type":"Point","coordinates":[99.4508216,10.8766526]}},{"type":"Feature","id":"CHUH6-01","properties":{"coast":"อ่าวไทย","province":"ชุมพร","density":"มาก","samplePlotId":"CMPH6","sampleAreaRai":"0.5","pinId":"CHUH6-01","sourceCrs":"EPSG:32647","sourceFile":"Company-data/T-VER  Standard กลุ่ม 2  สยามทีซี&วิสุทธิ  ขึ้นทะเบียน/24-6-67(sample plot)/พิกัดแปลงตัวอย่าง_VSD.csv"},"geometry":{"type":"Point","coordinates":[99.4527648,10.8748004]}},{"type":"Feature","id":"CHUH6-02","properties":{"coast":"อ่าวไทย","province":"ชุมพร","density":"มาก","samplePlotId":"CMPH6","sampleAreaRai":"0.5","pinId":"CHUH6-02","sourceCrs":"EPSG:32647","sourceFile":"Company-data/T-VER  Standard กลุ่ม 2  สยามทีซี&วิสุทธิ  ขึ้นทะเบียน/24-6-67(sample plot)/พิกัดแปลงตัวอย่าง_VSD.csv"},"geometry":{"type":"Point","coordinates":[99.4529293,10.8747188]}},{"type":"Feature","id":"CHUH6-03","properties":{"coast":"อ่าวไทย","province":"ชุมพร","density":"มาก","samplePlotId":"CMPH6","sampleAreaRai":"0.5","pinId":"CHUH6-03","sourceCrs":"EPSG:32647","sourceFile":"Company-data/T-VER  Standard กลุ่ม 2  สยามทีซี&วิสุทธิ  ขึ้นทะเบียน/24-6-67(sample plot)/พิกัดแปลงตัวอย่าง_VSD.csv"},"geometry":{"type":"Point","coordinates":[99.4527733,10.8743934]}},{"type":"Feature","id":"CHUH6-04","properties":{"coast":"อ่าวไทย","province":"ชุมพร","density":"มาก","samplePlotId":"CMPH6","sampleAreaRai":"0.5","pinId":"CHUH6-04","sourceCrs":"EPSG:32647","sourceFile":"Company-data/T-VER  Standard กลุ่ม 2  สยามทีซี&วิสุทธิ  ขึ้นทะเบียน/24-6-67(sample plot)/พิกัดแปลงตัวอย่าง_VSD.csv"},"geometry":{"type":"Point","coordinates":[99.4525996,10.874466]}},{"type":"Feature","id":"CHUH7-01","properties":{"coast":"อ่าวไทย","province":"ชุมพร","density":"มาก","samplePlotId":"CMPH7","sampleAreaRai":"1","pinId":"CHUH7-01","sourceCrs":"EPSG:32647","sourceFile":"Company-data/T-VER  Standard กลุ่ม 2  สยามทีซี&วิสุทธิ  ขึ้นทะเบียน/24-6-67(sample plot)/พิกัดแปลงตัวอย่าง_VSD.csv"},"geometry":{"type":"Point","coordinates":[99.4463512,10.8906562]}},{"type":"Feature","id":"CHUH7-02","properties":{"coast":"อ่าวไทย","province":"ชุมพร","density":"มาก","samplePlotId":"CMPH7","sampleAreaRai":"1","pinId":"CHUH7-02","sourceCrs":"EPSG:32647","sourceFile":"Company-data/T-VER  Standard กลุ่ม 2  สยามทีซี&วิสุทธิ  ขึ้นทะเบียน/24-6-67(sample plot)/พิกัดแปลงตัวอย่าง_VSD.csv"},"geometry":{"type":"Point","coordinates":[99.4463709,10.890288]}},{"type":"Feature","id":"CHUH7-03","properties":{"coast":"อ่าวไทย","province":"ชุมพร","density":"มาก","samplePlotId":"CMPH7","sampleAreaRai":"1","pinId":"CHUH7-03","sourceCrs":"EPSG:32647","sourceFile":"Company-data/T-VER  Standard กลุ่ม 2  สยามทีซี&วิสุทธิ  ขึ้นทะเบียน/24-6-67(sample plot)/พิกัดแปลงตัวอย่าง_VSD.csv"},"geometry":{"type":"Point","coordinates":[99.4460077,10.890269]}},{"type":"Feature","id":"CHUH7-04","properties":{"coast":"อ่าวไทย","province":"ชุมพร","density":"มาก","samplePlotId":"CMPH7","sampleAreaRai":"1","pinId":"CHUH7-04","sourceCrs":"EPSG:32647","sourceFile":"Company-data/T-VER  Standard กลุ่ม 2  สยามทีซี&วิสุทธิ  ขึ้นทะเบียน/24-6-67(sample plot)/พิกัดแปลงตัวอย่าง_VSD.csv"},"geometry":{"type":"Point","coordinates":[99.4459861,10.8906316]}},{"type":"Feature","id":"CHUH8-01","properties":{"coast":"อ่าวไทย","province":"ชุมพร","density":"มาก","samplePlotId":"CMPH8","sampleAreaRai":"0.5","pinId":"CHUH8-01","sourceCrs":"EPSG:32647","sourceFile":"Company-data/T-VER  Standard กลุ่ม 2  สยามทีซี&วิสุทธิ  ขึ้นทะเบียน/24-6-67(sample plot)/พิกัดแปลงตัวอย่าง_VSD.csv"},"geometry":{"type":"Point","coordinates":[99.447653,10.8819293]}},{"type":"Feature","id":"CHUH8-02","properties":{"coast":"อ่าวไทย","province":"ชุมพร","density":"มาก","samplePlotId":"CMPH8","sampleAreaRai":"0.5","pinId":"CHUH8-02","sourceCrs":"EPSG:32647","sourceFile":"Company-data/T-VER  Standard กลุ่ม 2  สยามทีซี&วิสุทธิ  ขึ้นทะเบียน/24-6-67(sample plot)/พิกัดแปลงตัวอย่าง_VSD.csv"},"geometry":{"type":"Point","coordinates":[99.4476626,10.8817562]}},{"type":"Feature","id":"CHUH8-03N","properties":{"coast":"อ่าวไทย","province":"ชุมพร","density":"มาก","samplePlotId":"CMPH8","sampleAreaRai":"0.5","pinId":"CHUH8-03N","sourceCrs":"EPSG:32647","sourceFile":"Company-data/T-VER  Standard กลุ่ม 2  สยามทีซี&วิสุทธิ  ขึ้นทะเบียน/24-6-67(sample plot)/พิกัดแปลงตัวอย่าง_VSD.csv"},"geometry":{"type":"Point","coordinates":[99.4472838,10.8817217]}},{"type":"Feature","id":"CHUH8-04","properties":{"coast":"อ่าวไทย","province":"ชุมพร","density":"มาก","samplePlotId":"CMPH8","sampleAreaRai":"0.5","pinId":"CHUH8-04","sourceCrs":"EPSG:32647","sourceFile":"Company-data/T-VER  Standard กลุ่ม 2  สยามทีซี&วิสุทธิ  ขึ้นทะเบียน/24-6-67(sample plot)/พิกัดแปลงตัวอย่าง_VSD.csv"},"geometry":{"type":"Point","coordinates":[99.4472672,10.8818935]}},{"type":"Feature","id":"CMPM2-01","properties":{"coast":"อ่าวไทย","province":"ชุมพร","density":"ปานกลาง","samplePlotId":"CMPM2","sampleAreaRai":"1","pinId":"CMPM2-01","sourceCrs":"EPSG:32647","sourceFile":"Company-data/T-VER  Standard กลุ่ม 2  สยามทีซี&วิสุทธิ  ขึ้นทะเบียน/24-6-67(sample plot)/พิกัดแปลงตัวอย่าง_VSD.csv"},"geometry":{"type":"Point","coordinates":[99.4475346,10.8831138]}},{"type":"Feature","id":"CMPM2-02","properties":{"coast":"อ่าวไทย","province":"ชุมพร","density":"ปานกลาง","samplePlotId":"CMPM2","sampleAreaRai":"1","pinId":"CMPM2-02","sourceCrs":"EPSG:32647","sourceFile":"Company-data/T-VER  Standard กลุ่ม 2  สยามทีซี&วิสุทธิ  ขึ้นทะเบียน/24-6-67(sample plot)/พิกัดแปลงตัวอย่าง_VSD.csv"},"geometry":{"type":"Point","coordinates":[99.4475543,10.8827456]}},{"type":"Feature","id":"CMPM2-03","properties":{"coast":"อ่าวไทย","province":"ชุมพร","density":"ปานกลาง","samplePlotId":"CMPM2","sampleAreaRai":"1","pinId":"CMPM2-03","sourceCrs":"EPSG:32647","sourceFile":"Company-data/T-VER  Standard กลุ่ม 2  สยามทีซี&วิสุทธิ  ขึ้นทะเบียน/24-6-67(sample plot)/พิกัดแปลงตัวอย่าง_VSD.csv"},"geometry":{"type":"Point","coordinates":[99.4471911,10.8827266]}},{"type":"Feature","id":"CMPM2-04","properties":{"coast":"อ่าวไทย","province":"ชุมพร","density":"ปานกลาง","samplePlotId":"CMPM2","sampleAreaRai":"1","pinId":"CMPM2-04","sourceCrs":"EPSG:32647","sourceFile":"Company-data/T-VER  Standard กลุ่ม 2  สยามทีซี&วิสุทธิ  ขึ้นทะเบียน/24-6-67(sample plot)/พิกัดแปลงตัวอย่าง_VSD.csv"},"geometry":{"type":"Point","coordinates":[99.4471695,10.8830892]}},{"type":"Feature","id":"CHUM3-01","properties":{"coast":"อ่าวไทย","province":"ชุมพร","density":"ปานกลาง","samplePlotId":"CMPM3","sampleAreaRai":"1","pinId":"CHUM3-01","sourceCrs":"EPSG:32647","sourceFile":"Company-data/T-VER  Standard กลุ่ม 2  สยามทีซี&วิสุทธิ  ขึ้นทะเบียน/24-6-67(sample plot)/พิกัดแปลงตัวอย่าง_VSD.csv"},"geometry":{"type":"Point","coordinates":[99.4385927,10.8890894]}},{"type":"Feature","id":"CHUM3-02","properties":{"coast":"อ่าวไทย","province":"ชุมพร","density":"ปานกลาง","samplePlotId":"CMPM3","sampleAreaRai":"1","pinId":"CHUM3-02","sourceCrs":"EPSG:32647","sourceFile":"Company-data/T-VER  Standard กลุ่ม 2  สยามทีซี&วิสุทธิ  ขึ้นทะเบียน/24-6-67(sample plot)/พิกัดแปลงตัวอย่าง_VSD.csv"},"geometry":{"type":"Point","coordinates":[99.4386125,10.8887214]}},{"type":"Feature","id":"CHUM3-03","properties":{"coast":"อ่าวไทย","province":"ชุมพร","density":"ปานกลาง","samplePlotId":"CMPM3","sampleAreaRai":"1","pinId":"CHUM3-03","sourceCrs":"EPSG:32647","sourceFile":"Company-data/T-VER  Standard กลุ่ม 2  สยามทีซี&วิสุทธิ  ขึ้นทะเบียน/24-6-67(sample plot)/พิกัดแปลงตัวอย่าง_VSD.csv"},"geometry":{"type":"Point","coordinates":[99.4382437,10.8887106]}},{"type":"Feature","id":"CHUM3-04","properties":{"coast":"อ่าวไทย","province":"ชุมพร","density":"ปานกลาง","samplePlotId":"CMPM3","sampleAreaRai":"1","pinId":"CHUM3-04","sourceCrs":"EPSG:32647","sourceFile":"Company-data/T-VER  Standard กลุ่ม 2  สยามทีซี&วิสุทธิ  ขึ้นทะเบียน/24-6-67(sample plot)/พิกัดแปลงตัวอย่าง_VSD.csv"},"geometry":{"type":"Point","coordinates":[99.4382188,10.8890738]}},{"type":"Feature","id":"CMPM4_01","properties":{"coast":"อ่าวไทย","province":"ชุมพร","density":"ปานกลาง","samplePlotId":"CMPM4","sampleAreaRai":"0.5","pinId":"CMPM4_01","sourceCrs":"EPSG:32647","sourceFile":"Company-data/T-VER  Standard กลุ่ม 2  สยามทีซี&วิสุทธิ  ขึ้นทะเบียน/24-6-67(sample plot)/พิกัดแปลงตัวอย่าง_VSD.csv"},"geometry":{"type":"Point","coordinates":[99.4514324,10.8792304]}},{"type":"Feature","id":"CMPM4_02","properties":{"coast":"อ่าวไทย","province":"ชุมพร","density":"ปานกลาง","samplePlotId":"CMPM4","sampleAreaRai":"0.5","pinId":"CMPM4_02","sourceCrs":"EPSG:32647","sourceFile":"Company-data/T-VER  Standard กลุ่ม 2  สยามทีซี&วิสุทธิ  ขึ้นทะเบียน/24-6-67(sample plot)/พิกัดแปลงตัวอย่าง_VSD.csv"},"geometry":{"type":"Point","coordinates":[99.451442,10.8790573]}},{"type":"Feature","id":"CMPM4_03","properties":{"coast":"อ่าวไทย","province":"ชุมพร","density":"ปานกลาง","samplePlotId":"CMPM4","sampleAreaRai":"0.5","pinId":"CMPM4_03","sourceCrs":"EPSG:32647","sourceFile":"Company-data/T-VER  Standard กลุ่ม 2  สยามทีซี&วิสุทธิ  ขึ้นทะเบียน/24-6-67(sample plot)/พิกัดแปลงตัวอย่าง_VSD.csv"},"geometry":{"type":"Point","coordinates":[99.4510631,10.8790228]}},{"type":"Feature","id":"CMPM4_04","properties":{"coast":"อ่าวไทย","province":"ชุมพร","density":"ปานกลาง","samplePlotId":"CMPM4","sampleAreaRai":"0.5","pinId":"CMPM4_04","sourceCrs":"EPSG:32647","sourceFile":"Company-data/T-VER  Standard กลุ่ม 2  สยามทีซี&วิสุทธิ  ขึ้นทะเบียน/24-6-67(sample plot)/พิกัดแปลงตัวอย่าง_VSD.csv"},"geometry":{"type":"Point","coordinates":[99.4510466,10.8791946]}},{"type":"Feature","id":"CHUL2-01","properties":{"coast":"อ่าวไทย","province":"ชุมพร","density":"น้อย","samplePlotId":"CMPL2","sampleAreaRai":"0.5","pinId":"CHUL2-01","sourceCrs":"EPSG:32647","sourceFile":"Company-data/T-VER  Standard กลุ่ม 2  สยามทีซี&วิสุทธิ  ขึ้นทะเบียน/24-6-67(sample plot)/พิกัดแปลงตัวอย่าง_VSD.csv"},"geometry":{"type":"Point","coordinates":[99.1314387,10.0569499]}},{"type":"Feature","id":"CHUL2-02","properties":{"coast":"อ่าวไทย","province":"ชุมพร","density":"น้อย","samplePlotId":"CMPL2","sampleAreaRai":"0.5","pinId":"CHUL2-02","sourceCrs":"EPSG:32647","sourceFile":"Company-data/T-VER  Standard กลุ่ม 2  สยามทีซี&วิสุทธิ  ขึ้นทะเบียน/24-6-67(sample plot)/พิกัดแปลงตัวอย่าง_VSD.csv"},"geometry":{"type":"Point","coordinates":[99.1314348,10.0567787]}},{"type":"Feature","id":"CHUL2-03","properties":{"coast":"อ่าวไทย","province":"ชุมพร","density":"น้อย","samplePlotId":"CMPL2","sampleAreaRai":"0.5","pinId":"CHUL2-03","sourceCrs":"EPSG:32647","sourceFile":"Company-data/T-VER  Standard กลุ่ม 2  สยามทีซี&วิสุทธิ  ขึ้นทะเบียน/24-6-67(sample plot)/พิกัดแปลงตัวอย่าง_VSD.csv"},"geometry":{"type":"Point","coordinates":[99.1310501,10.056781]}},{"type":"Feature","id":"CHUL2-04","properties":{"coast":"อ่าวไทย","province":"ชุมพร","density":"น้อย","samplePlotId":"CMPL2","sampleAreaRai":"0.5","pinId":"CHUL2-04","sourceCrs":"EPSG:32647","sourceFile":"Company-data/T-VER  Standard กลุ่ม 2  สยามทีซี&วิสุทธิ  ขึ้นทะเบียน/24-6-67(sample plot)/พิกัดแปลงตัวอย่าง_VSD.csv"},"geometry":{"type":"Point","coordinates":[99.1310523,10.056952]}},{"type":"Feature","id":"CHUL3-01","properties":{"coast":"อ่าวไทย","province":"ชุมพร","density":"น้อย","samplePlotId":"CMPL3","sampleAreaRai":"1","pinId":"CHUL3-01","sourceCrs":"EPSG:32647","sourceFile":"Company-data/T-VER  Standard กลุ่ม 2  สยามทีซี&วิสุทธิ  ขึ้นทะเบียน/24-6-67(sample plot)/พิกัดแปลงตัวอย่าง_VSD.csv"},"geometry":{"type":"Point","coordinates":[99.1332721,10.0573011]}},{"type":"Feature","id":"CHUL3-02","properties":{"coast":"อ่าวไทย","province":"ชุมพร","density":"น้อย","samplePlotId":"CMPL3","sampleAreaRai":"1","pinId":"CHUL3-02","sourceCrs":"EPSG:32647","sourceFile":"Company-data/T-VER  Standard กลุ่ม 2  สยามทีซี&วิสุทธิ  ขึ้นทะเบียน/24-6-67(sample plot)/พิกัดแปลงตัวอย่าง_VSD.csv"},"geometry":{"type":"Point","coordinates":[99.1332738,10.0569404]}},{"type":"Feature","id":"CHUL3-03","properties":{"coast":"อ่าวไทย","province":"ชุมพร","density":"น้อย","samplePlotId":"CMPL3","sampleAreaRai":"1","pinId":"CHUL3-03","sourceCrs":"EPSG:32647","sourceFile":"Company-data/T-VER  Standard กลุ่ม 2  สยามทีซี&วิสุทธิ  ขึ้นทะเบียน/24-6-67(sample plot)/พิกัดแปลงตัวอย่าง_VSD.csv"},"geometry":{"type":"Point","coordinates":[99.1329046,10.0569475]}},{"type":"Feature","id":"CHUL3-04","properties":{"coast":"อ่าวไทย","province":"ชุมพร","density":"น้อย","samplePlotId":"CMPL3","sampleAreaRai":"1","pinId":"CHUL3-04","sourceCrs":"EPSG:32647","sourceFile":"Company-data/T-VER  Standard กลุ่ม 2  สยามทีซี&วิสุทธิ  ขึ้นทะเบียน/24-6-67(sample plot)/พิกัดแปลงตัวอย่าง_VSD.csv"},"geometry":{"type":"Point","coordinates":[99.1328979,10.0572999]}},{"type":"Feature","id":"CMPL01-02","properties":{"coast":"อ่าวไทย","province":"ชุมพร","density":"น้อย","samplePlotId":"CMPL1","sampleAreaRai":"1","pinId":"CMPL01-02","sourceCrs":"EPSG:32647","sourceFile":"Company-data/T-VER  Standard กลุ่ม 2  สยามทีซี&วิสุทธิ  ขึ้นทะเบียน/24-6-67(sample plot)/พิกัดแปลงตัวอย่าง_VSD.csv"},"geometry":{"type":"Point","coordinates":[99.4387738,10.8872658]}},{"type":"Feature","id":"CMPL01-03","properties":{"coast":"อ่าวไทย","province":"ชุมพร","density":"น้อย","samplePlotId":"CMPL1","sampleAreaRai":"1","pinId":"CMPL01-03","sourceCrs":"EPSG:32647","sourceFile":"Company-data/T-VER  Standard กลุ่ม 2  สยามทีซี&วิสุทธิ  ขึ้นทะเบียน/24-6-67(sample plot)/พิกัดแปลงตัวอย่าง_VSD.csv"},"geometry":{"type":"Point","coordinates":[99.4387937,10.8868978]}},{"type":"Feature","id":"CMPL01-04","properties":{"coast":"อ่าวไทย","province":"ชุมพร","density":"น้อย","samplePlotId":"CMPL1","sampleAreaRai":"1","pinId":"CMPL01-04","sourceCrs":"EPSG:32647","sourceFile":"Company-data/T-VER  Standard กลุ่ม 2  สยามทีซี&วิสุทธิ  ขึ้นทะเบียน/24-6-67(sample plot)/พิกัดแปลงตัวอย่าง_VSD.csv"},"geometry":{"type":"Point","coordinates":[99.4384249,10.8868871]}},{"type":"Feature","id":"CMPL01-01","properties":{"coast":"อ่าวไทย","province":"ชุมพร","density":"น้อย","samplePlotId":"CMPL1","sampleAreaRai":"1","pinId":"CMPL01-01","sourceCrs":"EPSG:32647","sourceFile":"Company-data/T-VER  Standard กลุ่ม 2  สยามทีซี&วิสุทธิ  ขึ้นทะเบียน/24-6-67(sample plot)/พิกัดแปลงตัวอย่าง_VSD.csv"},"geometry":{"type":"Point","coordinates":[99.4384,10.8872502]}},{"type":"Feature","id":"PTNH1-01","properties":{"coast":"อ่าวไทย","province":"ปัตตานี","density":"มาก","samplePlotId":"PTNH1","sampleAreaRai":"0.5","pinId":"PTNH1-01","sourceCrs":"EPSG:32647","sourceFile":"Company-data/T-VER  Standard กลุ่ม 2  สยามทีซี&วิสุทธิ  ขึ้นทะเบียน/24-6-67(sample plot)/พิกัดแปลงตัวอย่าง_VSD.csv"},"geometry":{"type":"Point","coordinates":[101.3832968,6.8698949]}},{"type":"Feature","id":"PTNH1-02","properties":{"coast":"อ่าวไทย","province":"ปัตตานี","density":"มาก","samplePlotId":"PTNH1","sampleAreaRai":"0.5","pinId":"PTNH1-02","sourceCrs":"EPSG:32647","sourceFile":"Company-data/T-VER  Standard กลุ่ม 2  สยามทีซี&วิสุทธิ  ขึ้นทะเบียน/24-6-67(sample plot)/พิกัดแปลงตัวอย่าง_VSD.csv"},"geometry":{"type":"Point","coordinates":[101.3833433,6.8695669]}},{"type":"Feature","id":"PTNH1-03","properties":{"coast":"อ่าวไทย","province":"ปัตตานี","density":"มาก","samplePlotId":"PTNH1","sampleAreaRai":"0.5","pinId":"PTNH1-03","sourceCrs":"EPSG:32647","sourceFile":"Company-data/T-VER  Standard กลุ่ม 2  สยามทีซี&วิสุทธิ  ขึ้นทะเบียน/24-6-67(sample plot)/พิกัดแปลงตัวอย่าง_VSD.csv"},"geometry":{"type":"Point","coordinates":[101.3831422,6.8695546]}},{"type":"Feature","id":"PTNH1-04","properties":{"coast":"อ่าวไทย","province":"ปัตตานี","density":"มาก","samplePlotId":"PTNH1","sampleAreaRai":"0.5","pinId":"PTNH1-04","sourceCrs":"EPSG:32647","sourceFile":"Company-data/T-VER  Standard กลุ่ม 2  สยามทีซี&วิสุทธิ  ขึ้นทะเบียน/24-6-67(sample plot)/พิกัดแปลงตัวอย่าง_VSD.csv"},"geometry":{"type":"Point","coordinates":[101.383101,6.8698806]}},{"type":"Feature","id":"PTNH2-01","properties":{"coast":"อ่าวไทย","province":"ปัตตานี","density":"มาก","samplePlotId":"PTNH2","sampleAreaRai":"0.5","pinId":"PTNH2-01","sourceCrs":"EPSG:32647","sourceFile":"Company-data/T-VER  Standard กลุ่ม 2  สยามทีซี&วิสุทธิ  ขึ้นทะเบียน/24-6-67(sample plot)/พิกัดแปลงตัวอย่าง_VSD.csv"},"geometry":{"type":"Point","coordinates":[101.0547831,6.836304]}},{"type":"Feature","id":"PTNH2-02","properties":{"coast":"อ่าวไทย","province":"ปัตตานี","density":"มาก","samplePlotId":"PTNH2","sampleAreaRai":"0.5","pinId":"PTNH2-02","sourceCrs":"EPSG:32647","sourceFile":"Company-data/T-VER  Standard กลุ่ม 2  สยามทีซี&วิสุทธิ  ขึ้นทะเบียน/24-6-67(sample plot)/พิกัดแปลงตัวอย่าง_VSD.csv"},"geometry":{"type":"Point","coordinates":[101.0548299,6.8359759]}},{"type":"Feature","id":"PTNH2-03","properties":{"coast":"อ่าวไทย","province":"ปัตตานี","density":"มาก","samplePlotId":"PTNH2","sampleAreaRai":"0.5","pinId":"PTNH2-03","sourceCrs":"EPSG:32647","sourceFile":"Company-data/T-VER  Standard กลุ่ม 2  สยามทีซี&วิสุทธิ  ขึ้นทะเบียน/24-6-67(sample plot)/พิกัดแปลงตัวอย่าง_VSD.csv"},"geometry":{"type":"Point","coordinates":[101.0546288,6.8359635]}},{"type":"Feature","id":"PTNH2-04","properties":{"coast":"อ่าวไทย","province":"ปัตตานี","density":"มาก","samplePlotId":"PTNH2","sampleAreaRai":"0.5","pinId":"PTNH2-04","sourceCrs":"EPSG:32647","sourceFile":"Company-data/T-VER  Standard กลุ่ม 2  สยามทีซี&วิสุทธิ  ขึ้นทะเบียน/24-6-67(sample plot)/พิกัดแปลงตัวอย่าง_VSD.csv"},"geometry":{"type":"Point","coordinates":[101.0545873,6.8362896]}},{"type":"Feature","id":"PTNH3-01","properties":{"coast":"อ่าวไทย","province":"ปัตตานี","density":"มาก","samplePlotId":"PTNH3","sampleAreaRai":"0.5","pinId":"PTNH3-01","sourceCrs":"EPSG:32647","sourceFile":"Company-data/T-VER  Standard กลุ่ม 2  สยามทีซี&วิสุทธิ  ขึ้นทะเบียน/24-6-67(sample plot)/พิกัดแปลงตัวอย่าง_VSD.csv"},"geometry":{"type":"Point","coordinates":[101.0651564,6.8363742]}},{"type":"Feature","id":"PTNH3-02","properties":{"coast":"อ่าวไทย","province":"ปัตตานี","density":"มาก","samplePlotId":"PTNH3","sampleAreaRai":"0.5","pinId":"PTNH3-02","sourceCrs":"EPSG:32647","sourceFile":"Company-data/T-VER  Standard กลุ่ม 2  สยามทีซี&วิสุทธิ  ขึ้นทะเบียน/24-6-67(sample plot)/พิกัดแปลงตัวอย่าง_VSD.csv"},"geometry":{"type":"Point","coordinates":[101.0652031,6.8360461]}},{"type":"Feature","id":"PTNH3-03","properties":{"coast":"อ่าวไทย","province":"ปัตตานี","density":"มาก","samplePlotId":"PTNH3","sampleAreaRai":"0.5","pinId":"PTNH3-03","sourceCrs":"EPSG:32647","sourceFile":"Company-data/T-VER  Standard กลุ่ม 2  สยามทีซี&วิสุทธิ  ขึ้นทะเบียน/24-6-67(sample plot)/พิกัดแปลงตัวอย่าง_VSD.csv"},"geometry":{"type":"Point","coordinates":[101.065002,6.8360337]}},{"type":"Feature","id":"PTNH3-04","properties":{"coast":"อ่าวไทย","province":"ปัตตานี","density":"มาก","samplePlotId":"PTNH3","sampleAreaRai":"0.5","pinId":"PTNH3-04","sourceCrs":"EPSG:32647","sourceFile":"Company-data/T-VER  Standard กลุ่ม 2  สยามทีซี&วิสุทธิ  ขึ้นทะเบียน/24-6-67(sample plot)/พิกัดแปลงตัวอย่าง_VSD.csv"},"geometry":{"type":"Point","coordinates":[101.0649605,6.8363597]}},{"type":"Feature","id":"STUH1-01","properties":{"coast":"อันดามัน","province":"สตูล","density":"มาก","samplePlotId":"STUH1","sampleAreaRai":"1","pinId":"STUH1-01","sourceCrs":"EPSG:32647","sourceFile":"Company-data/T-VER  Standard กลุ่ม 2  สยามทีซี&วิสุทธิ  ขึ้นทะเบียน/24-6-67(sample plot)/พิกัดแปลงตัวอย่าง_VSD.csv"},"geometry":{"type":"Point","coordinates":[100.0905253,6.5792361]}},{"type":"Feature","id":"STUH1-02","properties":{"coast":"อันดามัน","province":"สตูล","density":"มาก","samplePlotId":"STUH1","sampleAreaRai":"1","pinId":"STUH1-02","sourceCrs":"EPSG:32647","sourceFile":"Company-data/T-VER  Standard กลุ่ม 2  สยามทีซี&วิสุทธิ  ขึ้นทะเบียน/24-6-67(sample plot)/พิกัดแปลงตัวอย่าง_VSD.csv"},"geometry":{"type":"Point","coordinates":[100.090561,6.5788848]}},{"type":"Feature","id":"STUH1-03","properties":{"coast":"อันดามัน","province":"สตูล","density":"มาก","samplePlotId":"STUH1","sampleAreaRai":"1","pinId":"STUH1-03","sourceCrs":"EPSG:32647","sourceFile":"Company-data/T-VER  Standard กลุ่ม 2  สยามทีซี&วิสุทธิ  ขึ้นทะเบียน/24-6-67(sample plot)/พิกัดแปลงตัวอย่าง_VSD.csv"},"geometry":{"type":"Point","coordinates":[100.0901735,6.578865]}},{"type":"Feature","id":"STUH1-04","properties":{"coast":"อันดามัน","province":"สตูล","density":"มาก","samplePlotId":"STUH1","sampleAreaRai":"1","pinId":"STUH1-04","sourceCrs":"EPSG:32647","sourceFile":"Company-data/T-VER  Standard กลุ่ม 2  สยามทีซี&วิสุทธิ  ขึ้นทะเบียน/24-6-67(sample plot)/พิกัดแปลงตัวอย่าง_VSD.csv"},"geometry":{"type":"Point","coordinates":[100.0901611,6.5792072]}},{"type":"Feature","id":"STUH2-01","properties":{"coast":"อันดามัน","province":"สตูล","density":"มาก","samplePlotId":"STUH2","sampleAreaRai":"1","pinId":"STUH2-01","sourceCrs":"EPSG:32647","sourceFile":"Company-data/T-VER  Standard กลุ่ม 2  สยามทีซี&วิสุทธิ  ขึ้นทะเบียน/24-6-67(sample plot)/พิกัดแปลงตัวอย่าง_VSD.csv"},"geometry":{"type":"Point","coordinates":[100.0869791,6.5755868]}},{"type":"Feature","id":"STUH2-02","properties":{"coast":"อันดามัน","province":"สตูล","density":"มาก","samplePlotId":"STUH2","sampleAreaRai":"1","pinId":"STUH2-02","sourceCrs":"EPSG:32647","sourceFile":"Company-data/T-VER  Standard กลุ่ม 2  สยามทีซี&วิสุทธิ  ขึ้นทะเบียน/24-6-67(sample plot)/พิกัดแปลงตัวอย่าง_VSD.csv"},"geometry":{"type":"Point","coordinates":[100.0870149,6.5752355]}},{"type":"Feature","id":"STUH2-03","properties":{"coast":"อันดามัน","province":"สตูล","density":"มาก","samplePlotId":"STUH2","sampleAreaRai":"1","pinId":"STUH2-03","sourceCrs":"EPSG:32647","sourceFile":"Company-data/T-VER  Standard กลุ่ม 2  สยามทีซี&วิสุทธิ  ขึ้นทะเบียน/24-6-67(sample plot)/พิกัดแปลงตัวอย่าง_VSD.csv"},"geometry":{"type":"Point","coordinates":[100.0866273,6.5752157]}},{"type":"Feature","id":"STUH2-04","properties":{"coast":"อันดามัน","province":"สตูล","density":"มาก","samplePlotId":"STUH2","sampleAreaRai":"1","pinId":"STUH2-04","sourceCrs":"EPSG:32647","sourceFile":"Company-data/T-VER  Standard กลุ่ม 2  สยามทีซี&วิสุทธิ  ขึ้นทะเบียน/24-6-67(sample plot)/พิกัดแปลงตัวอย่าง_VSD.csv"},"geometry":{"type":"Point","coordinates":[100.0866149,6.5755579]}},{"type":"Feature","id":"STUH3-03","properties":{"coast":"อันดามัน","province":"สตูล","density":"มาก","samplePlotId":"STUH3","sampleAreaRai":"1","pinId":"STUH3-03","sourceCrs":"EPSG:32647","sourceFile":"Company-data/T-VER  Standard กลุ่ม 2  สยามทีซี&วิสุทธิ  ขึ้นทะเบียน/24-6-67(sample plot)/พิกัดแปลงตัวอย่าง_VSD.csv"},"geometry":{"type":"Point","coordinates":[100.0894417,6.569848]}},{"type":"Feature","id":"STUH3-01","properties":{"coast":"อันดามัน","province":"สตูล","density":"มาก","samplePlotId":"STUH3","sampleAreaRai":"1","pinId":"STUH3-01","sourceCrs":"EPSG:32647","sourceFile":"Company-data/T-VER  Standard กลุ่ม 2  สยามทีซี&วิสุทธิ  ขึ้นทะเบียน/24-6-67(sample plot)/พิกัดแปลงตัวอย่าง_VSD.csv"},"geometry":{"type":"Point","coordinates":[100.0894774,6.5694967]}},{"type":"Feature","id":"STUH3-02","properties":{"coast":"อันดามัน","province":"สตูล","density":"มาก","samplePlotId":"STUH3","sampleAreaRai":"1","pinId":"STUH3-02","sourceCrs":"EPSG:32647","sourceFile":"Company-data/T-VER  Standard กลุ่ม 2  สยามทีซี&วิสุทธิ  ขึ้นทะเบียน/24-6-67(sample plot)/พิกัดแปลงตัวอย่าง_VSD.csv"},"geometry":{"type":"Point","coordinates":[100.0890899,6.569477]}},{"type":"Feature","id":"STUH3-04","properties":{"coast":"อันดามัน","province":"สตูล","density":"มาก","samplePlotId":"STUH3","sampleAreaRai":"1","pinId":"STUH3-04","sourceCrs":"EPSG:32647","sourceFile":"Company-data/T-VER  Standard กลุ่ม 2  สยามทีซี&วิสุทธิ  ขึ้นทะเบียน/24-6-67(sample plot)/พิกัดแปลงตัวอย่าง_VSD.csv"},"geometry":{"type":"Point","coordinates":[100.0890775,6.5698191]}},{"type":"Feature","id":"STUM1-01","properties":{"coast":"อันดามัน","province":"สตูล","density":"ปานกลาง","samplePlotId":"STUM1","sampleAreaRai":"1","pinId":"STUM1-01","sourceCrs":"EPSG:32647","sourceFile":"Company-data/T-VER  Standard กลุ่ม 2  สยามทีซี&วิสุทธิ  ขึ้นทะเบียน/24-6-67(sample plot)/พิกัดแปลงตัวอย่าง_VSD.csv"},"geometry":{"type":"Point","coordinates":[100.1196759,6.459145]}},{"type":"Feature","id":"STUM1-02","properties":{"coast":"อันดามัน","province":"สตูล","density":"ปานกลาง","samplePlotId":"STUM1","sampleAreaRai":"1","pinId":"STUM1-02","sourceCrs":"EPSG:32647","sourceFile":"Company-data/T-VER  Standard กลุ่ม 2  สยามทีซี&วิสุทธิ  ขึ้นทะเบียน/24-6-67(sample plot)/พิกัดแปลงตัวอย่าง_VSD.csv"},"geometry":{"type":"Point","coordinates":[100.1200101,6.4590086]}},{"type":"Feature","id":"STUM1-03","properties":{"coast":"อันดามัน","province":"สตูล","density":"ปานกลาง","samplePlotId":"STUM1","sampleAreaRai":"1","pinId":"STUM1-03","sourceCrs":"EPSG:32647","sourceFile":"Company-data/T-VER  Standard กลุ่ม 2  สยามทีซี&วิสุทธิ  ขึ้นทะเบียน/24-6-67(sample plot)/พิกัดแปลงตัวอย่าง_VSD.csv"},"geometry":{"type":"Point","coordinates":[100.1198467,6.4586834]}},{"type":"Feature","id":"STUM1-04","properties":{"coast":"อันดามัน","province":"สตูล","density":"ปานกลาง","samplePlotId":"STUM1","sampleAreaRai":"1","pinId":"STUM1-04","sourceCrs":"EPSG:32647","sourceFile":"Company-data/T-VER  Standard กลุ่ม 2  สยามทีซี&วิสุทธิ  ขึ้นทะเบียน/24-6-67(sample plot)/พิกัดแปลงตัวอย่าง_VSD.csv"},"geometry":{"type":"Point","coordinates":[100.1195124,6.4588198]}},{"type":"Feature","id":"STUM-2-01","properties":{"coast":"อันดามัน","province":"สตูล","density":"ปานกลาง","samplePlotId":"STUM2","sampleAreaRai":"1","pinId":"STUM-2-01","sourceCrs":"EPSG:32647","sourceFile":"Company-data/T-VER  Standard กลุ่ม 2  สยามทีซี&วิสุทธิ  ขึ้นทะเบียน/24-6-67(sample plot)/พิกัดแปลงตัวอย่าง_VSD.csv"},"geometry":{"type":"Point","coordinates":[100.1213499,6.4562497]}},{"type":"Feature","id":"STUM-2-02","properties":{"coast":"อันดามัน","province":"สตูล","density":"ปานกลาง","samplePlotId":"STUM2","sampleAreaRai":"1","pinId":"STUM-2-02","sourceCrs":"EPSG:32647","sourceFile":"Company-data/T-VER  Standard กลุ่ม 2  สยามทีซี&วิสุทธิ  ขึ้นทะเบียน/24-6-67(sample plot)/พิกัดแปลงตัวอย่าง_VSD.csv"},"geometry":{"type":"Point","coordinates":[100.1213706,6.4560734]}},{"type":"Feature","id":"STUM-2-03","properties":{"coast":"อันดามัน","province":"สตูล","density":"ปานกลาง","samplePlotId":"STUM2","sampleAreaRai":"1","pinId":"STUM-2-03","sourceCrs":"EPSG:32647","sourceFile":"Company-data/T-VER  Standard กลุ่ม 2  สยามทีซี&วิสุทธิ  ขึ้นทะเบียน/24-6-67(sample plot)/พิกัดแปลงตัวอย่าง_VSD.csv"},"geometry":{"type":"Point","coordinates":[100.1210008,6.4560425]}},{"type":"Feature","id":"STUM-2-04","properties":{"coast":"อันดามัน","province":"สตูล","density":"ปานกลาง","samplePlotId":"STUM2","sampleAreaRai":"1","pinId":"STUM-2-04","sourceCrs":"EPSG:32647","sourceFile":"Company-data/T-VER  Standard กลุ่ม 2  สยามทีซี&วิสุทธิ  ขึ้นทะเบียน/24-6-67(sample plot)/พิกัดแปลงตัวอย่าง_VSD.csv"},"geometry":{"type":"Point","coordinates":[100.1209859,6.4562208]}},{"type":"Feature","id":"KBH1-01","properties":{"coast":"อันดามัน","province":"กระบี่","density":"มาก","samplePlotId":"KBH1","sampleAreaRai":"1","pinId":"KBH1-01","sourceCrs":"EPSG:32647","sourceFile":"Company-data/T-VER  Standard กลุ่ม 2  สยามทีซี&วิสุทธิ  ขึ้นทะเบียน/24-6-67(sample plot)/พิกัดแปลงตัวอย่าง_VSD.csv"},"geometry":{"type":"Point","coordinates":[99.1062111,7.9503008]}},{"type":"Feature","id":"KBH1-02","properties":{"coast":"อันดามัน","province":"กระบี่","density":"มาก","samplePlotId":"KBH1","sampleAreaRai":"1","pinId":"KBH1-02","sourceCrs":"EPSG:32647","sourceFile":"Company-data/T-VER  Standard กลุ่ม 2  สยามทีซี&วิสุทธิ  ขึ้นทะเบียน/24-6-67(sample plot)/พิกัดแปลงตัวอย่าง_VSD.csv"},"geometry":{"type":"Point","coordinates":[99.1062476,7.9499496]}},{"type":"Feature","id":"KBH1-03","properties":{"coast":"อันดามัน","province":"กระบี่","density":"มาก","samplePlotId":"KBH1","sampleAreaRai":"1","pinId":"KBH1-03","sourceCrs":"EPSG:32647","sourceFile":"Company-data/T-VER  Standard กลุ่ม 2  สยามทีซี&วิสุทธิ  ขึ้นทะเบียน/24-6-67(sample plot)/พิกัดแปลงตัวอย่าง_VSD.csv"},"geometry":{"type":"Point","coordinates":[99.1058589,7.949929]}},{"type":"Feature","id":"KBH1-04","properties":{"coast":"อันดามัน","province":"กระบี่","density":"มาก","samplePlotId":"KBH1","sampleAreaRai":"1","pinId":"KBH1-04","sourceCrs":"EPSG:32647","sourceFile":"Company-data/T-VER  Standard กลุ่ม 2  สยามทีซี&วิสุทธิ  ขึ้นทะเบียน/24-6-67(sample plot)/พิกัดแปลงตัวอย่าง_VSD.csv"},"geometry":{"type":"Point","coordinates":[99.1058458,7.9502712]}},{"type":"Feature","id":"KBH2-01","properties":{"coast":"อันดามัน","province":"กระบี่","density":"มาก","samplePlotId":"KBH2","sampleAreaRai":"1","pinId":"KBH2-01","sourceCrs":"EPSG:32647","sourceFile":"Company-data/T-VER  Standard กลุ่ม 2  สยามทีซี&วิสุทธิ  ขึ้นทะเบียน/24-6-67(sample plot)/พิกัดแปลงตัวอย่าง_VSD.csv"},"geometry":{"type":"Point","coordinates":[99.0965104,7.9071845]}},{"type":"Feature","id":"KBH2-02","properties":{"coast":"อันดามัน","province":"กระบี่","density":"มาก","samplePlotId":"KBH2","sampleAreaRai":"1","pinId":"KBH2-02","sourceCrs":"EPSG:32647","sourceFile":"Company-data/T-VER  Standard กลุ่ม 2  สยามทีซี&วิสุทธิ  ขึ้นทะเบียน/24-6-67(sample plot)/พิกัดแปลงตัวอย่าง_VSD.csv"},"geometry":{"type":"Point","coordinates":[99.096547,7.9068332]}},{"type":"Feature","id":"KBH2-03","properties":{"coast":"อันดามัน","province":"กระบี่","density":"มาก","samplePlotId":"KBH2","sampleAreaRai":"1","pinId":"KBH2-03","sourceCrs":"EPSG:32647","sourceFile":"Company-data/T-VER  Standard กลุ่ม 2  สยามทีซี&วิสุทธิ  ขึ้นทะเบียน/24-6-67(sample plot)/พิกัดแปลงตัวอย่าง_VSD.csv"},"geometry":{"type":"Point","coordinates":[99.0961582,7.9068127]}},{"type":"Feature","id":"KBH2-04","properties":{"coast":"อันดามัน","province":"กระบี่","density":"มาก","samplePlotId":"KBH2","sampleAreaRai":"1","pinId":"KBH2-04","sourceCrs":"EPSG:32647","sourceFile":"Company-data/T-VER  Standard กลุ่ม 2  สยามทีซี&วิสุทธิ  ขึ้นทะเบียน/24-6-67(sample plot)/พิกัดแปลงตัวอย่าง_VSD.csv"},"geometry":{"type":"Point","coordinates":[99.0961452,7.9071549]}},{"type":"Feature","id":"KRBL1-01","properties":{"coast":"อันดามัน","province":"กระบี่","density":"น้อย","samplePlotId":"KBL1","sampleAreaRai":"1","pinId":"KRBL1-01","sourceCrs":"EPSG:32647","sourceFile":"Company-data/T-VER  Standard กลุ่ม 2  สยามทีซี&วิสุทธิ  ขึ้นทะเบียน/24-6-67(sample plot)/พิกัดแปลงตัวอย่าง_VSD.csv"},"geometry":{"type":"Point","coordinates":[99.0969809,7.9424814]}},{"type":"Feature","id":"KRBL1-02","properties":{"coast":"อันดามัน","province":"กระบี่","density":"น้อย","samplePlotId":"KBL1","sampleAreaRai":"1","pinId":"KRBL1-02","sourceCrs":"EPSG:32647","sourceFile":"Company-data/T-VER  Standard กลุ่ม 2  สยามทีซี&วิสุทธิ  ขึ้นทะเบียน/24-6-67(sample plot)/พิกัดแปลงตัวอย่าง_VSD.csv"},"geometry":{"type":"Point","coordinates":[99.0970777,7.942135]}},{"type":"Feature","id":"KRBL1-03","properties":{"coast":"อันดามัน","province":"กระบี่","density":"น้อย","samplePlotId":"KBL1","sampleAreaRai":"1","pinId":"KRBL1-03","sourceCrs":"EPSG:32647","sourceFile":"Company-data/T-VER  Standard กลุ่ม 2  สยามทีซี&วิสุทธิ  ขึ้นทะเบียน/24-6-67(sample plot)/พิกัดแปลงตัวอย่าง_VSD.csv"},"geometry":{"type":"Point","coordinates":[99.0969039,7.9420835]}},{"type":"Feature","id":"KRBL1-04","properties":{"coast":"อันดามัน","province":"กระบี่","density":"น้อย","samplePlotId":"KBL1","sampleAreaRai":"1","pinId":"KRBL1-04","sourceCrs":"EPSG:32647","sourceFile":"Company-data/T-VER  Standard กลุ่ม 2  สยามทีซี&วิสุทธิ  ขึ้นทะเบียน/24-6-67(sample plot)/พิกัดแปลงตัวอย่าง_VSD.csv"},"geometry":{"type":"Point","coordinates":[99.0968063,7.9424393]}},{"type":"Feature","id":"TRUL1-01","properties":{"coast":"อันดามัน","province":"ตรัง","density":"น้อย","samplePlotId":"TRUL1","sampleAreaRai":"1","pinId":"TRUL1-01","sourceCrs":"EPSG:32647","sourceFile":"Company-data/T-VER  Standard กลุ่ม 2  สยามทีซี&วิสุทธิ  ขึ้นทะเบียน/24-6-67(sample plot)/พิกัดแปลงตัวอย่าง_VSD.csv"},"geometry":{"type":"Point","coordinates":[99.6200283,7.3485092]}},{"type":"Feature","id":"TRUL1-02","properties":{"coast":"อันดามัน","province":"ตรัง","density":"น้อย","samplePlotId":"TRUL1","sampleAreaRai":"1","pinId":"TRUL1-02","sourceCrs":"EPSG:32647","sourceFile":"Company-data/T-VER  Standard กลุ่ม 2  สยามทีซี&วิสุทธิ  ขึ้นทะเบียน/24-6-67(sample plot)/พิกัดแปลงตัวอย่าง_VSD.csv"},"geometry":{"type":"Point","coordinates":[99.6200372,7.3483283]}},{"type":"Feature","id":"TRUL1-03","properties":{"coast":"อันดามัน","province":"ตรัง","density":"น้อย","samplePlotId":"TRUL1","sampleAreaRai":"1","pinId":"TRUL1-03","sourceCrs":"EPSG:32647","sourceFile":"Company-data/T-VER  Standard กลุ่ม 2  สยามทีซี&วิสุทธิ  ขึ้นทะเบียน/24-6-67(sample plot)/พิกัดแปลงตัวอย่าง_VSD.csv"},"geometry":{"type":"Point","coordinates":[99.6203814,7.3483278]}},{"type":"Feature","id":"TRUL1-04","properties":{"coast":"อันดามัน","province":"ตรัง","density":"น้อย","samplePlotId":"TRUL1","sampleAreaRai":"1","pinId":"TRUL1-04","sourceCrs":"EPSG:32647","sourceFile":"Company-data/T-VER  Standard กลุ่ม 2  สยามทีซี&วิสุทธิ  ขึ้นทะเบียน/24-6-67(sample plot)/พิกัดแปลงตัวอย่าง_VSD.csv"},"geometry":{"type":"Point","coordinates":[99.6203998,7.3485177]}},{"type":"Feature","id":"TRUL2-01","properties":{"coast":"อันดามัน","province":"ตรัง","density":"น้อย","samplePlotId":"TRUL2","sampleAreaRai":"1","pinId":"TRUL2-01","sourceCrs":"EPSG:32647","sourceFile":"Company-data/T-VER  Standard กลุ่ม 2  สยามทีซี&วิสุทธิ  ขึ้นทะเบียน/24-6-67(sample plot)/พิกัดแปลงตัวอย่าง_VSD.csv"},"geometry":{"type":"Point","coordinates":[99.6209531,7.3489783]}},{"type":"Feature","id":"TRUL2-02","properties":{"coast":"อันดามัน","province":"ตรัง","density":"น้อย","samplePlotId":"TRUL2","sampleAreaRai":"1","pinId":"TRUL2-02","sourceCrs":"EPSG:32647","sourceFile":"Company-data/T-VER  Standard กลุ่ม 2  สยามทีซี&วิสุทธิ  ขึ้นทะเบียน/24-6-67(sample plot)/พิกัดแปลงตัวอย่าง_VSD.csv"},"geometry":{"type":"Point","coordinates":[99.6205906,7.3489245]}},{"type":"Feature","id":"TRUL2-03","properties":{"coast":"อันดามัน","province":"ตรัง","density":"น้อย","samplePlotId":"TRUL2","sampleAreaRai":"1","pinId":"TRUL2-03","sourceCrs":"EPSG:32647","sourceFile":"Company-data/T-VER  Standard กลุ่ม 2  สยามทีซี&วิสุทธิ  ขึ้นทะเบียน/24-6-67(sample plot)/พิกัดแปลงตัวอย่าง_VSD.csv"},"geometry":{"type":"Point","coordinates":[99.6206083,7.3485717]}},{"type":"Feature","id":"TRUL2-04","properties":{"coast":"อันดามัน","province":"ตรัง","density":"น้อย","samplePlotId":"TRUL2","sampleAreaRai":"1","pinId":"TRUL2-04","sourceCrs":"EPSG:32647","sourceFile":"Company-data/T-VER  Standard กลุ่ม 2  สยามทีซี&วิสุทธิ  ขึ้นทะเบียน/24-6-67(sample plot)/พิกัดแปลงตัวอย่าง_VSD.csv"},"geometry":{"type":"Point","coordinates":[99.6209526,7.3486074]}},{"type":"Feature","id":"PNGH1-01","properties":{"coast":"อันดามัน","province":"พังงา","density":"มาก","samplePlotId":"PNGH1","sampleAreaRai":"1","pinId":"PNGH1-01","sourceCrs":"EPSG:32647","sourceFile":"Company-data/T-VER  Standard กลุ่ม 2  สยามทีซี&วิสุทธิ  ขึ้นทะเบียน/24-6-67(sample plot)/พิกัดแปลงตัวอย่าง_VSD.csv"},"geometry":{"type":"Point","coordinates":[98.5479436,8.3563214]}},{"type":"Feature","id":"PNGH1-02","properties":{"coast":"อันดามัน","province":"พังงา","density":"มาก","samplePlotId":"PNGH1","sampleAreaRai":"1","pinId":"PNGH1-02","sourceCrs":"EPSG:32647","sourceFile":"Company-data/T-VER  Standard กลุ่ม 2  สยามทีซี&วิสุทธิ  ขึ้นทะเบียน/24-6-67(sample plot)/พิกัดแปลงตัวอย่าง_VSD.csv"},"geometry":{"type":"Point","coordinates":[98.5479807,8.3559702]}},{"type":"Feature","id":"PNGH1-03","properties":{"coast":"อันดามัน","province":"พังงา","density":"มาก","samplePlotId":"PNGH1","sampleAreaRai":"1","pinId":"PNGH1-03","sourceCrs":"EPSG:32647","sourceFile":"Company-data/T-VER  Standard กลุ่ม 2  สยามทีซี&วิสุทธิ  ขึ้นทะเบียน/24-6-67(sample plot)/พิกัดแปลงตัวอย่าง_VSD.csv"},"geometry":{"type":"Point","coordinates":[98.5475915,8.3559491]}},{"type":"Feature","id":"PNGH1-04","properties":{"coast":"อันดามัน","province":"พังงา","density":"มาก","samplePlotId":"PNGH1","sampleAreaRai":"1","pinId":"PNGH1-04","sourceCrs":"EPSG:32647","sourceFile":"Company-data/T-VER  Standard กลุ่ม 2  สยามทีซี&วิสุทธิ  ขึ้นทะเบียน/24-6-67(sample plot)/พิกัดแปลงตัวอย่าง_VSD.csv"},"geometry":{"type":"Point","coordinates":[98.547578,8.3562913]}},{"type":"Feature","id":"PNGH2-01","properties":{"coast":"อันดามัน","province":"พังงา","density":"มาก","samplePlotId":"PNGH2","sampleAreaRai":"1","pinId":"PNGH2-01","sourceCrs":"EPSG:32647","sourceFile":"Company-data/T-VER  Standard กลุ่ม 2  สยามทีซี&วิสุทธิ  ขึ้นทะเบียน/24-6-67(sample plot)/พิกัดแปลงตัวอย่าง_VSD.csv"},"geometry":{"type":"Point","coordinates":[98.5337202,8.3580401]}},{"type":"Feature","id":"PNGH2-02","properties":{"coast":"อันดามัน","province":"พังงา","density":"มาก","samplePlotId":"PNGH2","sampleAreaRai":"1","pinId":"PNGH2-02","sourceCrs":"EPSG:32647","sourceFile":"Company-data/T-VER  Standard กลุ่ม 2  สยามทีซี&วิสุทธิ  ขึ้นทะเบียน/24-6-67(sample plot)/พิกัดแปลงตัวอย่าง_VSD.csv"},"geometry":{"type":"Point","coordinates":[98.5337409,8.3576721]}},{"type":"Feature","id":"PNGH2-03","properties":{"coast":"อันดามัน","province":"พังงา","density":"มาก","samplePlotId":"PNGH2","sampleAreaRai":"1","pinId":"PNGH2-03","sourceCrs":"EPSG:32647","sourceFile":"Company-data/T-VER  Standard กลุ่ม 2  สยามทีซี&วิสุทธิ  ขึ้นทะเบียน/24-6-67(sample plot)/พิกัดแปลงตัวอย่าง_VSD.csv"},"geometry":{"type":"Point","coordinates":[98.5333748,8.3576604]}},{"type":"Feature","id":"PNGH2-04","properties":{"coast":"อันดามัน","province":"พังงา","density":"มาก","samplePlotId":"PNGH2","sampleAreaRai":"1","pinId":"PNGH2-04","sourceCrs":"EPSG:32647","sourceFile":"Company-data/T-VER  Standard กลุ่ม 2  สยามทีซี&วิสุทธิ  ขึ้นทะเบียน/24-6-67(sample plot)/พิกัดแปลงตัวอย่าง_VSD.csv"},"geometry":{"type":"Point","coordinates":[98.5333492,8.3580235]}},{"type":"Feature","id":"PNGH3-02","properties":{"coast":"อันดามัน","province":"พังงา","density":"มาก","samplePlotId":"PNGH3","sampleAreaRai":"1","pinId":"PNGH3-02","sourceCrs":"EPSG:32647","sourceFile":"Company-data/T-VER  Standard กลุ่ม 2  สยามทีซี&วิสุทธิ  ขึ้นทะเบียน/24-6-67(sample plot)/พิกัดแปลงตัวอย่าง_VSD.csv"},"geometry":{"type":"Point","coordinates":[98.6397358,8.382887]}},{"type":"Feature","id":"PNGH3-03","properties":{"coast":"อันดามัน","province":"พังงา","density":"มาก","samplePlotId":"PNGH3","sampleAreaRai":"1","pinId":"PNGH3-03","sourceCrs":"EPSG:32647","sourceFile":"Company-data/T-VER  Standard กลุ่ม 2  สยามทีซี&วิสุทธิ  ขึ้นทะเบียน/24-6-67(sample plot)/พิกัดแปลงตัวอย่าง_VSD.csv"},"geometry":{"type":"Point","coordinates":[98.6395699,8.3825898]}},{"type":"Feature","id":"PNGH3-04","properties":{"coast":"อันดามัน","province":"พังงา","density":"มาก","samplePlotId":"PNGH3","sampleAreaRai":"1","pinId":"PNGH3-04","sourceCrs":"EPSG:32647","sourceFile":"Company-data/T-VER  Standard กลุ่ม 2  สยามทีซี&วิสุทธิ  ขึ้นทะเบียน/24-6-67(sample plot)/พิกัดแปลงตัวอย่าง_VSD.csv"},"geometry":{"type":"Point","coordinates":[98.6392161,8.3827738]}},{"type":"Feature","id":"PNGH3-01","properties":{"coast":"อันดามัน","province":"พังงา","density":"มาก","samplePlotId":"PNGH3","sampleAreaRai":"1","pinId":"PNGH3-01","sourceCrs":"EPSG:32647","sourceFile":"Company-data/T-VER  Standard กลุ่ม 2  สยามทีซี&วิสุทธิ  ขึ้นทะเบียน/24-6-67(sample plot)/พิกัดแปลงตัวอย่าง_VSD.csv"},"geometry":{"type":"Point","coordinates":[98.639392,8.3830568]}},{"type":"Feature","id":"PNGM1-03","properties":{"coast":"อันดามัน","province":"พังงา","density":"ปานกลาง","samplePlotId":"PNHM1","sampleAreaRai":"1","pinId":"PNGM1-03","sourceCrs":"EPSG:32647","sourceFile":"Company-data/T-VER  Standard กลุ่ม 2  สยามทีซี&วิสุทธิ  ขึ้นทะเบียน/24-6-67(sample plot)/พิกัดแปลงตัวอย่าง_VSD.csv"},"geometry":{"type":"Point","coordinates":[98.5954151,8.4281606]}},{"type":"Feature","id":"PNGM1-04","properties":{"coast":"อันดามัน","province":"พังงา","density":"ปานกลาง","samplePlotId":"PNHM1","sampleAreaRai":"1","pinId":"PNGM1-04","sourceCrs":"EPSG:32647","sourceFile":"Company-data/T-VER  Standard กลุ่ม 2  สยามทีซี&วิสุทธิ  ขึ้นทะเบียน/24-6-67(sample plot)/พิกัดแปลงตัวอย่าง_VSD.csv"},"geometry":{"type":"Point","coordinates":[98.5954638,8.4278326]}},{"type":"Feature","id":"PNGM1-01","properties":{"coast":"อันดามัน","province":"พังงา","density":"ปานกลาง","samplePlotId":"PNHM1","sampleAreaRai":"1","pinId":"PNGM1-01","sourceCrs":"EPSG:32647","sourceFile":"Company-data/T-VER  Standard กลุ่ม 2  สยามทีซี&วิสุทธิ  ขึ้นทะเบียน/24-6-67(sample plot)/พิกัดแปลงตัวอย่าง_VSD.csv"},"geometry":{"type":"Point","coordinates":[98.5952619,8.4278191]}},{"type":"Feature","id":"PNGM1-02","properties":{"coast":"อันดามัน","province":"พังงา","density":"ปานกลาง","samplePlotId":"PNHM1","sampleAreaRai":"1","pinId":"PNGM1-02","sourceCrs":"EPSG:32647","sourceFile":"Company-data/T-VER  Standard กลุ่ม 2  สยามทีซี&วิสุทธิ  ขึ้นทะเบียน/24-6-67(sample plot)/พิกัดแปลงตัวอย่าง_VSD.csv"},"geometry":{"type":"Point","coordinates":[98.5952185,8.4281451]}},{"type":"Feature","id":"PHUH1-01","properties":{"coast":"อันดามัน","province":"ภูเก็ต","density":"มาก","samplePlotId":"PHUH1","sampleAreaRai":"1","pinId":"PHUH1-01","sourceCrs":"EPSG:32647","sourceFile":"Company-data/T-VER  Standard กลุ่ม 2  สยามทีซี&วิสุทธิ  ขึ้นทะเบียน/24-6-67(sample plot)/พิกัดแปลงตัวอย่าง_VSD.csv"},"geometry":{"type":"Point","coordinates":[98.4030538,7.9382623]}},{"type":"Feature","id":"PHUH1-02","properties":{"coast":"อันดามัน","province":"ภูเก็ต","density":"มาก","samplePlotId":"PHUH1","sampleAreaRai":"1","pinId":"PHUH1-02","sourceCrs":"EPSG:32647","sourceFile":"Company-data/T-VER  Standard กลุ่ม 2  สยามทีซี&วิสุทธิ  ขึ้นทะเบียน/24-6-67(sample plot)/พิกัดแปลงตัวอย่าง_VSD.csv"},"geometry":{"type":"Point","coordinates":[98.402736,7.9384066]}},{"type":"Feature","id":"PHUH1-03","properties":{"coast":"อันดามัน","province":"ภูเก็ต","density":"มาก","samplePlotId":"PHUH1","sampleAreaRai":"1","pinId":"PHUH1-03","sourceCrs":"EPSG:32647","sourceFile":"Company-data/T-VER  Standard กลุ่ม 2  สยามทีซี&วิสุทธิ  ขึ้นทะเบียน/24-6-67(sample plot)/พิกัดแปลงตัวอย่าง_VSD.csv"},"geometry":{"type":"Point","coordinates":[98.4026456,7.9382075]}},{"type":"Feature","id":"PHUH1-04","properties":{"coast":"อันดามัน","province":"ภูเก็ต","density":"มาก","samplePlotId":"PHUH1","sampleAreaRai":"1","pinId":"PHUH1-04","sourceCrs":"EPSG:32647","sourceFile":"Company-data/T-VER  Standard กลุ่ม 2  สยามทีซี&วิสุทธิ  ขึ้นทะเบียน/24-6-67(sample plot)/พิกัดแปลงตัวอย่าง_VSD.csv"},"geometry":{"type":"Point","coordinates":[98.4029996,7.9380723]}}]}