{
  "type": "FeatureCollection",
  "name": "g1-siam-tc-available-participating-areas",
  "features": [
    {
      "type": "Feature",
      "id": "14(1)-STC",
      "properties": {
        "sequence": 14,
        "plotId": "14(1)-STC",
        "officialPlotIds": [
          "14(1)-STC"
        ],
        "officialPlotCount": 1,
        "villageNumber": "8",
        "village": "บ้านถนนกระเพรา",
        "subdistrict": "เนินฆ้อ",
        "district": "แกลง",
        "province": "ระยอง",
        "landCondition": "พื้นที่ผ่านการทำนากุ้ง",
        "allocatedAreaRai": 14.08,
        "officialParticipatingAreaRai": 12.47,
        "geometryAreaRai": 12.47,
        "areaDifferenceRai": 0.0,
        "sourceCrs": "EPSG:32647",
        "sourceFile": "Company-data/T-VER premium กลุ่ม 1  สยามทีซี  ขึ้นทะเบียน/MOC1_shp-file/14(1)-STC-area.shp",
        "sourceFeatureCount": 1
      },
      "geometry": {
        "type": "GeometryCollection",
        "geometries": [
          {
            "type": "Polygon",
            "coordinates": [
              [
                [
                  101.67374,
                  12.6918659
                ],
                [
                  101.6722565,
                  12.6906815
                ],
                [
                  101.6717337,
                  12.6912412
                ],
                [
                  101.6731281,
                  12.6926064
                ],
                [
                  101.67374,
                  12.6918659
                ]
              ]
            ]
          }
        ]
      }
    },
    {
      "type": "Feature",
      "id": "14-STC",
      "properties": {
        "sequence": 5,
        "plotId": "14-STC",
        "officialPlotIds": [
          "14-STC"
        ],
        "officialPlotCount": 1,
        "villageNumber": "8",
        "village": "ถนนกะเพรา",
        "subdistrict": "เนินฆ้อ",
        "district": "แกลง",
        "province": "ระยอง",
        "landCondition": "พื้นที่ผ่านการรื้อถอน (พื้นที่พร้อมปลูก)",
        "allocatedAreaRai": 6.75,
        "officialParticipatingAreaRai": 4.48,
        "geometryAreaRai": 4.49,
        "areaDifferenceRai": 0.01,
        "sourceCrs": "EPSG:32647",
        "sourceFile": "Company-data/T-VER premium กลุ่ม 1  สยามทีซี  ขึ้นทะเบียน/MOC1_shp-file/14-STC-area.shp",
        "sourceFeatureCount": 2
      },
      "geometry": {
        "type": "GeometryCollection",
        "geometries": [
          {
            "type": "Polygon",
            "coordinates": [
              [
                [
                  101.6997787,
                  12.7104811
                ],
                [
                  101.6999213,
                  12.7109133
                ],
                [
                  101.7000422,
                  12.7110295
                ],
                [
                  101.700877,
                  12.7107952
                ],
                [
                  101.7008071,
                  12.7102719
                ],
                [
                  101.6997787,
                  12.7104811
                ]
              ]
            ]
          },
          {
            "type": "Polygon",
            "coordinates": [
              [
                [
                  101.6996932,
                  12.7102291
                ],
                [
                  101.6997319,
                  12.7104003
                ],
                [
                  101.6999892,
                  12.7103706
                ],
                [
                  101.6999508,
                  12.7102174
                ],
                [
                  101.6996932,
                  12.7102291
                ]
              ]
            ]
          }
        ]
      }
    },
    {
      "type": "Feature",
      "id": "15-STC",
      "properties": {
        "sequence": 6,
        "plotId": "15-STC",
        "officialPlotIds": [
          "15-STC"
        ],
        "officialPlotCount": 1,
        "villageNumber": "3",
        "village": "บ้านเขาน้อย",
        "subdistrict": "กองดิน",
        "district": "แกลง",
        "province": "ระยอง",
        "landCondition": "พื้นที่ผ่านการรื้อถอน (พื้นที่พร้อมปลูก)",
        "allocatedAreaRai": 7.02,
        "officialParticipatingAreaRai": 5.07,
        "geometryAreaRai": 5.08,
        "areaDifferenceRai": 0.01,
        "sourceCrs": "EPSG:32647",
        "sourceFile": "Company-data/T-VER premium กลุ่ม 1  สยามทีซี  ขึ้นทะเบียน/MOC1_shp-file/15-STC.shp",
        "sourceFeatureCount": 1
      },
      "geometry": {
        "type": "GeometryCollection",
        "geometries": [
          {
            "type": "Polygon",
            "coordinates": [
              [
                [
                  101.7884446,
                  12.7406224
                ],
                [
                  101.7885982,
                  12.7406445
                ],
                [
                  101.7885947,
                  12.7405058
                ],
                [
                  101.7888611,
                  12.7391426
                ],
                [
                  101.7883367,
                  12.7390379
                ],
                [
                  101.7883393,
                  12.73928
                ],
                [
                  101.788195,
                  12.7393133
                ],
                [
                  101.7882372,
                  12.7396001
                ],
                [
                  101.7882288,
                  12.7397314
                ],
                [
                  101.7883025,
                  12.7397989
                ],
                [
                  101.7881728,
                  12.7401735
                ],
                [
                  101.7882472,
                  12.7403057
                ],
                [
                  101.7883972,
                  12.7403644
                ],
                [
                  101.7884611,
                  12.740491
                ],
                [
                  101.7884446,
                  12.7406224
                ]
              ]
            ]
          }
        ]
      }
    },
    {
      "type": "Feature",
      "properties": {
        "sequence": 17,
        "plotId": "18(1)-STC",
        "officialPlotIds": [
          "18(1)-STC"
        ],
        "officialPlotCount": 1,
        "province": "ระยอง",
        "subdistrict": null,
        "district": null,
        "village": null,
        "villageNumber": null,
        "landCondition": null,
        "allocatedAreaRai": 21.03,
        "officialParticipatingAreaRai": 21.03,
        "geometryAreaRai": 21.82,
        "areaDifferenceRai": 0.79,
        "sourceCrs": "EPSG:32647",
        "sourceFile": "Company-data/T-VER premium กลุ่ม 1  สยามทีซี  ขึ้นทะเบียน/MOC1_shp-file/18(1)-STC-point.dbf",
        "sourceFeatureCount": 20,
        "plotMatchStatus": "tentative-reconstructed-from-boundary-points",
        "matchMethod": "area shapefile is missing; polygon reconstructed from ordered x/y boundary point records in point DBF",
        "sourceEncoding": "utf-8"
      },
      "geometry": {
        "type": "Polygon",
        "coordinates": [
          [
            [
              101.66400891664503,
              12.727223092563772
            ],
            [
              101.66377300985458,
              12.726706705747791
            ],
            [
              101.66424005085973,
              12.726379112044752
            ],
            [
              101.66456115966608,
              12.726146940291702
            ],
            [
              101.66465938607246,
              12.726130069868283
            ],
            [
              101.66490908096355,
              12.725901263537036
            ],
            [
              101.66505575324206,
              12.72587596444516
            ],
            [
              101.6652947593581,
              12.725914581908235
            ],
            [
              101.66542792062317,
              12.72627319250925
            ],
            [
              101.66529937614762,
              12.726356533557752
            ],
            [
              101.66534378483762,
              12.726477837859782
            ],
            [
              101.66597974105323,
              12.726189564358661
            ],
            [
              101.66688264139037,
              12.727968317759691
            ],
            [
              101.66648979685235,
              12.728172098380249
            ],
            [
              101.66590434051443,
              12.72703726195644
            ],
            [
              101.6648819543212,
              12.72778863402491
            ],
            [
              101.66454273535895,
              12.727126693321207
            ],
            [
              101.66523210010021,
              12.726722465044372
            ],
            [
              101.66522599852125,
              12.726598227482082
            ],
            [
              101.6644694800395,
              12.726984548607478
            ],
            [
              101.66400891664503,
              12.727223092563772
            ]
          ]
        ]
      }
    },
    {
      "type": "Feature",
      "properties": {
        "sequence": 13,
        "plotId": "19-STC",
        "officialPlotIds": [
          "19-STC"
        ],
        "officialPlotCount": 1,
        "province": "ระยอง",
        "subdistrict": null,
        "district": null,
        "village": null,
        "villageNumber": null,
        "landCondition": null,
        "allocatedAreaRai": 15.21,
        "officialParticipatingAreaRai": 15.21,
        "geometryAreaRai": 15.09,
        "areaDifferenceRai": -0.12,
        "sourceCrs": "EPSG:32647",
        "sourceFile": "Company-data/T-VER premium กลุ่ม 1  สยามทีซี  ขึ้นทะเบียน/MOC1_shp-file/19-STC-point.dbf",
        "sourceFeatureCount": 13,
        "plotMatchStatus": "tentative-reconstructed-from-boundary-points",
        "matchMethod": "area shapefile is missing; polygon reconstructed from ordered x/y boundary point records in point DBF",
        "sourceEncoding": "utf-8"
      },
      "geometry": {
        "type": "Polygon",
        "coordinates": [
          [
            [
              101.65923459987054,
              12.726312156955272
            ],
            [
              101.65922775202009,
              12.726538077074764
            ],
            [
              101.65966380608782,
              12.726876990623689
            ],
            [
              101.65992145145256,
              12.726874402053415
            ],
            [
              101.66001384436672,
              12.726909609910026
            ],
            [
              101.66015507104001,
              12.727215348438262
            ],
            [
              101.66033244528813,
              12.727457485238785
            ],
            [
              101.66043836292894,
              12.727443836373924
            ],
            [
              101.66118469311057,
              12.72663742751863
            ],
            [
              101.66186351210165,
              12.725998039881652
            ],
            [
              101.66159064635906,
              12.725448315626547
            ],
            [
              101.66037823555988,
              12.726553620517066
            ],
            [
              101.6598658377253,
              12.725953487807733
            ],
            [
              101.65923459987054,
              12.726312156955272
            ]
          ]
        ]
      }
    },
    {
      "type": "Feature",
      "properties": {
        "sequence": 14,
        "plotId": "20-STC",
        "officialPlotIds": [
          "20-STC"
        ],
        "officialPlotCount": 1,
        "province": "ระยอง",
        "subdistrict": null,
        "district": null,
        "village": null,
        "villageNumber": null,
        "landCondition": null,
        "allocatedAreaRai": 28.69,
        "officialParticipatingAreaRai": 28.69,
        "geometryAreaRai": 26.01,
        "areaDifferenceRai": -2.68,
        "sourceCrs": "EPSG:32647",
        "sourceFile": "Company-data/T-VER premium กลุ่ม 1  สยามทีซี  ขึ้นทะเบียน/MOC1_shp-file/20-STC-point.dbf",
        "sourceFeatureCount": 23,
        "plotMatchStatus": "tentative-reconstructed-from-boundary-points",
        "matchMethod": "area shapefile is missing; polygon reconstructed from ordered x/y boundary point records in point DBF",
        "sourceEncoding": "utf-8"
      },
      "geometry": {
        "type": "Polygon",
        "coordinates": [
          [
            [
              101.66321660568455,
              12.723408342966088
            ],
            [
              101.66325454280138,
              12.723516369752218
            ],
            [
              101.66338123274508,
              12.724192647555943
            ],
            [
              101.66348207206859,
              12.724155497126505
            ],
            [
              101.66347952644519,
              12.723911604019882
            ],
            [
              101.6634123819805,
              12.723650292620764
            ],
            [
              101.66375949225896,
              12.723402882369099
            ],
            [
              101.66335538190594,
              12.723479219418758
            ],
            [
              101.66383178392589,
              12.723275678801114
            ],
            [
              101.66486937898298,
              12.723057456517871
            ],
            [
              101.66445299721624,
              12.723721129892622
            ],
            [
              101.66432559126359,
              12.723857922176313
            ],
            [
              101.66422871322135,
              12.724274461924763
            ],
            [
              101.66359852452733,
              12.7247325033333
            ],
            [
              101.6634086522964,
              12.7250686542599
            ],
            [
              101.66304241385765,
              12.725189690169817
            ],
            [
              101.6627957895937,
              12.725409529390099
            ],
            [
              101.66272500348687,
              12.725670511720867
            ],
            [
              101.66215674773974,
              12.725903359881745
            ],
            [
              101.6618510835679,
              12.724831382887396
            ],
            [
              101.66259235435538,
              12.724435466250002
            ],
            [
              101.66247703530851,
              12.723966856136617
            ],
            [
              101.6627488733436,
              12.723548566243538
            ],
            [
              101.66321660568455,
              12.723408342966088
            ]
          ]
        ]
      }
    },
    {
      "type": "Feature",
      "id": "22(1)-STC",
      "properties": {
        "sequence": 16,
        "plotId": "22(1)-STC",
        "officialPlotIds": [
          "22(1)-STC"
        ],
        "officialPlotCount": 1,
        "villageNumber": "3",
        "village": "เขาถ้ำ",
        "subdistrict": "กองดิน",
        "district": "แกลง",
        "province": "ระยอง",
        "landCondition": "พื้นที่ผ่านการทำนากุ้ง",
        "allocatedAreaRai": 16.86,
        "officialParticipatingAreaRai": 13.06,
        "geometryAreaRai": 13.06,
        "areaDifferenceRai": 0.0,
        "sourceCrs": "EPSG:32647",
        "sourceFile": "Company-data/T-VER premium กลุ่ม 1  สยามทีซี  ขึ้นทะเบียน/MOC1_shp-file/22(1)-STC-area.shp",
        "sourceFeatureCount": 1
      },
      "geometry": {
        "type": "GeometryCollection",
        "geometries": [
          {
            "type": "Polygon",
            "coordinates": [
              [
                [
                  101.7969849,
                  12.7564551
                ],
                [
                  101.7969218,
                  12.7562191
                ],
                [
                  101.7968974,
                  12.7559548
                ],
                [
                  101.7969583,
                  12.7559944
                ],
                [
                  101.7965118,
                  12.7540923
                ],
                [
                  101.7964833,
                  12.7538961
                ],
                [
                  101.7961624,
                  12.7539225
                ],
                [
                  101.7957313,
                  12.7540478
                ],
                [
                  101.7961788,
                  12.755859
                ],
                [
                  101.7962382,
                  12.7558487
                ],
                [
                  101.7962644,
                  12.7557402
                ],
                [
                  101.7964255,
                  12.7553858
                ],
                [
                  101.7966551,
                  12.755232
                ],
                [
                  101.7967021,
                  12.7553283
                ],
                [
                  101.7966465,
                  12.7553356
                ],
                [
                  101.7967976,
                  12.7557595
                ],
                [
                  101.7964845,
                  12.7557829
                ],
                [
                  101.7962385,
                  12.7558765
                ],
                [
                  101.7961422,
                  12.7559044
                ],
                [
                  101.7961769,
                  12.7560382
                ],
                [
                  101.7963569,
                  12.7566074
                ],
                [
                  101.7969849,
                  12.7564551
                ]
              ]
            ]
          }
        ]
      }
    },
    {
      "type": "Feature",
      "id": "22-STC",
      "properties": {
        "sequence": 12,
        "plotId": "22-STC",
        "officialPlotIds": [
          "22-STC"
        ],
        "officialPlotCount": 1,
        "villageNumber": "3",
        "village": "บ้านเขาถ้ำ",
        "subdistrict": "กองดิน",
        "district": "แกลง",
        "province": "ระยอง",
        "landCondition": "พื้นที่ผ่านการรื้อถอน (พื้นที่พร้อมปลูก)",
        "allocatedAreaRai": 28.57,
        "officialParticipatingAreaRai": 26.05,
        "geometryAreaRai": 26.05,
        "areaDifferenceRai": 0.0,
        "sourceCrs": "EPSG:32647",
        "sourceFile": "Company-data/T-VER premium กลุ่ม 1  สยามทีซี  ขึ้นทะเบียน/MOC1_shp-file/22-STC-area.shp",
        "sourceFeatureCount": 1
      },
      "geometry": {
        "type": "GeometryCollection",
        "geometries": [
          {
            "type": "Polygon",
            "coordinates": [
              [
                [
                  101.802656,
                  12.7589631
                ],
                [
                  101.803198,
                  12.7585964
                ],
                [
                  101.8032073,
                  12.7585477
                ],
                [
                  101.8031219,
                  12.7583583
                ],
                [
                  101.8026011,
                  12.7578208
                ],
                [
                  101.8023497,
                  12.7575679
                ],
                [
                  101.802163,
                  12.7573664
                ],
                [
                  101.8020966,
                  12.7573049
                ],
                [
                  101.8028645,
                  12.756119
                ],
                [
                  101.8028753,
                  12.7560576
                ],
                [
                  101.802301,
                  12.7557843
                ],
                [
                  101.8020876,
                  12.7555889
                ],
                [
                  101.8011208,
                  12.7568
                ],
                [
                  101.8005809,
                  12.7579475
                ],
                [
                  101.8015659,
                  12.7581258
                ],
                [
                  101.8016376,
                  12.7581615
                ],
                [
                  101.8017238,
                  12.7586414
                ],
                [
                  101.802656,
                  12.7589631
                ]
              ],
              [
                [
                  101.8014413,
                  12.756543
                ],
                [
                  101.8016282,
                  12.7563091
                ],
                [
                  101.802018,
                  12.7558067
                ],
                [
                  101.8026119,
                  12.7561971
                ],
                [
                  101.8020382,
                  12.7569788
                ],
                [
                  101.8016264,
                  12.7566799
                ],
                [
                  101.8014413,
                  12.756543
                ]
              ]
            ]
          }
        ]
      }
    },
    {
      "type": "Feature",
      "id": "23(1)-STC",
      "properties": {
        "sequence": 17,
        "plotId": "23(1)-STC",
        "officialPlotIds": [
          "23(1)-STC"
        ],
        "officialPlotCount": 1,
        "villageNumber": "6",
        "village": "อ่าวมะขามป้อม",
        "subdistrict": "กร่ำ",
        "district": "แกลง",
        "province": "ระยอง",
        "landCondition": "พื้นที่ผ่านการทำนากุ้ง",
        "allocatedAreaRai": 9.1,
        "officialParticipatingAreaRai": 7.46,
        "geometryAreaRai": 7.46,
        "areaDifferenceRai": 0.0,
        "sourceCrs": "EPSG:32647",
        "sourceFile": "Company-data/T-VER premium กลุ่ม 1  สยามทีซี  ขึ้นทะเบียน/MOC1_shp-file/23(1)-STC-area.shp",
        "sourceFeatureCount": 1
      },
      "geometry": {
        "type": "GeometryCollection",
        "geometries": [
          {
            "type": "Polygon",
            "coordinates": [
              [
                [
                  101.6585842,
                  12.6709836
                ],
                [
                  101.6587911,
                  12.671272
                ],
                [
                  101.660149,
                  12.6717914
                ],
                [
                  101.6596342,
                  12.6705502
                ],
                [
                  101.6581264,
                  12.6710028
                ],
                [
                  101.6581616,
                  12.6710559
                ],
                [
                  101.6583882,
                  12.6709491
                ],
                [
                  101.6585842,
                  12.6709836
                ]
              ]
            ]
          }
        ]
      }
    },
    {
      "type": "Feature",
      "properties": {
        "sequence": 16,
        "plotId": "23-STC",
        "officialPlotIds": [
          "23-STC"
        ],
        "officialPlotCount": 1,
        "province": "ระยอง",
        "subdistrict": null,
        "district": null,
        "village": null,
        "villageNumber": null,
        "landCondition": null,
        "allocatedAreaRai": 42.9,
        "officialParticipatingAreaRai": 42.9,
        "geometryAreaRai": 45.29,
        "areaDifferenceRai": 2.39,
        "sourceCrs": "EPSG:32647",
        "sourceFile": "Company-data/T-VER premium กลุ่ม 1  สยามทีซี  ขึ้นทะเบียน/MOC1_shp-file/23-STC-point.dbf",
        "sourceFeatureCount": 19,
        "plotMatchStatus": "tentative-reconstructed-from-boundary-points",
        "matchMethod": "area shapefile is missing; polygon reconstructed from ordered x/y boundary point records in point DBF",
        "sourceEncoding": "utf-8"
      },
      "geometry": {
        "type": "Polygon",
        "coordinates": [
          [
            [
              101.72201705994901,
              12.716052663924163
            ],
            [
              101.72155774114205,
              12.715087106580029
            ],
            [
              101.72210190862857,
              12.71467232885546
            ],
            [
              101.72255231046428,
              12.714710827810089
            ],
            [
              101.7224705988539,
              12.714233472001613
            ],
            [
              101.72272008097683,
              12.714057941593724
            ],
            [
              101.7232788844235,
              12.713826999733762
            ],
            [
              101.72345126486834,
              12.71406479985981
            ],
            [
              101.72346495763097,
              12.714707672698259
            ],
            [
              101.72348480446419,
              12.714738616642329
            ],
            [
              101.72421061357966,
              12.714790090528282
            ],
            [
              101.72489152728738,
              12.714841545298924
            ],
            [
              101.72503877729062,
              12.714919562861803
            ],
            [
              101.72512057747255,
              12.714855477204987
            ],
            [
              101.7263833291677,
              12.714914358044014
            ],
            [
              101.72510764213305,
              12.716067135496566
            ],
            [
              101.72502683483054,
              12.71613289126034
            ],
            [
              101.72496971772729,
              12.71617755375617
            ],
            [
              101.72321914610781,
              12.716142851346726
            ],
            [
              101.72201705994901,
              12.716052663924163
            ]
          ]
        ]
      }
    },
    {
      "type": "Feature",
      "id": "28,29-STC",
      "properties": {
        "sequence": 1,
        "plotId": "28,29-STC",
        "officialPlotIds": [
          "28-STC",
          "29-STC"
        ],
        "officialPlotCount": 2,
        "villageNumber": "4",
        "village": "ตันหยงเปาว์",
        "subdistrict": "ท่ากำชำ",
        "district": "หนองจิก",
        "province": "ปัตตานี",
        "landCondition": "พื้นที่ผ่านการทำนากุ้ง",
        "allocatedAreaRai": 18.16,
        "officialParticipatingAreaRai": 10.69,
        "geometryAreaRai": 10.71,
        "areaDifferenceRai": 0.02,
        "sourceCrs": "EPSG:32647",
        "sourceFile": "Company-data/T-VER premium กลุ่ม 1  สยามทีซี  ขึ้นทะเบียน/MOC1_shp-file/28,29-STC-area.shp",
        "sourceFeatureCount": 4
      },
      "geometry": {
        "type": "GeometryCollection",
        "geometries": [
          {
            "type": "Polygon",
            "coordinates": [
              [
                [
                  101.0788481,
                  6.8528363
                ],
                [
                  101.0788955,
                  6.8527716
                ],
                [
                  101.0786771,
                  6.852699
                ],
                [
                  101.0785167,
                  6.8527403
                ],
                [
                  101.0788481,
                  6.8528363
                ]
              ]
            ]
          },
          {
            "type": "Polygon",
            "coordinates": [
              [
                [
                  101.0767393,
                  6.8554227
                ],
                [
                  101.0772076,
                  6.8547253
                ],
                [
                  101.0767274,
                  6.8544576
                ],
                [
                  101.0766518,
                  6.8544873
                ],
                [
                  101.0760714,
                  6.8550366
                ],
                [
                  101.0760481,
                  6.8551544
                ],
                [
                  101.0767393,
                  6.8554227
                ]
              ]
            ]
          },
          {
            "type": "Polygon",
            "coordinates": [
              [
                [
                  101.0790563,
                  6.8528165
                ],
                [
                  101.0791427,
                  6.8528455
                ],
                [
                  101.0793241,
                  6.8526282
                ],
                [
                  101.0794492,
                  6.852437
                ],
                [
                  101.0793496,
                  6.8523564
                ],
                [
                  101.0790958,
                  6.8523053
                ],
                [
                  101.0785933,
                  6.8522066
                ],
                [
                  101.0785429,
                  6.8522264
                ],
                [
                  101.0784557,
                  6.8524959
                ],
                [
                  101.0789263,
                  6.8526747
                ],
                [
                  101.0790924,
                  6.8524834
                ],
                [
                  101.0792274,
                  6.8525585
                ],
                [
                  101.0791983,
                  6.8526329
                ],
                [
                  101.0790785,
                  6.8527638
                ],
                [
                  101.0790563,
                  6.8528165
                ]
              ]
            ]
          },
          {
            "type": "Polygon",
            "coordinates": [
              [
                [
                  101.0772584,
                  6.8548149
                ],
                [
                  101.076841,
                  6.8554243
                ],
                [
                  101.0768377,
                  6.8554769
                ],
                [
                  101.0768844,
                  6.8555559
                ],
                [
                  101.0774237,
                  6.8557302
                ],
                [
                  101.0776794,
                  6.8551677
                ],
                [
                  101.0777175,
                  6.8550764
                ],
                [
                  101.0775783,
                  6.8549852
                ],
                [
                  101.0775683,
                  6.8549572
                ],
                [
                  101.0772584,
                  6.8548149
                ]
              ]
            ]
          }
        ]
      }
    },
    {
      "type": "Feature",
      "id": "30,31-STC",
      "properties": {
        "sequence": 3,
        "plotId": "30,31-STC",
        "officialPlotIds": [
          "30-STC",
          "31-STC"
        ],
        "officialPlotCount": 2,
        "villageNumber": "4, 11",
        "village": "พรุใหญ่, ท่าปากแหว่ง",
        "subdistrict": "กระโสม, โคกกลอย",
        "district": "ตะกั่วทุ่ง",
        "province": "พังงา",
        "landCondition": "พื้นที่ผ่านการทำนากุ้ง",
        "allocatedAreaRai": 24.82,
        "officialParticipatingAreaRai": 13.14,
        "geometryAreaRai": 13.15,
        "areaDifferenceRai": 0.01,
        "sourceCrs": "EPSG:32647",
        "sourceFile": "Company-data/T-VER premium กลุ่ม 1  สยามทีซี  ขึ้นทะเบียน/MOC1_shp-file/30,31-STC-area.shp",
        "sourceFeatureCount": 4
      },
      "geometry": {
        "type": "GeometryCollection",
        "geometries": [
          {
            "type": "Polygon",
            "coordinates": [
              [
                [
                  98.4634174,
                  8.4056224
                ],
                [
                  98.4634293,
                  8.4055247
                ],
                [
                  98.4634667,
                  8.4055086
                ],
                [
                  98.4634751,
                  8.4052298
                ],
                [
                  98.4633774,
                  8.4052385
                ],
                [
                  98.463361,
                  8.4050755
                ],
                [
                  98.463251,
                  8.4053346
                ],
                [
                  98.4632443,
                  8.4055139
                ],
                [
                  98.4634174,
                  8.4056224
                ]
              ]
            ]
          },
          {
            "type": "Polygon",
            "coordinates": [
              [
                [
                  98.4631189,
                  8.4060646
                ],
                [
                  98.4631987,
                  8.4060385
                ],
                [
                  98.4633343,
                  8.405822
                ],
                [
                  98.4630686,
                  8.4056474
                ],
                [
                  98.4629025,
                  8.4058967
                ],
                [
                  98.4631189,
                  8.4060646
                ]
              ]
            ]
          },
          {
            "type": "Polygon",
            "coordinates": [
              [
                [
                  98.3079967,
                  8.2022689
                ],
                [
                  98.3080604,
                  8.2021513
                ],
                [
                  98.3079792,
                  8.2021209
                ],
                [
                  98.3080051,
                  8.2019546
                ],
                [
                  98.3079513,
                  8.2019639
                ],
                [
                  98.3078866,
                  8.2018298
                ],
                [
                  98.3080142,
                  8.2017091
                ],
                [
                  98.3082513,
                  8.2013388
                ],
                [
                  98.3082805,
                  8.201223
                ],
                [
                  98.3085626,
                  8.2009063
                ],
                [
                  98.3086345,
                  8.200951
                ],
                [
                  98.3087286,
                  8.2008727
                ],
                [
                  98.3088514,
                  8.2008532
                ],
                [
                  98.3089698,
                  8.2009069
                ],
                [
                  98.3088795,
                  8.2006444
                ],
                [
                  98.3083802,
                  8.2006526
                ],
                [
                  98.3078346,
                  8.2011763
                ],
                [
                  98.3075331,
                  8.201613
                ],
                [
                  98.3079967,
                  8.2022689
                ]
              ]
            ]
          },
          {
            "type": "Polygon",
            "coordinates": [
              [
                [
                  98.3066857,
                  8.2040596
                ],
                [
                  98.3066971,
                  8.2038884
                ],
                [
                  98.3067319,
                  8.2038604
                ],
                [
                  98.3066675,
                  8.203721
                ],
                [
                  98.3068145,
                  8.2035583
                ],
                [
                  98.306867,
                  8.2035975
                ],
                [
                  98.3070125,
                  8.2034838
                ],
                [
                  98.3069508,
                  8.2034145
                ],
                [
                  98.3070619,
                  8.2031876
                ],
                [
                  98.3072176,
                  8.2031655
                ],
                [
                  98.3072542,
                  8.2031001
                ],
                [
                  98.3071897,
                  8.2030187
                ],
                [
                  98.3072765,
                  8.2027217
                ],
                [
                  98.3075417,
                  8.2028215
                ],
                [
                  98.3076701,
                  8.2029186
                ],
                [
                  98.3076131,
                  8.2027942
                ],
                [
                  98.3074922,
                  8.202751
                ],
                [
                  98.3075055,
                  8.2026568
                ],
                [
                  98.307823,
                  8.202653
                ],
                [
                  98.3077576,
                  8.2025649
                ],
                [
                  98.3078141,
                  8.202394
                ],
                [
                  98.3074101,
                  8.2017913
                ],
                [
                  98.3070428,
                  8.2023236
                ],
                [
                  98.306733,
                  8.2029562
                ],
                [
                  98.30665,
                  8.2037249
                ],
                [
                  98.3066857,
                  8.2040596
                ]
              ]
            ]
          }
        ]
      }
    },
    {
      "type": "Feature",
      "id": "35-STC",
      "properties": {
        "sequence": 19,
        "plotId": "35-STC",
        "officialPlotIds": [
          "35-STC"
        ],
        "officialPlotCount": 1,
        "villageNumber": "2",
        "village": "บ้านบากัน",
        "subdistrict": "อ่าวลึกน้อย",
        "district": "อ่าวลึก",
        "province": "กระบี่",
        "landCondition": "พื้นที่เลนงอก",
        "allocatedAreaRai": 63.12,
        "officialParticipatingAreaRai": 18.8,
        "geometryAreaRai": 18.81,
        "areaDifferenceRai": 0.01,
        "sourceCrs": "EPSG:32647",
        "sourceFile": "Company-data/T-VER premium กลุ่ม 1  สยามทีซี  ขึ้นทะเบียน/MOC1_shp-file/35-STC-area.shp",
        "sourceFeatureCount": 1
      },
      "geometry": {
        "type": "GeometryCollection",
        "geometries": [
          {
            "type": "Polygon",
            "coordinates": [
              [
                [
                  98.7022002,
                  8.291572
                ],
                [
                  98.7022603,
                  8.2914954
                ],
                [
                  98.7015079,
                  8.2901042
                ],
                [
                  98.7008326,
                  8.2894339
                ],
                [
                  98.6999808,
                  8.2889721
                ],
                [
                  98.6991945,
                  8.2883657
                ],
                [
                  98.6987415,
                  8.2881837
                ],
                [
                  98.6982356,
                  8.2881757
                ],
                [
                  98.6968973,
                  8.2878938
                ],
                [
                  98.6964819,
                  8.2881922
                ],
                [
                  98.696882,
                  8.2900494
                ],
                [
                  98.6969131,
                  8.2898383
                ],
                [
                  98.6971269,
                  8.2898721
                ],
                [
                  98.6971834,
                  8.2896759
                ],
                [
                  98.6969245,
                  8.2896253
                ],
                [
                  98.6968234,
                  8.2892439
                ],
                [
                  98.6971105,
                  8.2892329
                ],
                [
                  98.6977077,
                  8.2886279
                ],
                [
                  98.6980059,
                  8.2886898
                ],
                [
                  98.6980286,
                  8.288516
                ],
                [
                  98.6985578,
                  8.2883425
                ],
                [
                  98.6991656,
                  8.2885561
                ],
                [
                  98.6998912,
                  8.2892182
                ],
                [
                  98.700077,
                  8.289224
                ],
                [
                  98.7012332,
                  8.2899537
                ],
                [
                  98.7012753,
                  8.2901444
                ],
                [
                  98.7018363,
                  8.2907378
                ],
                [
                  98.7018741,
                  8.291049
                ],
                [
                  98.7020526,
                  8.2912341
                ],
                [
                  98.7022002,
                  8.291572
                ]
              ]
            ]
          }
        ]
      }
    },
    {
      "type": "Feature",
      "properties": {
        "sequence": 15,
        "plotId": "36-STC",
        "officialPlotIds": [
          "36-STC"
        ],
        "officialPlotCount": 1,
        "province": "ฉะเชิงเทรา",
        "subdistrict": null,
        "district": null,
        "village": null,
        "villageNumber": null,
        "landCondition": null,
        "allocatedAreaRai": 98.75,
        "officialParticipatingAreaRai": 98.75,
        "geometryAreaRai": 99.93,
        "areaDifferenceRai": 1.18,
        "sourceCrs": "EPSG:32647",
        "sourceFile": "Company-data/T-VER premium กลุ่ม 1  สยามทีซี  ขึ้นทะเบียน/MOC1_shp-file/36-STC-point.dbf",
        "sourceFeatureCount": 11,
        "plotMatchStatus": "tentative-reconstructed-from-boundary-points",
        "matchMethod": "area shapefile is missing; polygon reconstructed from ordered x/y boundary point records in point DBF",
        "sourceEncoding": "tis-620"
      },
      "geometry": {
        "type": "Polygon",
        "coordinates": [
          [
            [
              100.94597793868871,
              13.465076898991681
            ],
            [
              100.9463525755489,
              13.464585961697562
            ],
            [
              100.9502081480267,
              13.465188711002563
            ],
            [
              100.95064696515645,
              13.465781792552114
            ],
            [
              100.95549475155917,
              13.466891899372134
            ],
            [
              100.96196009927048,
              13.471586257002636
            ],
            [
              100.96222559709861,
              13.471304016854448
            ],
            [
              100.9555538076694,
              13.466204577585373
            ],
            [
              100.95076869402423,
              13.464849966146621
            ],
            [
              100.94137725878642,
              13.463684519546153
            ],
            [
              100.94130870895115,
              13.464344803370436
            ],
            [
              100.94597793868871,
              13.465076898991681
            ]
          ]
        ]
      }
    },
    {
      "type": "Feature",
      "id": "37-STC",
      "properties": {
        "sequence": 9,
        "plotId": "37-STC",
        "officialPlotIds": [
          "37-STC"
        ],
        "officialPlotCount": 1,
        "villageNumber": "7",
        "village": "บ้านเลม็ด",
        "subdistrict": "เลม็ด",
        "district": "ไชยา",
        "province": "สุราษฎร์ธานี",
        "landCondition": "พื้นที่เลนงอก",
        "allocatedAreaRai": 200.05,
        "officialParticipatingAreaRai": 157.55,
        "geometryAreaRai": 157.56,
        "areaDifferenceRai": 0.01,
        "sourceCrs": "EPSG:32647",
        "sourceFile": "Company-data/T-VER premium กลุ่ม 1  สยามทีซี  ขึ้นทะเบียน/MOC1_shp-file/37-STC-area.shp",
        "sourceFeatureCount": 2
      },
      "geometry": {
        "type": "GeometryCollection",
        "geometries": [
          {
            "type": "Polygon",
            "coordinates": [
              [
                [
                  99.22807,
                  9.342567
                ],
                [
                  99.2282604,
                  9.342369
                ],
                [
                  99.2289005,
                  9.3421249
                ],
                [
                  99.229637,
                  9.3419878
                ],
                [
                  99.2288702,
                  9.3420339
                ],
                [
                  99.2287791,
                  9.3418443
                ],
                [
                  99.2288356,
                  9.3417785
                ],
                [
                  99.2282596,
                  9.3416273
                ],
                [
                  99.2224295,
                  9.3388181
                ],
                [
                  99.2222062,
                  9.3392888
                ],
                [
                  99.2225393,
                  9.3393065
                ],
                [
                  99.2231142,
                  9.339672
                ],
                [
                  99.2233235,
                  9.3401289
                ],
                [
                  99.2232551,
                  9.3405668
                ],
                [
                  99.2227747,
                  9.3407089
                ],
                [
                  99.2254458,
                  9.3417733
                ],
                [
                  99.2254641,
                  9.3416833
                ],
                [
                  99.2256728,
                  9.3416206
                ],
                [
                  99.2268239,
                  9.3419516
                ],
                [
                  99.2269405,
                  9.3421177
                ],
                [
                  99.2267151,
                  9.3422592
                ],
                [
                  99.22807,
                  9.342567
                ]
              ]
            ]
          },
          {
            "type": "Polygon",
            "coordinates": [
              [
                [
                  99.235831,
                  9.3472845
                ],
                [
                  99.2379154,
                  9.3457273
                ],
                [
                  99.2333236,
                  9.3426914
                ],
                [
                  99.2321729,
                  9.3425139
                ],
                [
                  99.2308809,
                  9.3425942
                ],
                [
                  99.229352,
                  9.3425944
                ],
                [
                  99.2287895,
                  9.3427302
                ],
                [
                  99.2293076,
                  9.3428477
                ],
                [
                  99.2293781,
                  9.3428855
                ],
                [
                  99.229426,
                  9.3428567
                ],
                [
                  99.2303742,
                  9.3431729
                ],
                [
                  99.2328397,
                  9.3445178
                ],
                [
                  99.2333174,
                  9.3449082
                ],
                [
                  99.2342913,
                  9.3454048
                ],
                [
                  99.2344371,
                  9.3455311
                ],
                [
                  99.2346643,
                  9.3460017
                ],
                [
                  99.2351834,
                  9.346572
                ],
                [
                  99.2352568,
                  9.3461358
                ],
                [
                  99.2353566,
                  9.3460362
                ],
                [
                  99.2355575,
                  9.3460184
                ],
                [
                  99.2356934,
                  9.3461275
                ],
                [
                  99.2358762,
                  9.3461814
                ],
                [
                  99.2359807,
                  9.3463813
                ],
                [
                  99.2360765,
                  9.3465335
                ],
                [
                  99.2356581,
                  9.3470944
                ],
                [
                  99.235831,
                  9.3472845
                ]
              ]
            ]
          }
        ]
      }
    },
    {
      "type": "Feature",
      "id": "66-STC",
      "properties": {
        "sequence": 11,
        "plotId": "66-STC",
        "officialPlotIds": [
          "66-STC"
        ],
        "officialPlotCount": 1,
        "villageNumber": "1",
        "village": "คลองวาฬ",
        "subdistrict": "คลองวาฬ",
        "district": "เมือง",
        "province": "ประจวบคีรีขันธ์",
        "landCondition": "พื้นที่ผ่านการทำนากุ้ง",
        "allocatedAreaRai": 83.44,
        "officialParticipatingAreaRai": 30.49,
        "geometryAreaRai": 30.49,
        "areaDifferenceRai": 0.0,
        "sourceCrs": "EPSG:32647",
        "sourceFile": "Company-data/T-VER premium กลุ่ม 1  สยามทีซี  ขึ้นทะเบียน/MOC1_shp-file/66-STC-area.shp",
        "sourceFeatureCount": 26
      },
      "geometry": {
        "type": "GeometryCollection",
        "geometries": [
          {
            "type": "Polygon",
            "coordinates": [
              [
                [
                  99.7792211,
                  11.7633205
                ],
                [
                  99.7793137,
                  11.7636096
                ],
                [
                  99.7794149,
                  11.7636816
                ],
                [
                  99.7794882,
                  11.7636362
                ],
                [
                  99.7794788,
                  11.763573
                ],
                [
                  99.7795686,
                  11.7635189
                ],
                [
                  99.7794192,
                  11.7632241
                ],
                [
                  99.7792211,
                  11.7633205
                ]
              ]
            ]
          },
          {
            "type": "Polygon",
            "coordinates": [
              [
                [
                  99.7772437,
                  11.7618157
                ],
                [
                  99.777216,
                  11.7617525
                ],
                [
                  99.7766947,
                  11.7616375
                ],
                [
                  99.7768048,
                  11.7618539
                ],
                [
                  99.7772437,
                  11.7618157
                ]
              ]
            ]
          },
          {
            "type": "Polygon",
            "coordinates": [
              [
                [
                  99.7787874,
                  11.7624716
                ],
                [
                  99.7790445,
                  11.7625252
                ],
                [
                  99.7789245,
                  11.7622633
                ],
                [
                  99.7787229,
                  11.7623995
                ],
                [
                  99.7787874,
                  11.7624716
                ]
              ]
            ]
          },
          {
            "type": "Polygon",
            "coordinates": [
              [
                [
                  99.7789167,
                  11.7627697
                ],
                [
                  99.7790174,
                  11.762688
                ],
                [
                  99.7789805,
                  11.7626158
                ],
                [
                  99.7788153,
                  11.7626072
                ],
                [
                  99.7789167,
                  11.7627697
                ]
              ]
            ]
          },
          {
            "type": "Polygon",
            "coordinates": [
              [
                [
                  99.7778561,
                  11.7618994
                ],
                [
                  99.7779595,
                  11.7618047
                ],
                [
                  99.7779133,
                  11.7617513
                ],
                [
                  99.7776934,
                  11.7617964
                ],
                [
                  99.7775188,
                  11.7617065
                ],
                [
                  99.777565,
                  11.761851
                ],
                [
                  99.7777066,
                  11.7618784
                ],
                [
                  99.7778561,
                  11.7618994
                ]
              ]
            ]
          },
          {
            "type": "Polygon",
            "coordinates": [
              [
                [
                  99.778805,
                  11.7622093
                ],
                [
                  99.7780973,
                  11.7618496
                ],
                [
                  99.7780242,
                  11.7619402
                ],
                [
                  99.778319,
                  11.7623553
                ],
                [
                  99.7785757,
                  11.7622461
                ],
                [
                  99.7786308,
                  11.7622731
                ],
                [
                  99.778805,
                  11.7622093
                ]
              ]
            ]
          },
          {
            "type": "Polygon",
            "coordinates": [
              [
                [
                  99.7785863,
                  11.7627615
                ],
                [
                  99.7783938,
                  11.7628254
                ],
                [
                  99.7785494,
                  11.7632087
                ],
                [
                  99.7787249,
                  11.7630957
                ],
                [
                  99.7785863,
                  11.7627615
                ]
              ]
            ]
          },
          {
            "type": "Polygon",
            "coordinates": [
              [
                [
                  99.7791841,
                  11.7632211
                ],
                [
                  99.7792666,
                  11.7631937
                ],
                [
                  99.7792572,
                  11.7630853
                ],
                [
                  99.7793093,
                  11.7630053
                ],
                [
                  99.7791665,
                  11.7627219
                ],
                [
                  99.7789904,
                  11.7628509
                ],
                [
                  99.7790369,
                  11.7630768
                ],
                [
                  99.7791841,
                  11.7632211
                ]
              ]
            ]
          },
          {
            "type": "Polygon",
            "coordinates": [
              [
                [
                  99.7829085,
                  11.7561485
                ],
                [
                  99.782661,
                  11.7562306
                ],
                [
                  99.7825332,
                  11.756466
                ],
                [
                  99.7828176,
                  11.7564472
                ],
                [
                  99.7828723,
                  11.7563114
                ],
                [
                  99.7829729,
                  11.7561754
                ],
                [
                  99.7829085,
                  11.7561485
                ]
              ]
            ]
          },
          {
            "type": "Polygon",
            "coordinates": [
              [
                [
                  99.7820674,
                  11.7561964
                ],
                [
                  99.7821196,
                  11.7562501
                ],
                [
                  99.7821929,
                  11.7561957
                ],
                [
                  99.7822476,
                  11.7560689
                ],
                [
                  99.7824307,
                  11.7559147
                ],
                [
                  99.782357,
                  11.7558245
                ],
                [
                  99.7822744,
                  11.7558337
                ],
                [
                  99.782174,
                  11.7560058
                ],
                [
                  99.7821648,
                  11.7560059
                ],
                [
                  99.7820806,
                  11.756088
                ],
                [
                  99.7820674,
                  11.7561964
                ]
              ]
            ]
          },
          {
            "type": "Polygon",
            "coordinates": [
              [
                [
                  99.7831387,
                  11.7556692
                ],
                [
                  99.7834139,
                  11.7563641
                ],
                [
                  99.7839271,
                  11.7561422
                ],
                [
                  99.783827,
                  11.7559938
                ],
                [
                  99.7831387,
                  11.7556692
                ]
              ]
            ]
          },
          {
            "type": "Polygon",
            "coordinates": [
              [
                [
                  99.7827492,
                  11.7565755
                ],
                [
                  99.7824937,
                  11.7565675
                ],
                [
                  99.7822778,
                  11.756604
                ],
                [
                  99.7824228,
                  11.7567907
                ],
                [
                  99.7827492,
                  11.7565755
                ]
              ]
            ]
          },
          {
            "type": "Polygon",
            "coordinates": [
              [
                [
                  99.7769427,
                  11.757456
                ],
                [
                  99.7767884,
                  11.7579358
                ],
                [
                  99.7770558,
                  11.75809
                ],
                [
                  99.7773814,
                  11.757931
                ],
                [
                  99.77768,
                  11.7575153
                ],
                [
                  99.7774273,
                  11.7573804
                ],
                [
                  99.7769427,
                  11.757456
                ]
              ]
            ]
          },
          {
            "type": "Polygon",
            "coordinates": [
              [
                [
                  99.7778391,
                  11.7593453
                ],
                [
                  99.7778261,
                  11.7593841
                ],
                [
                  99.7785821,
                  11.7596661
                ],
                [
                  99.7789066,
                  11.759733
                ],
                [
                  99.7786371,
                  11.7594335
                ],
                [
                  99.7784424,
                  11.7594841
                ],
                [
                  99.7784092,
                  11.7593486
                ],
                [
                  99.7785221,
                  11.7592999
                ],
                [
                  99.778632,
                  11.7593641
                ],
                [
                  99.7787352,
                  11.7593445
                ],
                [
                  99.7786381,
                  11.7591801
                ],
                [
                  99.7778391,
                  11.7593453
                ]
              ]
            ]
          },
          {
            "type": "Polygon",
            "coordinates": [
              [
                [
                  99.7790776,
                  11.7578916
                ],
                [
                  99.7791558,
                  11.7577365
                ],
                [
                  99.7787575,
                  11.7576827
                ],
                [
                  99.7785269,
                  11.7577915
                ],
                [
                  99.7790776,
                  11.7578916
                ]
              ]
            ]
          },
          {
            "type": "Polygon",
            "coordinates": [
              [
                [
                  99.7765516,
                  11.7582125
                ],
                [
                  99.7763261,
                  11.7584116
                ],
                [
                  99.7765888,
                  11.7586321
                ],
                [
                  99.7766507,
                  11.7584931
                ],
                [
                  99.7765516,
                  11.7582125
                ]
              ]
            ]
          },
          {
            "type": "Polygon",
            "coordinates": [
              [
                [
                  99.7833773,
                  11.7636068
                ],
                [
                  99.7830584,
                  11.7637259
                ],
                [
                  99.7826924,
                  11.7640977
                ],
                [
                  99.7828123,
                  11.7643144
                ],
                [
                  99.7830137,
                  11.7641149
                ],
                [
                  99.7835173,
                  11.7637247
                ],
                [
                  99.7833773,
                  11.7636068
                ]
              ]
            ]
          },
          {
            "type": "Polygon",
            "coordinates": [
              [
                [
                  99.7750143,
                  11.7611174
                ],
                [
                  99.7758858,
                  11.7619189
                ],
                [
                  99.7761882,
                  11.7617643
                ],
                [
                  99.7761678,
                  11.7616952
                ],
                [
                  99.7756914,
                  11.7613407
                ],
                [
                  99.7755903,
                  11.7612776
                ],
                [
                  99.7753787,
                  11.7610793
                ],
                [
                  99.7753329,
                  11.7611337
                ],
                [
                  99.7751033,
                  11.7610619
                ],
                [
                  99.7750143,
                  11.7611174
                ]
              ]
            ]
          },
          {
            "type": "Polygon",
            "coordinates": [
              [
                [
                  99.7796424,
                  11.7662763
                ],
                [
                  99.7799995,
                  11.7660955
                ],
                [
                  99.7797512,
                  11.7658058
                ],
                [
                  99.7793662,
                  11.7659515
                ],
                [
                  99.7796424,
                  11.7662763
                ]
              ]
            ]
          },
          {
            "type": "Polygon",
            "coordinates": [
              [
                [
                  99.7762208,
                  11.7620074
                ],
                [
                  99.7760001,
                  11.7621512
                ],
                [
                  99.7761248,
                  11.7624542
                ],
                [
                  99.7763769,
                  11.76231
                ],
                [
                  99.7762208,
                  11.7620074
                ]
              ]
            ]
          },
          {
            "type": "Polygon",
            "coordinates": [
              [
                [
                  99.7823799,
                  11.7639629
                ],
                [
                  99.7818755,
                  11.7640637
                ],
                [
                  99.7817201,
                  11.7642812
                ],
                [
                  99.7816008,
                  11.7642996
                ],
                [
                  99.7816566,
                  11.7645346
                ],
                [
                  99.7819132,
                  11.7644163
                ],
                [
                  99.7818855,
                  11.7643531
                ],
                [
                  99.7824816,
                  11.7642068
                ],
                [
                  99.7823799,
                  11.7639629
                ]
              ]
            ]
          },
          {
            "type": "Polygon",
            "coordinates": [
              [
                [
                  99.7813541,
                  11.7646801
                ],
                [
                  99.781188,
                  11.764364
                ],
                [
                  99.7812336,
                  11.7642373
                ],
                [
                  99.7810319,
                  11.7643193
                ],
                [
                  99.7811617,
                  11.7647891
                ],
                [
                  99.7813541,
                  11.7646801
                ]
              ]
            ]
          },
          {
            "type": "Polygon",
            "coordinates": [
              [
                [
                  99.780738,
                  11.7656953
                ],
                [
                  99.7821895,
                  11.7647682
                ],
                [
                  99.7820697,
                  11.7645787
                ],
                [
                  99.7822254,
                  11.7644878
                ],
                [
                  99.7824083,
                  11.764647
                ],
                [
                  99.7827006,
                  11.7644636
                ],
                [
                  99.7827942,
                  11.7644048
                ],
                [
                  99.7826469,
                  11.7642244
                ],
                [
                  99.7821426,
                  11.7644157
                ],
                [
                  99.7806946,
                  11.765125
                ],
                [
                  99.7807962,
                  11.7653598
                ],
                [
                  99.780738,
                  11.7656953
                ]
              ]
            ]
          },
          {
            "type": "Polygon",
            "coordinates": [
              [
                [
                  99.7801393,
                  11.7660247
                ],
                [
                  99.7806044,
                  11.7656768
                ],
                [
                  99.7805491,
                  11.7655866
                ],
                [
                  99.7806589,
                  11.7654778
                ],
                [
                  99.7805114,
                  11.7652611
                ],
                [
                  99.780429,
                  11.7653156
                ],
                [
                  99.7805029,
                  11.7654872
                ],
                [
                  99.7803837,
                  11.7655147
                ],
                [
                  99.7804208,
                  11.7656502
                ],
                [
                  99.780265,
                  11.765732
                ],
                [
                  99.7803201,
                  11.765768
                ],
                [
                  99.779999,
                  11.7658051
                ],
                [
                  99.7801393,
                  11.7660247
                ]
              ]
            ]
          },
          {
            "type": "Polygon",
            "coordinates": [
              [
                [
                  99.7836107,
                  11.7636717
                ],
                [
                  99.7842408,
                  11.7631802
                ],
                [
                  99.7838736,
                  11.763163
                ],
                [
                  99.7834891,
                  11.7634716
                ],
                [
                  99.7836107,
                  11.7636717
                ]
              ]
            ]
          },
          {
            "type": "Polygon",
            "coordinates": [
              [
                [
                  99.7806012,
                  11.7650138
                ],
                [
                  99.7807096,
                  11.7649786
                ],
                [
                  99.7805943,
                  11.7646834
                ],
                [
                  99.7805077,
                  11.7647264
                ],
                [
                  99.7804764,
                  11.7648259
                ],
                [
                  99.7806012,
                  11.7650138
                ]
              ]
            ]
          }
        ]
      }
    },
    {
      "type": "Feature",
      "id": "89(1)-STC",
      "properties": {
        "sequence": 18,
        "plotId": "89(1)-STC",
        "officialPlotIds": [
          "89(1)-STC"
        ],
        "officialPlotCount": 1,
        "villageNumber": "2",
        "village": "บ้านตำมะลังเหนือ",
        "subdistrict": "ตำมะลัง",
        "district": "เมืองสตูล",
        "province": "สตูล",
        "landCondition": "พื้นที่ผ่านการรื้อถอน (พื้นที่พร้อมปลูก)",
        "allocatedAreaRai": 48.54,
        "officialParticipatingAreaRai": 48.48,
        "geometryAreaRai": 48.49,
        "areaDifferenceRai": 0.01,
        "sourceCrs": "EPSG:32647",
        "sourceFile": "Company-data/T-VER premium กลุ่ม 1  สยามทีซี  ขึ้นทะเบียน/MOC1_shp-file/89(1)-STC.shp",
        "sourceFeatureCount": 1
      },
      "geometry": {
        "type": "GeometryCollection",
        "geometries": [
          {
            "type": "Polygon",
            "coordinates": [
              [
                [
                  100.0353192,
                  6.5361475
                ],
                [
                  100.0374551,
                  6.5385327
                ],
                [
                  100.0381592,
                  6.53785
                ],
                [
                  100.0388479,
                  6.5386021
                ],
                [
                  100.0394259,
                  6.538203
                ],
                [
                  100.0367464,
                  6.5349892
                ],
                [
                  100.0353192,
                  6.5361475
                ]
              ]
            ]
          }
        ]
      }
    }
  ]
}