{"type":"FeatureCollection","name":"g1-wisutti-participating-areas","features":[{"type":"Feature","id":"1-VSD","properties":{"sequence":1,"plotId":"1-VSD","villageNumber":2,"village":"นาเกลือ","subdistrict":"ชำราก","district":"เมืองตราด","province":"ตราด","landCondition":"พื้นที่ผ่านการทำนากุ้ง","allocatedAreaRai":13.53,"officialParticipatingAreaRai":9.47,"geometryAreaRai":9.48,"areaDifferenceRai":0.01,"sourceCrs":"EPSG:32648","sourceFile":"Company-data/T-VER  premium กลุ่ม 1  สยามและวิสุทธิ  ขึ้นทะเบียน/Shapefile/01-VSD/พื้นที่เข้าร่วมโครงการ_1_VSD.shp","sourceFeatureCount":2},"geometry":{"type":"GeometryCollection","geometries":[{"type":"Polygon","coordinates":[[[102.6671852,12.1702087],[102.6673641,12.1697041],[102.6664949,12.1693173],[102.6662672,12.1701467],[102.6668093,12.1701242],[102.6671852,12.1702087]]]},{"type":"Polygon","coordinates":[[[102.6656164,12.1689393],[102.6654403,12.1701169],[102.6660645,12.1701158],[102.6662291,12.1692518],[102.6657989,12.1690764],[102.6656164,12.1689393]]]}]}},{"type":"Feature","id":"2-VSD","properties":{"sequence":2,"plotId":"2-VSD","villageNumber":2,"village":"นาเกลือ","subdistrict":"ชำราก","district":"เมืองตราด","province":"ตราด","landCondition":"พื้นที่ผ่านการทำนากุ้ง","allocatedAreaRai":31.61,"officialParticipatingAreaRai":24.64,"geometryAreaRai":24.64,"areaDifferenceRai":0.0,"sourceCrs":"EPSG:32648","sourceFile":"Company-data/T-VER  premium กลุ่ม 1  สยามและวิสุทธิ  ขึ้นทะเบียน/Shapefile/02-VSD/พื้นที่เข้าร่วมโครงการ2VSD.shp","sourceFeatureCount":3},"geometry":{"type":"GeometryCollection","geometries":[{"type":"Polygon","coordinates":[[[102.6679934,12.1660045],[102.6681148,12.1657706],[102.6680604,12.1656888],[102.668248,12.1652476],[102.6675348,12.1648801],[102.6671518,12.1656179],[102.6679934,12.1660045]]]},{"type":"Polygon","coordinates":[[[102.667051,12.1655809],[102.6680687,12.1636828],[102.6676665,12.1634625],[102.6674405,12.1634074],[102.6667894,12.1654638],[102.667051,12.1655809]]]},{"type":"Polygon","coordinates":[[[102.6681415,12.1637647],[102.667609,12.1647994],[102.6685787,12.1652414],[102.6691612,12.1647945],[102.668831,12.1636892],[102.6687576,12.1636796],[102.6684901,12.1638129],[102.6681415,12.1637647]]]}]}},{"type":"Feature","id":"3-VSD","properties":{"sequence":3,"plotId":"3-VSD","villageNumber":3,"village":"หนองรี","subdistrict":"ชำราก","district":"เมืองตราด","province":"ตราด","landCondition":"พื้นที่ผ่านการทำนากุ้ง","allocatedAreaRai":14.2,"officialParticipatingAreaRai":10.42,"geometryAreaRai":10.43,"areaDifferenceRai":0.01,"sourceCrs":"EPSG:32647","sourceFile":"Company-data/T-VER  premium กลุ่ม 1  สยามและวิสุทธิ  ขึ้นทะเบียน/Shapefile/03-VSD/พื้นที่เข้าร่วมโครงการ_3VSD.shp","sourceFeatureCount":5},"geometry":{"type":"GeometryCollection","geometries":[{"type":"Polygon","coordinates":[[[102.667926,12.16203],[102.668437,12.162193],[102.668604,12.161786],[102.668089,12.161601],[102.667926,12.16203]]]},{"type":"Polygon","coordinates":[[[102.668687,12.161687],[102.66891,12.161239],[102.668341,12.161052],[102.66813,12.161518],[102.668687,12.161687]]]},{"type":"Polygon","coordinates":[[[102.669102,12.161215],[102.669223,12.161112],[102.669357,12.160759],[102.668708,12.160537],[102.668472,12.160992],[102.669102,12.161215]]]},{"type":"Polygon","coordinates":[[[102.669404,12.160736],[102.6695144,12.1600118],[102.669403,12.159985],[102.669208,12.159929],[102.66884,12.160035],[102.668719,12.1605],[102.669404,12.160736]]]},{"type":"Polygon","coordinates":[[[102.668771,12.160157],[102.668725,12.160134],[102.6684223,12.1608909],[102.6684532,12.1609047],[102.668771,12.160157]]]}]}},{"type":"Feature","id":"4-VSD","properties":{"sequence":4,"plotId":"4-VSD","villageNumber":3,"village":"หนองรี","subdistrict":"ชำราก","district":"เมืองตราด","province":"ตราด","landCondition":"พื้นที่ผ่านการทำนากุ้ง","allocatedAreaRai":31.31,"officialParticipatingAreaRai":21.66,"geometryAreaRai":21.67,"areaDifferenceRai":0.01,"sourceCrs":"EPSG:32647","sourceFile":"Company-data/T-VER  premium กลุ่ม 1  สยามและวิสุทธิ  ขึ้นทะเบียน/Shapefile/04-VSD/พื้นที่เข้าร่วมโครงการ_4VSD.shp","sourceFeatureCount":6},"geometry":{"type":"GeometryCollection","geometries":[{"type":"Polygon","coordinates":[[[102.6650929,12.1634005],[102.6654131,12.163838],[102.665656,12.163682],[102.665381,12.163206],[102.6650929,12.1634005]]]},{"type":"Polygon","coordinates":[[[102.665681,12.163538],[102.666084,12.163263],[102.665831,12.162899],[102.665411,12.163156],[102.665681,12.163538]]]},{"type":"Polygon","coordinates":[[[102.666145,12.163203],[102.666581,12.162889],[102.666288,12.162577],[102.665892,12.162852],[102.666145,12.163203]]]},{"type":"Polygon","coordinates":[[[102.667037,12.162446],[102.667158,12.162459],[102.667219,12.162424],[102.667772,12.161822],[102.667776,12.161652],[102.667743,12.161557],[102.667363,12.161319],[102.667215,12.161333],[102.667151,12.16138],[102.666665,12.161916],[102.666597,12.162039],[102.666585,12.16212],[102.666637,12.162203],[102.6668,12.162339],[102.667037,12.162446]]]},{"type":"Polygon","coordinates":[[[102.66659,12.161826],[102.667286,12.161001],[102.667479,12.16047],[102.6674047,12.1604507],[102.666636,12.160629],[102.66638,12.161014],[102.666369,12.161198],[102.666118,12.161524],[102.666146,12.161617],[102.66634,12.161752],[102.66659,12.161826]]]},{"type":"Polygon","coordinates":[[[102.667364,12.161108],[102.66738,12.161159],[102.667423,12.161251],[102.667644,12.161388],[102.667795,12.16147],[102.667944,12.161372],[102.668067,12.16121],[102.66819,12.1609],[102.668191,12.160839],[102.668136,12.16081],[102.667669,12.160556],[102.667568,12.160582],[102.667531,12.160604],[102.667364,12.161108]]]}]}},{"type":"Feature","id":"5-VSD","properties":{"sequence":5,"plotId":"5-VSD","villageNumber":3,"village":"หนองรี","subdistrict":"ชำราก","district":"เมืองตราด","province":"ตราด","landCondition":"พื้นที่ผ่านการทำนากุ้ง","allocatedAreaRai":29.41,"officialParticipatingAreaRai":20.21,"geometryAreaRai":20.22,"areaDifferenceRai":0.01,"sourceCrs":"EPSG:32647","sourceFile":"Company-data/T-VER  premium กลุ่ม 1  สยามและวิสุทธิ  ขึ้นทะเบียน/Shapefile/05-VSD/พื้นที่เข้าร่วมโครงการ_5VSD.shp","sourceFeatureCount":4},"geometry":{"type":"GeometryCollection","geometries":[{"type":"Polygon","coordinates":[[[102.6682,12.159808],[102.668283,12.159887],[102.669488,12.159544],[102.669537,12.159471],[102.669485,12.158903],[102.669432,12.158884],[102.668035,12.159023],[102.66802,12.159234],[102.6682,12.159808]]]},{"type":"Polygon","coordinates":[[[102.668107,12.159814],[102.667907,12.159161],[102.667974,12.158926],[102.667208,12.159015],[102.667307,12.159305],[102.667348,12.159391],[102.66755,12.160065],[102.668094,12.159865],[102.668107,12.159814]]]},{"type":"Polygon","coordinates":[[[102.66735,12.160082],[102.667181,12.159586],[102.667064,12.159548],[102.666479,12.159705],[102.666457,12.159843],[102.666661,12.160298],[102.666782,12.160364],[102.667288,12.160175],[102.66735,12.160082]]]},{"type":"Polygon","coordinates":[[[102.667108,12.159482],[102.667148,12.159377],[102.6670164,12.1590292],[102.6665327,12.1590967],[102.666392,12.159025],[102.666162,12.159094],[102.666225,12.159289],[102.666401,12.15964],[102.666515,12.159634],[102.666577,12.159578],[102.666626,12.159579],[102.667108,12.159482]]]}]}},{"type":"Feature","id":"6-VSD","properties":{"sequence":6,"plotId":"6-VSD","villageNumber":4,"village":"อ่างกระป่อง","subdistrict":"ท่าโสม","district":"เขาสมิง","province":"ตราด","landCondition":"พื้นที่ผ่านการทำนากุ้ง","allocatedAreaRai":19.88,"officialParticipatingAreaRai":15.79,"geometryAreaRai":15.79,"areaDifferenceRai":0.0,"sourceCrs":"EPSG:32647","sourceFile":"Company-data/T-VER  premium กลุ่ม 1  สยามและวิสุทธิ  ขึ้นทะเบียน/Shapefile/06-VSD/พื้นที่เข้าร่วมโครงการ_6VSD.shp","sourceFeatureCount":4},"geometry":{"type":"GeometryCollection","geometries":[{"type":"Polygon","coordinates":[[[102.2874644,12.288392],[102.2875652,12.2877454],[102.2867484,12.287527],[102.2866084,12.287949],[102.2857934,12.2877],[102.2856034,12.288142],[102.2874644,12.288392]]]},{"type":"Polygon","coordinates":[[[102.2861539,12.2876096],[102.2867385,12.2870372],[102.2862916,12.2867256],[102.2857482,12.2873005],[102.2861539,12.2876096]]]},{"type":"Polygon","coordinates":[[[102.285531,12.287326],[102.286152,12.286719],[102.285819,12.286531],[102.285181,12.287218],[102.285531,12.287326]]]},{"type":"Polygon","coordinates":[[[102.285125,12.287203],[102.285759,12.286518],[102.2854,12.286336],[102.284737,12.287081],[102.285125,12.287203]]]}]}},{"type":"Feature","id":"7-VSD","properties":{"sequence":7,"plotId":"7-VSD","villageNumber":2,"village":"ท่าตะเภา","subdistrict":"หนองเสม็ด","district":"เมืองตราด","province":"ตราด","landCondition":"พื้นที่ผ่านการทำนากุ้ง","allocatedAreaRai":3.48,"officialParticipatingAreaRai":2.35,"geometryAreaRai":2.36,"areaDifferenceRai":0.01,"sourceCrs":"EPSG:32647","sourceFile":"Company-data/T-VER  premium กลุ่ม 1  สยามและวิสุทธิ  ขึ้นทะเบียน/Shapefile/07-VSD/พื้นที่เข้าร่วมโครงการ_7VSD.shp","sourceFeatureCount":1},"geometry":{"type":"GeometryCollection","geometries":[{"type":"Polygon","coordinates":[[[102.50652,12.185142],[102.506954,12.184866],[102.507278,12.18468],[102.507338,12.184624],[102.50726,12.184313],[102.506835,12.184553],[102.506402,12.184887],[102.50652,12.185142]]]}]}},{"type":"Feature","id":"8-VSD","properties":{"sequence":8,"plotId":"8-VSD","villageNumber":3,"village":"หนองรี","subdistrict":"ชำราก","district":"เมืองตราด","province":"ตราด","landCondition":"พื้นที่ผ่านการทำนากุ้ง","allocatedAreaRai":5.8,"officialParticipatingAreaRai":4.44,"geometryAreaRai":4.44,"areaDifferenceRai":0.0,"sourceCrs":"EPSG:32647","sourceFile":"Company-data/T-VER  premium กลุ่ม 1  สยามและวิสุทธิ  ขึ้นทะเบียน/Shapefile/08-VSD/พื้นที่เข้าร่วมโครงการ_8VSD.shp","sourceFeatureCount":2},"geometry":{"type":"GeometryCollection","geometries":[{"type":"Polygon","coordinates":[[[102.6685873,12.1573448],[102.668631,12.157273],[102.668614,12.156914],[102.668543,12.156839],[102.668074,12.156845],[102.668039,12.156919],[102.667983,12.157298],[102.668018,12.157357],[102.6685873,12.1573448]]]},{"type":"Polygon","coordinates":[[[102.668094,12.156804],[102.668531,12.156801],[102.668593,12.156746],[102.668603,12.15628],[102.668552,12.156248],[102.668168,12.156221],[102.668124,12.156276],[102.668056,12.156728],[102.668094,12.156804]]]}]}},{"type":"Feature","id":"14-VSD","properties":{"sequence":9,"plotId":"14-VSD","villageNumber":3,"village":"ดอนมะกอกล่าง","subdistrict":"ปากน้ำกระแส","district":"แกลง","province":"ระยอง","landCondition":"พื้นที่ผ่านการทำนากุ้ง","allocatedAreaRai":49.36,"officialParticipatingAreaRai":39.03,"geometryAreaRai":39.04,"areaDifferenceRai":0.01,"sourceCrs":"EPSG:32647","sourceFile":"Company-data/T-VER  premium กลุ่ม 1  สยามและวิสุทธิ  ขึ้นทะเบียน/Shapefile/14-VSD/พื้นที่เข้าร่วมโครงการ_14_VSD.shp","sourceFeatureCount":3},"geometry":{"type":"GeometryCollection","geometries":[{"type":"Polygon","coordinates":[[[101.7046469,12.7195818],[101.7050901,12.7205259],[101.7051517,12.7206573],[101.7054761,12.7205476],[101.706592,12.72017],[101.706692,12.719912],[101.706585,12.719661],[101.7046469,12.7195818]]]},{"type":"Polygon","coordinates":[[[101.7051703,12.7206969],[101.7052908,12.7209535],[101.7053783,12.7209249],[101.706585,12.720531],[101.706487,12.720247],[101.7051703,12.7206969]]]},{"type":"Polygon","coordinates":[[[101.707708,12.71841],[101.707684,12.718459],[101.707624,12.718433],[101.707487,12.718401],[101.707042,12.719736],[101.706864,12.719758],[101.7067655,12.7201032],[101.707999,12.719668],[101.708008,12.719694],[101.706977,12.720067],[101.706853,12.72017],[101.706724,12.720158],[101.706649,12.720272],[101.706673,12.720484],[101.706777,12.72043],[101.706737,12.720315],[101.706826,12.720311],[101.706888,12.720413],[101.708539,12.71982],[101.708555,12.71977],[101.708598,12.719774],[101.708847,12.720737],[101.709283,12.720707],[101.709412,12.719415],[101.7091996,12.719163],[101.7085299,12.7188061],[101.707708,12.71841]]]}]}},{"type":"Feature","id":"15-VSD","properties":{"sequence":10,"plotId":"15-VSD","villageNumber":3,"village":"ดอนมะกอกล่าง","subdistrict":"ปากน้ำกระแส","district":"แกลง","province":"ระยอง","landCondition":"พื้นที่ผ่านการทำนากุ้ง","allocatedAreaRai":54.59,"officialParticipatingAreaRai":46.47,"geometryAreaRai":46.48,"areaDifferenceRai":0.01,"sourceCrs":"EPSG:32647","sourceFile":"Company-data/T-VER  premium กลุ่ม 1  สยามและวิสุทธิ  ขึ้นทะเบียน/Shapefile/15-VSD/พื้นที่เข้าร่วมโครงการ_15_VSD.shp","sourceFeatureCount":1},"geometry":{"type":"GeometryCollection","geometries":[{"type":"Polygon","coordinates":[[[101.704712,12.727973],[101.70501,12.728979],[101.705234,12.728838],[101.7052756,12.7289107],[101.706924,12.728343],[101.707071,12.728825],[101.707502,12.728659],[101.707532,12.728723],[101.707637,12.728709],[101.707709,12.728766],[101.70776,12.728757],[101.707852,12.728948],[101.707917,12.728947],[101.708072,12.728807],[101.7081431,12.7285987],[101.708243,12.72816],[101.708468,12.728109],[101.708736,12.728089],[101.708822,12.727976],[101.708865,12.727553],[101.708796,12.727326],[101.708786,12.727132],[101.708706,12.72703],[101.708868,12.727109],[101.708967,12.726955],[101.70906,12.726955],[101.709176,12.72671],[101.709294,12.726559],[101.709376,12.72654],[101.709355,12.726281],[101.708561,12.726589],[101.7082485,12.7256256],[101.7082403,12.7256378],[101.707538,12.72668],[101.707609,12.726914],[101.707887,12.726883],[101.708058,12.727198],[101.707655,12.727362],[101.707875,12.728035],[101.707772,12.728046],[101.7074906,12.7270041],[101.704712,12.727973]]]}]}},{"type":"Feature","id":"16-VSD","properties":{"sequence":11,"plotId":"16-VSD","villageNumber":3,"village":"ดอนมะกอกล่าง","subdistrict":"ปากน้ำกระแส","district":"แกลง","province":"ระยอง","landCondition":"พื้นที่ผ่านการทำนากุ้ง","allocatedAreaRai":16.76,"officialParticipatingAreaRai":12.03,"geometryAreaRai":12.04,"areaDifferenceRai":0.01,"sourceCrs":"EPSG:32647","sourceFile":"Company-data/T-VER  premium กลุ่ม 1  สยามและวิสุทธิ  ขึ้นทะเบียน/Shapefile/16-VSD/พื้นที่เข้าร่วมโครงการ_16_VSD.shp","sourceFeatureCount":3},"geometry":{"type":"GeometryCollection","geometries":[{"type":"Polygon","coordinates":[[[101.700492,12.729824],[101.7005129,12.7298527],[101.7014494,12.7295109],[101.701451,12.7295],[101.701582,12.729431],[101.701441,12.729011],[101.699932,12.729394],[101.699984,12.729591],[101.700263,12.729877],[101.700492,12.729824]]]},{"type":"Polygon","coordinates":[[[101.699876,12.729636],[101.699796,12.72946],[101.699226,12.729618],[101.699257,12.729775],[101.699348,12.729861],[101.699876,12.729636]]]},{"type":"Polygon","coordinates":[[[101.699002,12.731569],[101.699072,12.7316029],[101.69951,12.731642],[101.69958,12.731565],[101.699335,12.72997],[101.699246,12.730007],[101.699261,12.730067],[101.699185,12.730091],[101.699178,12.730035],[101.699102,12.730074],[101.699002,12.731569]]]}]}},{"type":"Feature","id":"17-VSD","properties":{"sequence":12,"plotId":"17-VSD","villageNumber":3,"village":"ดอนมะกอกล่าง","subdistrict":"ปากน้ำกระแส","district":"แกลง","province":"ระยอง","landCondition":"พื้นที่ผ่านการทำนากุ้ง","allocatedAreaRai":30.78,"officialParticipatingAreaRai":24.41,"geometryAreaRai":24.42,"areaDifferenceRai":0.01,"sourceCrs":"EPSG:32647","sourceFile":"Company-data/T-VER  premium กลุ่ม 1  สยามและวิสุทธิ  ขึ้นทะเบียน/Shapefile/17-VSD/พื้นที่เข้าร่วมโครงการ_17_VSD.shp","sourceFeatureCount":5},"geometry":{"type":"GeometryCollection","geometries":[{"type":"Polygon","coordinates":[[[101.702809,12.729976],[101.702385,12.729475],[101.701381,12.729705],[101.701713,12.730339],[101.702809,12.729976]]]},{"type":"Polygon","coordinates":[[[101.701286,12.729739],[101.7004031,12.7300703],[101.701984,12.731313],[101.702112,12.731232],[101.701286,12.729739]]]},{"type":"Polygon","coordinates":[[[101.7000052,12.7301348],[101.699839,12.730198],[101.699738,12.730293],[101.700582,12.731892],[101.701527,12.731377],[101.701776,12.731545],[101.701845,12.731515],[101.701727,12.731357],[101.701742,12.73132],[101.7016008,12.7312081],[101.701546,12.731252],[101.700095,12.7301319],[101.7000668,12.7301114],[101.7000052,12.7301348]]]},{"type":"Polygon","coordinates":[[[101.701978,12.731529],[101.7022315,12.7313172],[101.702166,12.73124],[101.701999,12.731362],[101.701871,12.731389],[101.701978,12.731529]]]},{"type":"Polygon","coordinates":[[[101.701717,12.731624],[101.701508,12.73149],[101.700786,12.731857],[101.701717,12.731624]]]}]}},{"type":"Feature","id":"22-VSD","properties":{"sequence":13,"plotId":"22-VSD","villageNumber":14,"village":"ท่าศาลา","subdistrict":"ท่าศาลา","district":"เมือง","province":"นครศรีธรรมราช","landCondition":"พื้นที่เลนงอก","allocatedAreaRai":300.64,"officialParticipatingAreaRai":300.64,"geometryAreaRai":300.64,"areaDifferenceRai":0.0,"sourceCrs":"EPSG:32647","sourceFile":"Company-data/T-VER  premium กลุ่ม 1  สยามและวิสุทธิ  ขึ้นทะเบียน/Shapefile/22-VSD/พื้นที่เข้าร่วมโครงการ_22VSD.shp","sourceFeatureCount":1},"geometry":{"type":"GeometryCollection","geometries":[{"type":"Polygon","coordinates":[[[99.9915813,8.601541],[100.0022153,8.59599],[100.0165123,8.584054],[100.0156555,8.5834062],[100.0147688,8.5842971],[100.0018985,8.5943574],[99.9908828,8.600373],[99.9915813,8.601541]]]}]}},{"type":"Feature","id":"23-VSD","properties":{"sequence":14,"plotId":"23-VSD","villageNumber":14,"village":"ท่าศาลา","subdistrict":"ท่าศาลา","district":"เมือง","province":"นครศรีธรรมราช","landCondition":"พื้นที่เลนงอก","allocatedAreaRai":200.12,"officialParticipatingAreaRai":200.12,"geometryAreaRai":200.12,"areaDifferenceRai":0.0,"sourceCrs":"EPSG:32647","sourceFile":"Company-data/T-VER  premium กลุ่ม 1  สยามและวิสุทธิ  ขึ้นทะเบียน/Shapefile/23-VSD/พื้นที่เข้าร่วมโครงการ_23VSD.shp","sourceFeatureCount":1},"geometry":{"type":"GeometryCollection","geometries":[{"type":"Polygon","coordinates":[[[99.9921509,8.602287],[100.0030822,8.5969429],[100.0116628,8.5894029],[100.0110246,8.5886087],[100.0094108,8.5899695],[100.0022153,8.59599],[99.9963678,8.5990293],[99.9915813,8.601541],[99.9921509,8.602287]]]}]}},{"type":"Feature","id":"24-VSD","properties":{"sequence":15,"plotId":"24-VSD","villageNumber":1,"village":"บางปอ","subdistrict":"บางม่วง","district":"ตะกั่วป่า","province":"พังงา","landCondition":"พื้นที่ผ่านการรื้อถอน (พื้นที่พร้อมปลูก)","allocatedAreaRai":14.51,"officialParticipatingAreaRai":14.51,"geometryAreaRai":14.51,"areaDifferenceRai":0.0,"sourceCrs":"EPSG:32647","sourceFile":"Company-data/T-VER  premium กลุ่ม 1  สยามและวิสุทธิ  ขึ้นทะเบียน/Shapefile/24-VSD/พื้นที่เข้าร่วมโครงการ_24VSD.shp","sourceFeatureCount":1},"geometry":{"type":"GeometryCollection","geometries":[{"type":"Polygon","coordinates":[[[98.310532,8.8745854],[98.3104835,8.8748308],[98.3101226,8.8754816],[98.3094547,8.8760748],[98.3094267,8.8764546],[98.3096356,8.8766088],[98.30989,8.8767539],[98.3101359,8.8765735],[98.310572,8.8767823],[98.3109825,8.8761138],[98.3107579,8.874621],[98.3107023,8.8744622],[98.310532,8.8745854]]]}]}},{"type":"Feature","id":"25-VSD","properties":{"sequence":16,"plotId":"25-VSD","villageNumber":6,"village":"บางนายสี","subdistrict":"บางนายสี","district":"ตะกั่วป่า","province":"พังงา","landCondition":"พื้นที่ผ่านการรื้อถอน (พื้นที่พร้อมปลูก)","allocatedAreaRai":53.38,"officialParticipatingAreaRai":39.19,"geometryAreaRai":39.2,"areaDifferenceRai":0.01,"sourceCrs":"EPSG:32647","sourceFile":"Company-data/T-VER  premium กลุ่ม 1  สยามและวิสุทธิ  ขึ้นทะเบียน/Shapefile/25-VSD/พื้นที่เข้าร่วมโครงการ_25VSD.shp","sourceFeatureCount":1},"geometry":{"type":"GeometryCollection","geometries":[{"type":"Polygon","coordinates":[[[98.3049143,8.9087745],[98.307269,8.908817],[98.307928,8.909149],[98.3080195,8.9090936],[98.307608,8.908681],[98.3078579,8.9079899],[98.307618,8.907746],[98.307349,8.907202],[98.3073328,8.9066865],[98.306977,8.906893],[98.305223,8.906979],[98.3049591,8.9066278],[98.3049143,8.9087745]]]}]}},{"type":"Feature","id":"27-VSD","properties":{"sequence":17,"plotId":"27-VSD","villageNumber":4,"village":"ท่าดินแดง","subdistrict":"ลำแก่น","district":"ท้ายเหมือง","province":"พังงา","landCondition":"พื้นที่ผ่านการรื้อถอน (พื้นที่พร้อมปลูก)","allocatedAreaRai":22.01,"officialParticipatingAreaRai":9.74,"geometryAreaRai":9.75,"areaDifferenceRai":0.01,"sourceCrs":"EPSG:32647","sourceFile":"Company-data/T-VER  premium กลุ่ม 1  สยามและวิสุทธิ  ขึ้นทะเบียน/Shapefile/27-VSD/พื้นที่เข้าร่วมโครงการ_27VSD.shp","sourceFeatureCount":1},"geometry":{"type":"GeometryCollection","geometries":[{"type":"Polygon","coordinates":[[[98.2475779,8.4933952],[98.2479469,8.4944683],[98.2483273,8.495066],[98.2487263,8.4954828],[98.2489625,8.4954923],[98.2488451,8.4951303],[98.2486998,8.4950848],[98.2485089,8.4951206],[98.2484819,8.495003],[98.2487728,8.4949312],[98.2486277,8.4948043],[98.2487551,8.4946869],[98.2487098,8.4945964],[98.24849,8.494531],[98.2485922,8.49437],[98.2487195,8.494316],[98.2486562,8.4941621],[98.2486563,8.4940988],[98.2488199,8.4940449],[98.2488291,8.4939816],[98.2486476,8.4939089],[98.2486207,8.4937098],[98.2485121,8.4934926],[98.2483394,8.4935284],[98.248312,8.4936188],[98.2482031,8.4935372],[98.2481303,8.4936004],[98.2479216,8.4934643],[98.2475779,8.4933952]]]}]}},{"type":"Feature","id":"28-VSD","properties":{"sequence":18,"plotId":"28-VSD","villageNumber":6,"village":"ทุ่งรัก","subdistrict":"แม่นางขาว","district":"คุระบุรี","province":"พังงา","landCondition":"พื้นที่ผ่านการรื้อถอน (พื้นที่พร้อมปลูก)","allocatedAreaRai":5.13,"officialParticipatingAreaRai":5.13,"geometryAreaRai":5.13,"areaDifferenceRai":0.0,"sourceCrs":"EPSG:32647","sourceFile":"Company-data/T-VER  premium กลุ่ม 1  สยามและวิสุทธิ  ขึ้นทะเบียน/Shapefile/28-VSD/พื้นที่เข้าร่วมโครงการ28VSD.shp","sourceFeatureCount":1},"geometry":{"type":"GeometryCollection","geometries":[{"type":"Polygon","coordinates":[[[98.3554957,9.1932683],[98.3559272,9.1937106],[98.3561915,9.1936839],[98.3562183,9.193802],[98.3563201,9.1938992],[98.3566095,9.1940069],[98.3567997,9.193983],[98.3569262,9.1937764],[98.3562462,9.193053],[98.3554957,9.1932683]]]}]}},{"type":"Feature","id":"29-VSD","properties":{"sequence":19,"plotId":"29-VSD","villageNumber":5,"village":"ทุ่งนางดำ","subdistrict":"คุระ","district":"คุระบุรี","province":"พังงา","landCondition":"พื้นที่ผ่านการรื้อถอน (พื้นที่พร้อมปลูก)","allocatedAreaRai":5.14,"officialParticipatingAreaRai":2.59,"geometryAreaRai":2.6,"areaDifferenceRai":0.01,"sourceCrs":"EPSG:32647","sourceFile":"Company-data/T-VER  premium กลุ่ม 1  สยามและวิสุทธิ  ขึ้นทะเบียน/Shapefile/29-VSD/พื้นที่เข้าร่วมโครงการ_29VSD.shp","sourceFeatureCount":1},"geometry":{"type":"GeometryCollection","geometries":[{"type":"Polygon","coordinates":[[[98.371602,9.2703996],[98.371801,9.270427],[98.372047,9.270462],[98.372166,9.270407],[98.372425,9.270158],[98.372851,9.269904],[98.372809,9.269674],[98.3726855,9.269509],[98.3725596,9.2694788],[98.3723588,9.2697407],[98.3723561,9.2698083],[98.3723493,9.2699758],[98.3720756,9.2702648],[98.371602,9.2703996]]]}]}},{"type":"Feature","id":"30-VSD","properties":{"sequence":20,"plotId":"30-VSD","villageNumber":3,"village":"เขาเฒ่า","subdistrict":"บางเตย","district":"เมือง","province":"พังงา","landCondition":"พื้นที่ผ่านการรื้อถอน (พื้นที่พร้อมปลูก)","allocatedAreaRai":18.17,"officialParticipatingAreaRai":13.35,"geometryAreaRai":13.36,"areaDifferenceRai":0.01,"sourceCrs":"EPSG:32647","sourceFile":"Company-data/T-VER  premium กลุ่ม 1  สยามและวิสุทธิ  ขึ้นทะเบียน/Shapefile/30-VSD/พื้นที่เข้าร่วมโครงการ_30VSD.shp","sourceFeatureCount":3},"geometry":{"type":"GeometryCollection","geometries":[{"type":"Polygon","coordinates":[[[98.545161,8.4103662],[98.5452519,8.4102578],[98.5453285,8.4097719],[98.5453213,8.4097074],[98.5452858,8.4096524],[98.544626,8.4095154],[98.5446078,8.4095968],[98.5444799,8.4102026],[98.5445434,8.4102841],[98.545161,8.4103662]]]},{"type":"Polygon","coordinates":[[[98.5445171,8.4094791],[98.5438568,8.4094026],[98.5437995,8.4094149],[98.5436806,8.4101474],[98.5437623,8.4101566],[98.5443618,8.4102296],[98.5444072,8.4101935],[98.5445171,8.4094791]]]},{"type":"Polygon","coordinates":[[[98.5428539,8.4102098],[98.5435898,8.4101202],[98.5436626,8.4099846],[98.5437086,8.4094962],[98.5437632,8.4094239],[98.5436724,8.4094057],[98.5428367,8.4094228],[98.5427639,8.4094861],[98.5428539,8.4102098]]]}]}},{"type":"Feature","id":"31-VSD","properties":{"sequence":21,"plotId":"31-VSD","villageNumber":1,"village":"โคกไคร","subdistrict":"มะรุ่ย","district":"ทับปุด","province":"พังงา","landCondition":"พื้นที่ผ่านการรื้อถอน (พื้นที่พร้อมปลูก)","allocatedAreaRai":20.0,"officialParticipatingAreaRai":7.44,"geometryAreaRai":7.45,"areaDifferenceRai":0.01,"sourceCrs":"EPSG:32647","sourceFile":"Company-data/T-VER  premium กลุ่ม 1  สยามและวิสุทธิ  ขึ้นทะเบียน/Shapefile/31VSD/พื้นที่เข้าร่วมโครงการ_31VSD.shp","sourceFeatureCount":4},"geometry":{"type":"GeometryCollection","geometries":[{"type":"Polygon","coordinates":[[[98.6332667,8.396194],[98.6332303,8.3962572],[98.6333481,8.3965558],[98.6333117,8.3966372],[98.6334388,8.3966826],[98.6336205,8.3966737],[98.6336387,8.3966737],[98.6336479,8.3965652],[98.6340658,8.3963937],[98.6341113,8.3963214],[98.6340117,8.3959776],[98.6338937,8.395887],[98.6332667,8.396194]]]},{"type":"Polygon","coordinates":[[[98.6340845,8.3958781],[98.6340572,8.3959324],[98.6342295,8.3962401],[98.634284,8.3962763],[98.6348746,8.3960598],[98.6349473,8.3959784],[98.6349837,8.395879],[98.6348568,8.3956618],[98.6346934,8.3955802],[98.6345298,8.3955891],[98.6342936,8.3956703],[98.6340845,8.3958781]]]},{"type":"Polygon","coordinates":[[[98.6352832,8.3961416],[98.6354736,8.396594],[98.6354826,8.3966031],[98.6355826,8.3965308],[98.6354559,8.3960513],[98.6354015,8.3959969],[98.6353106,8.3960602],[98.6352651,8.3961325],[98.6352832,8.3961416]]]},{"type":"Polygon","coordinates":[[[98.6355825,8.3966574],[98.6356184,8.3970916],[98.6357365,8.3971008],[98.6357094,8.3969651],[98.635637,8.3966484],[98.6355825,8.3966574]]]}]}},{"type":"Feature","id":"32-VSD","properties":{"sequence":22,"plotId":"32-VSD","villageNumber":3,"village":"ท่าสนุก (ชุมชนท่าแกรง)","subdistrict":"มะรุ่ย","district":"ทับปุด","province":"พังงา","landCondition":"พื้นที่ผ่านการรื้อถอน (พื้นที่พร้อมปลูก)","allocatedAreaRai":18.56,"officialParticipatingAreaRai":12.49,"geometryAreaRai":12.5,"areaDifferenceRai":0.01,"sourceCrs":"EPSG:32647","sourceFile":"Company-data/T-VER  premium กลุ่ม 1  สยามและวิสุทธิ  ขึ้นทะเบียน/Shapefile/32-VSD/พื้นที่เข้าร่วมโครงการ_32_VSD.shp","sourceFeatureCount":1},"geometry":{"type":"GeometryCollection","geometries":[{"type":"Polygon","coordinates":[[[98.6178885,8.4092727],[98.6182404,8.4094027],[98.6188866,8.4090594],[98.6188209,8.4089611],[98.6189946,8.4088892],[98.6187618,8.4082826],[98.6181562,8.407415],[98.6179912,8.4074875],[98.6180416,8.4075881],[98.617931,8.4076454],[98.6178958,8.4075311],[98.6175438,8.407913],[98.6179781,8.4086195],[98.617675,8.408904],[98.6177735,8.4088849],[98.6178047,8.4089926],[98.6177133,8.4090069],[98.6178885,8.4092727]],[[98.6182944,8.4085716],[98.618256,8.4085812],[98.6182219,8.4084449],[98.6182604,8.4084354],[98.6182944,8.4085716]]]}]}},{"type":"Feature","id":"33-VSD","properties":{"sequence":23,"plotId":"33-VSD","villageNumber":5,"village":"คลองจูด","subdistrict":"มะรุ่ย","district":"ทับปุด","province":"พังงา","landCondition":"พื้นที่ผ่านการรื้อถอน (พื้นที่พร้อมปลูก)","allocatedAreaRai":34.53,"officialParticipatingAreaRai":16.62,"geometryAreaRai":16.63,"areaDifferenceRai":0.01,"sourceCrs":"EPSG:32647","sourceFile":"Company-data/T-VER  premium กลุ่ม 1  สยามและวิสุทธิ  ขึ้นทะเบียน/Shapefile/33-VSD/พื้นที่เข้าร่วมโครงการ_33VSD.shp","sourceFeatureCount":4},"geometry":{"type":"GeometryCollection","geometries":[{"type":"Polygon","coordinates":[[[98.6226768,8.4325185],[98.6226949,8.4325637],[98.622713,8.4326542],[98.6227675,8.4326361],[98.6228129,8.4326633],[98.6228128,8.4327266],[98.622949,8.4327991],[98.6235758,8.4327997],[98.6235577,8.4327545],[98.6236304,8.4327455],[98.6236758,8.4327908],[98.6237485,8.4327547],[98.6237668,8.4326371],[98.6237489,8.4322843],[98.6235673,8.4322389],[98.6230949,8.4322113],[98.6228769,8.4322202],[98.6228678,8.4322744],[98.6227497,8.4323105],[98.6227406,8.4323195],[98.6226768,8.4325185]]]},{"type":"Polygon","coordinates":[[[98.6226316,8.4322561],[98.6226498,8.432229],[98.6227317,8.4320753],[98.62285,8.4318945],[98.6229046,8.4317589],[98.6229138,8.4316865],[98.6226779,8.4313245],[98.6225145,8.4312791],[98.6221236,8.4315229],[98.6218873,8.4316674],[98.6218146,8.4316945],[98.6218055,8.4317307],[98.6218871,8.4318483],[98.6220505,8.4319932],[98.6220868,8.4320566],[98.6220413,8.4321199],[98.6222136,8.4323552],[98.622368,8.432482],[98.6225043,8.4324188],[98.6225406,8.4324098],[98.6226316,8.4322561]]]},{"type":"Polygon","coordinates":[[[98.6211792,8.4311702],[98.6212428,8.4311974],[98.621479,8.4311434],[98.6215426,8.4311254],[98.6216517,8.4310983],[98.621688,8.4310531],[98.6216247,8.4308089],[98.6215794,8.430646],[98.6214891,8.4301484],[98.6211256,8.4302114],[98.6209908,8.4302395],[98.6210049,8.4303504],[98.6210255,8.4304012],[98.6210436,8.4304546],[98.6210254,8.4304907],[98.6211792,8.4311702]]]},{"type":"Polygon","coordinates":[[[98.6213876,8.4317031],[98.6214512,8.4317303],[98.6215784,8.4316762],[98.6217148,8.4315949],[98.6218056,8.4315498],[98.621942,8.4314414],[98.6221147,8.4313239],[98.6222602,8.4312065],[98.6221694,8.431116],[98.6220241,8.431143],[98.6216243,8.4311968],[98.6214244,8.431269],[98.6212881,8.431296],[98.6211882,8.431314],[98.6210882,8.4313682],[98.621197,8.431513],[98.6213876,8.4317031]]]}]}},{"type":"Feature","id":"34-VSD","properties":{"sequence":24,"plotId":"34-VSD","villageNumber":3,"village":"ท่าสนุก","subdistrict":"มะรุ่ย","district":"ทับปุด","province":"พังงา","landCondition":"พื้นที่ผ่านการรื้อถอน (พื้นที่พร้อมปลูก)","allocatedAreaRai":15.04,"officialParticipatingAreaRai":9.07,"geometryAreaRai":9.08,"areaDifferenceRai":0.01,"sourceCrs":"EPSG:32647","sourceFile":"Company-data/T-VER  premium กลุ่ม 1  สยามและวิสุทธิ  ขึ้นทะเบียน/Shapefile/34-VSD/พื้นที่เข้าร่วมโครงการ_34VSD.shp","sourceFeatureCount":1},"geometry":{"type":"GeometryCollection","geometries":[{"type":"Polygon","coordinates":[[[98.6244048,8.4116077],[98.6244886,8.4122986],[98.6250222,8.4122632],[98.6249723,8.4116709],[98.6251309,8.4116567],[98.6251772,8.4122562],[98.6259523,8.4122139],[98.6259747,8.4114133],[98.6261393,8.4113854],[98.6261583,8.4112113],[98.6244048,8.4116077]]]}]}},{"type":"Feature","id":"35-VSD","properties":{"sequence":25,"plotId":"35-VSD","villageNumber":5,"village":"ฝ่ายท่า","subdistrict":"กระโสม","district":"ตะกั่วทุ่ง","province":"พังงา","landCondition":"พื้นที่ผ่านการรื้อถอน (พื้นที่พร้อมปลูก)","allocatedAreaRai":12.08,"officialParticipatingAreaRai":5.54,"geometryAreaRai":5.55,"areaDifferenceRai":0.01,"sourceCrs":"EPSG:32647","sourceFile":"Company-data/T-VER  premium กลุ่ม 1  สยามและวิสุทธิ  ขึ้นทะเบียน/Shapefile/35-VSD/พื้นที่เข้าร่วมโครงการ_35VSD.shp","sourceFeatureCount":1},"geometry":{"type":"GeometryCollection","geometries":[{"type":"Polygon","coordinates":[[[98.4507571,8.3841691],[98.4505482,8.3841869],[98.4502752,8.3845121],[98.4499663,8.3846202],[98.4496938,8.3846199],[98.4496935,8.3848279],[98.4493258,8.3852426],[98.4490301,8.3851074],[98.449238,8.3859577],[98.4507571,8.3841691]]]}]}},{"type":"Feature","id":"36-VSD","properties":{"sequence":26,"plotId":"36-VSD","villageNumber":7,"village":"บางจัน","subdistrict":"หล่อยูง","district":"ตะกั่วทุ่ง","province":"พังงา","landCondition":"พื้นที่ผ่านการรื้อถอน (พื้นที่พร้อมปลูก)","allocatedAreaRai":3.08,"officialParticipatingAreaRai":3.08,"geometryAreaRai":3.08,"areaDifferenceRai":0.0,"sourceCrs":"EPSG:32647","sourceFile":"Company-data/T-VER  premium กลุ่ม 1  สยามและวิสุทธิ  ขึ้นทะเบียน/Shapefile/36-VSD/พื้นที่เข้าร่วมโครงการ_36_VSD.shp","sourceFeatureCount":1},"geometry":{"type":"GeometryCollection","geometries":[{"type":"Polygon","coordinates":[[[98.3738533,8.1542685],[98.3743254,8.1542331],[98.3746949,8.1545124],[98.3746971,8.154514],[98.3746911,8.1544899],[98.3745798,8.1540435],[98.3746164,8.1538536],[98.3742624,8.1538712],[98.3732907,8.154141],[98.3733904,8.1542497],[98.3738533,8.1542685]]]}]}},{"type":"Feature","id":"37-VSD","properties":{"sequence":27,"plotId":"37-VSD","villageNumber":11,"village":"คลองหิน","subdistrict":"โคกกลอย","district":"ตะกั่วทุ่ง","province":"พังงา","landCondition":"พื้นที่ผ่านการรื้อถอน (พื้นที่พร้อมปลูก)","allocatedAreaRai":32.19,"officialParticipatingAreaRai":24.94,"geometryAreaRai":24.95,"areaDifferenceRai":0.01,"sourceCrs":"EPSG:32647","sourceFile":"Company-data/T-VER  premium กลุ่ม 1  สยามและวิสุทธิ  ขึ้นทะเบียน/Shapefile/37-VSD/พื้นที่เข้าร่วมโครงการ_37_VSD.shp","sourceFeatureCount":3},"geometry":{"type":"GeometryCollection","geometries":[{"type":"Polygon","coordinates":[[[98.3344541,8.214109],[98.3348314,8.2134323],[98.3334016,8.212731],[98.3331643,8.2129885],[98.333283,8.2130615],[98.3331969,8.2132972],[98.3330153,8.2132431],[98.3344541,8.214109]]]},{"type":"Polygon","coordinates":[[[98.3330944,8.2164812],[98.3331943,8.2164543],[98.333675,8.2154926],[98.3336479,8.2154021],[98.3330781,8.2150539],[98.3329458,8.2150735],[98.3324531,8.2160808],[98.3330944,8.2164812]]]},{"type":"Polygon","coordinates":[[[98.3330664,8.2148794],[98.3330879,8.2149679],[98.3337116,8.21533],[98.3337949,8.2153317],[98.3343894,8.2142764],[98.3344168,8.2141783],[98.3337171,8.2137893],[98.3336193,8.2138527],[98.3330664,8.2148794]]]}]}},{"type":"Feature","id":"38-VSD","properties":{"sequence":28,"plotId":"38-VSD","villageNumber":5,"village":"ติเต๊ะ","subdistrict":"คลองเคียน","district":"ตะกั่วทุ่ง","province":"พังงา","landCondition":"พื้นที่ผ่านการรื้อถอน (พื้นที่พร้อมปลูก)","allocatedAreaRai":1.5,"officialParticipatingAreaRai":1.29,"geometryAreaRai":1.29,"areaDifferenceRai":0.0,"sourceCrs":"EPSG:32647","sourceFile":"Company-data/T-VER  premium กลุ่ม 1  สยามและวิสุทธิ  ขึ้นทะเบียน/Shapefile/38-VSD/พื้นที่เข้าร่วมโครงการ_38_VSD.shp","sourceFeatureCount":1},"geometry":{"type":"GeometryCollection","geometries":[{"type":"Polygon","coordinates":[[[98.4034309,8.1902737],[98.4036373,8.1902854],[98.403855,8.1902905],[98.4041202,8.1902247],[98.404113,8.1899433],[98.4036376,8.1900955],[98.4033925,8.1900499],[98.4033923,8.1901675],[98.4034309,8.1902737]]]}]}},{"type":"Feature","id":"39-VSD","properties":{"sequence":29,"plotId":"39-VSD","villageNumber":11,"village":"ท่าปากแหว่ง","subdistrict":"โคกกลอย","district":"ตะกั่วทุ่ง","province":"พังงา","landCondition":"พื้นที่ผ่านการรื้อถอน (พื้นที่พร้อมปลูก)","allocatedAreaRai":6.78,"officialParticipatingAreaRai":3.48,"geometryAreaRai":3.48,"areaDifferenceRai":0.0,"sourceCrs":"EPSG:32647","sourceFile":"Company-data/T-VER  premium กลุ่ม 1  สยามและวิสุทธิ  ขึ้นทะเบียน/Shapefile/39-VSD/พื้นที่เข้าร่วมโครงการ_39VSD.shp","sourceFeatureCount":1},"geometry":{"type":"GeometryCollection","geometries":[{"type":"Polygon","coordinates":[[[98.3131704,8.2024969],[98.3135148,8.2027959],[98.3135145,8.2028581],[98.3136232,8.202837],[98.3137886,8.2028049],[98.3137693,8.2026336],[98.3137968,8.202507],[98.3138331,8.2024799],[98.3139241,8.2023896],[98.3138969,8.2023534],[98.313906,8.2023263],[98.3139513,8.2023716],[98.3140149,8.2023446],[98.3140059,8.2022812],[98.3141695,8.2022001],[98.3141785,8.2022363],[98.3142784,8.2022365],[98.3143418,8.202318],[98.3144236,8.2022819],[98.3143603,8.20211],[98.3142787,8.2020194],[98.3141334,8.2020734],[98.3141245,8.2019558],[98.3142879,8.201947],[98.3142915,8.2019214],[98.3141247,8.2018654],[98.3131704,8.2024969]]]}]}},{"type":"Feature","id":"68-VSD","properties":{"sequence":30,"plotId":"68-VSD","villageNumber":5,"village":"บ้านนาแค","subdistrict":"คลองขุด","district":"เมืองสตูล","province":"สตูล","landCondition":"พื้นที่ผ่านการรื้อถอน (พื้นที่พร้อมปลูก)","allocatedAreaRai":5.84,"officialParticipatingAreaRai":5.84,"geometryAreaRai":5.84,"areaDifferenceRai":0.0,"sourceCrs":"EPSG:32647","sourceFile":"Company-data/T-VER  premium กลุ่ม 1  สยามและวิสุทธิ  ขึ้นทะเบียน/Shapefile/68-VSD/พื้นที่เข้าร่วมโครงการ_68VSD.shp","sourceFeatureCount":1},"geometry":{"type":"GeometryCollection","geometries":[{"type":"Polygon","coordinates":[[[100.1206446,6.6540414],[100.1225704,6.6541265],[100.1223715,6.6536938],[100.1206165,6.6536344],[100.1206446,6.6540414]]]}]}},{"type":"Feature","id":"69-VSD","properties":{"sequence":31,"plotId":"69-VSD","villageNumber":3,"village":"บ้านเกาะนก (คลองน้ำเวียน)","subdistrict":"คลองขุด","district":"เมืองสตูล","province":"สตูล","landCondition":"พื้นที่ผ่านการรื้อถอน (พื้นที่พร้อมปลูก)","allocatedAreaRai":17.85,"officialParticipatingAreaRai":17.85,"geometryAreaRai":17.85,"areaDifferenceRai":0.0,"sourceCrs":"EPSG:32647","sourceFile":"Company-data/T-VER  premium กลุ่ม 1  สยามและวิสุทธิ  ขึ้นทะเบียน/Shapefile/69-VSD/พื้นที่เข้าร่วมโครงการ69VSD.shp","sourceFeatureCount":1},"geometry":{"type":"GeometryCollection","geometries":[{"type":"Polygon","coordinates":[[[100.0776299,6.5944973],[100.0778391,6.5950486],[100.0779577,6.5955367],[100.0785274,6.5954631],[100.0785102,6.5951936],[100.0788615,6.5952001],[100.0788898,6.5957427],[100.0784648,6.595807],[100.0784293,6.5961236],[100.0793969,6.5960039],[100.0793134,6.5950363],[100.079684,6.5949541],[100.0796642,6.5941673],[100.0776299,6.5944973]]]}]}},{"type":"Feature","id":"70-VSD","properties":{"sequence":32,"plotId":"70-VSD","villageNumber":4,"village":"บ้านคลองขุด","subdistrict":"คลองขุด","district":"เมืองสตูล","province":"สตูล","landCondition":"พื้นที่ผ่านการรื้อถอน (พื้นที่พร้อมปลูก)","allocatedAreaRai":56.64,"officialParticipatingAreaRai":54.85,"geometryAreaRai":54.86,"areaDifferenceRai":0.01,"sourceCrs":"EPSG:32647","sourceFile":"Company-data/T-VER  premium กลุ่ม 1  สยามและวิสุทธิ  ขึ้นทะเบียน/Shapefile/70-VSD/พื้นที่เข้าร่วมโครงการ70VSD.shp","sourceFeatureCount":2},"geometry":{"type":"GeometryCollection","geometries":[{"type":"Polygon","coordinates":[[[100.078485,6.627466],[100.07857,6.62766],[100.079075,6.627461],[100.0790303,6.6271903],[100.0803323,6.6269342],[100.0797932,6.624421],[100.0795851,6.6244124],[100.0794223,6.6243947],[100.079187,6.624359],[100.079142,6.6244496],[100.0789893,6.6249564],[100.0781369,6.625256],[100.0781399,6.6253652],[100.078485,6.627466]]]},{"type":"Polygon","coordinates":[[[100.078443,6.627481],[100.0780947,6.6253563],[100.0780312,6.6252931],[100.077552,6.6253575],[100.0772894,6.6252495],[100.0770365,6.6253767],[100.0769105,6.6257025],[100.0769834,6.6259285],[100.0771379,6.6262719],[100.0772736,6.6262806],[100.0780331,6.6261523],[100.0781789,6.6266495],[100.0779709,6.6266771],[100.077265,6.6264977],[100.0771385,6.6265703],[100.0770034,6.6268058],[100.0765512,6.6268248],[100.0765153,6.6269515],[100.0767054,6.6270325],[100.0769138,6.627213],[100.0769956,6.6273756],[100.0776747,6.6277269],[100.0780093,6.6276719],[100.078443,6.627481]]]}]}},{"type":"Feature","id":"71-VSD","properties":{"sequence":33,"plotId":"71-VSD","villageNumber":5,"village":"บ้านนาแค","subdistrict":"คลองขุด","district":"เมืองสตูล","province":"สตูล","landCondition":"พื้นที่ผ่านการรื้อถอน (พื้นที่พร้อมปลูก)","allocatedAreaRai":124.96,"officialParticipatingAreaRai":78.09,"geometryAreaRai":78.09,"areaDifferenceRai":0.0,"sourceCrs":"EPSG:32647","sourceFile":"Company-data/T-VER  premium กลุ่ม 1  สยามและวิสุทธิ  ขึ้นทะเบียน/Shapefile/71-VSD/พื้นที่เข้าร่วมโครงการ_71VSD.shp","sourceFeatureCount":2},"geometry":{"type":"GeometryCollection","geometries":[{"type":"Polygon","coordinates":[[[100.1365951,6.6040982],[100.1367939,6.6040254],[100.1372002,6.6036898],[100.1374249,6.6031105],[100.1371264,6.6030931],[100.1367564,6.6034557],[100.136611,6.603565],[100.1366679,6.60392],[100.1365951,6.6040982]]]},{"type":"Polygon","coordinates":[[[100.1363333,6.6043339],[100.135677,6.603986],[100.135434,6.603933],[100.135317,6.603899],[100.135251,6.603952],[100.135011,6.603661],[100.1349025,6.6035202],[100.1344238,6.6038318],[100.1338559,6.6042538],[100.135352,6.604574],[100.135568,6.604897],[100.135066,6.604758],[100.134647,6.60474],[100.134428,6.605081],[100.13392,6.605833],[100.133616,6.605844],[100.133572,6.605959],[100.134196,6.606213],[100.135026,6.606175],[100.134936,6.606574],[100.134556,6.606722],[100.133796,6.607134],[100.134481,6.607388],[100.134493,6.608065],[100.135334,6.60967],[100.1345222,6.6113203],[100.1360695,6.6115881],[100.1360844,6.6101772],[100.1357014,6.6088214],[100.1356736,6.6085501],[100.1357435,6.6074375],[100.1359196,6.6053479],[100.1360453,6.6049225],[100.1363333,6.6043339]]]}]}},{"type":"Feature","id":"71(1)-VSD","properties":{"sequence":34,"plotId":"71(1)-VSD","villageNumber":5,"village":"บ้านนาแค","subdistrict":"คลองขุด","district":"เมืองสตูล","province":"สตูล","landCondition":"พื้นที่ผ่านการรื้อถอน (พื้นที่พร้อมปลูก)","allocatedAreaRai":39.79,"officialParticipatingAreaRai":39.79,"geometryAreaRai":39.8,"areaDifferenceRai":0.01,"sourceCrs":"EPSG:32647","sourceFile":"Company-data/T-VER  premium กลุ่ม 1  สยามและวิสุทธิ  ขึ้นทะเบียน/Shapefile/71(1)-VSD_V5/พื้นที่เข้าร่วมโครงการ_71_1VSD_V5.shp","sourceFeatureCount":1},"geometry":{"type":"GeometryCollection","geometries":[{"type":"Polygon","coordinates":[[[100.1216624,6.6481512],[100.121952,6.6482048],[100.122032,6.6475986],[100.122402,6.6472089],[100.1230151,6.6463392],[100.1236471,6.6458132],[100.1238897,6.6451162],[100.1245683,6.6451599],[100.1250822,6.6444352],[100.1250347,6.6434314],[100.1238676,6.6433165],[100.1236884,6.6440947],[100.1222807,6.6455631],[100.1218683,6.6472101],[100.1216624,6.6481512]]]}]}},{"type":"Feature","id":"72-VSD","properties":{"sequence":35,"plotId":"72-VSD","villageNumber":3,"village":"บ้านคลองน้ำเวียน","subdistrict":"คลองขุด","district":"เมืองสตูล","province":"สตูล","landCondition":"พื้นที่ผ่านการรื้อถอน (พื้นที่พร้อมปลูก)","allocatedAreaRai":9.24,"officialParticipatingAreaRai":9.24,"geometryAreaRai":9.24,"areaDifferenceRai":0.0,"sourceCrs":"EPSG:32647","sourceFile":"Company-data/T-VER  premium กลุ่ม 1  สยามและวิสุทธิ  ขึ้นทะเบียน/Shapefile/72-VSD/พื้นที่เข้าร่วมโครงการ_72VSD.shp","sourceFeatureCount":1},"geometry":{"type":"GeometryCollection","geometries":[{"type":"Polygon","coordinates":[[[100.0794653,6.6022278],[100.0794222,6.6009301],[100.0790266,6.6006389],[100.0789181,6.6007697],[100.0787378,6.6007618],[100.0780063,6.6012528],[100.0794653,6.6022278]]]}]}},{"type":"Feature","id":"73-VSD","properties":{"sequence":36,"plotId":"73-VSD","villageNumber":3,"village":"บ้านคลองน้ำเวียน","subdistrict":"คลองขุด","district":"เมืองสตูล","province":"สตูล","landCondition":"พื้นที่ผ่านการรื้อถอน (พื้นที่พร้อมปลูก)","allocatedAreaRai":21.77,"officialParticipatingAreaRai":21.77,"geometryAreaRai":21.77,"areaDifferenceRai":0.0,"sourceCrs":"EPSG:32647","sourceFile":"Company-data/T-VER  premium กลุ่ม 1  สยามและวิสุทธิ  ขึ้นทะเบียน/Shapefile/73-VSD/พื้นที่เข้าร่วมโครงการ_73VSD.shp","sourceFeatureCount":1},"geometry":{"type":"GeometryCollection","geometries":[{"type":"Polygon","coordinates":[[[100.0923588,6.5881974],[100.0927297,6.5882147],[100.0931359,6.5878701],[100.0937046,6.5873624],[100.0939301,6.5870634],[100.0940643,6.5863848],[100.0940638,6.5861768],[100.0940813,6.5858873],[100.0938002,6.5855714],[100.093312,6.5856629],[100.0928514,6.5859805],[100.0926716,6.5864602],[100.092555,6.5869127],[100.0923478,6.5873021],[100.0925838,6.5876633],[100.0923588,6.5881974]]]}]}},{"type":"Feature","id":"74-VSD","properties":{"sequence":37,"plotId":"74-VSD","villageNumber":1,"village":"บ้านเขาจีน","subdistrict":"คลองขุด","district":"เมืองสตูล","province":"สตูล","landCondition":"พื้นที่ผ่านการรื้อถอน (พื้นที่พร้อมปลูก)","allocatedAreaRai":46.15,"officialParticipatingAreaRai":24.82,"geometryAreaRai":24.82,"areaDifferenceRai":0.0,"sourceCrs":"EPSG:32647","sourceFile":"Company-data/T-VER  premium กลุ่ม 1  สยามและวิสุทธิ  ขึ้นทะเบียน/Shapefile/74-VSD/พื้นที่เข้าร่วมโครงการ_74VSD.shp","sourceFeatureCount":1},"geometry":{"type":"GeometryCollection","geometries":[{"type":"Polygon","coordinates":[[[100.1063583,6.6291963],[100.106495,6.628999],[100.1071,6.629387],[100.10717,6.629286],[100.106818,6.629068],[100.10689,6.628938],[100.108353,6.629661],[100.108389,6.629624],[100.106935,6.628834],[100.1066558,6.6278621],[100.1065497,6.6276592],[100.1066186,6.6273918],[100.1063558,6.6271844],[100.10593,6.6268688],[100.105424,6.6271232],[100.1053969,6.6271232],[100.1049813,6.6273231],[100.104991,6.6276216],[100.1049827,6.6279653],[100.1048841,6.6283816],[100.1058168,6.6288407],[100.1063583,6.6291963]]]}]}},{"type":"Feature","id":"91-VSD","properties":{"sequence":38,"plotId":"91-VSD","villageNumber":1,"village":"ปากบาตาวา","subdistrict":"บางตาวา","district":"หนองจิก","province":"ปัตตานี","landCondition":"พื้นที่เลนงอก","allocatedAreaRai":20.93,"officialParticipatingAreaRai":11.08,"geometryAreaRai":11.09,"areaDifferenceRai":0.01,"sourceCrs":"EPSG:32647","sourceFile":"Company-data/T-VER  premium กลุ่ม 1  สยามและวิสุทธิ  ขึ้นทะเบียน/Shapefile/91-VSD/พื้นที่เข้าร่วมโครงการ__91VSD.shp","sourceFeatureCount":1},"geometry":{"type":"GeometryCollection","geometries":[{"type":"Polygon","coordinates":[[[101.1648722,6.8591824],[101.1647991,6.859011],[101.1646896,6.8588036],[101.1644987,6.8585875],[101.1642716,6.8583806],[101.1638197,6.858464],[101.1633861,6.8585654],[101.1629337,6.8585313],[101.1624925,6.8589762],[101.1631438,6.8590004],[101.1635152,6.8591343],[101.1639229,6.8592771],[101.1643578,6.8594469],[101.1647831,6.8594902],[101.1648722,6.8591824]]]}]}},{"type":"Feature","id":"92-VSD","properties":{"sequence":39,"plotId":"92-VSD","villageNumber":6,"village":"สายหมอ","subdistrict":"บางเขา","district":"หนองจิก","province":"ปัตตานี","landCondition":"พื้นที่เลนงอก","allocatedAreaRai":30.09,"officialParticipatingAreaRai":3.63,"geometryAreaRai":3.63,"areaDifferenceRai":0.0,"sourceCrs":"EPSG:32647","sourceFile":"Company-data/T-VER  premium กลุ่ม 1  สยามและวิสุทธิ  ขึ้นทะเบียน/Shapefile/92-VSD/พื้นที่เข้าร่วมโครงการ__92VSD.shp","sourceFeatureCount":2},"geometry":{"type":"GeometryCollection","geometries":[{"type":"Polygon","coordinates":[[[101.1434746,6.8564963],[101.1434334,6.8566029],[101.1436415,6.856611],[101.14365,6.8565025],[101.1434746,6.8564963]]]},{"type":"Polygon","coordinates":[[[101.1432615,6.8586195],[101.1439676,6.858743],[101.1439664,6.8584718],[101.143955,6.858111],[101.143358,6.8579502],[101.1432419,6.8582761],[101.1432615,6.8586195]]]}]}},{"type":"Feature","id":"96-VSD","properties":{"sequence":40,"plotId":"96-VSD","villageNumber":1,"village":"บ้านคลองพน","subdistrict":"คลองพน","district":"คลองท่อม","province":"กระบี่","landCondition":"พื้นที่ผ่านการรื้อถอน (พื้นที่พร้อมปลูก)","allocatedAreaRai":35.3,"officialParticipatingAreaRai":28.54,"geometryAreaRai":28.55,"areaDifferenceRai":0.01,"sourceCrs":"EPSG:32647","sourceFile":"Company-data/T-VER  premium กลุ่ม 1  สยามและวิสุทธิ  ขึ้นทะเบียน/Shapefile/96-VSD/พื้นที่เข้าร่วมโครงการ_96VSD.shp","sourceFeatureCount":1},"geometry":{"type":"GeometryCollection","geometries":[{"type":"Polygon","coordinates":[[[99.1791119,7.8109286],[99.180391,7.8114165],[99.1811711,7.8116061],[99.1816483,7.8118431],[99.182051,7.8117866],[99.182287,7.8120579],[99.1826043,7.8117231],[99.1826677,7.8115964],[99.1827039,7.8114064],[99.1822321,7.8109453],[99.181851,7.810647],[99.1815698,7.8107556],[99.1814791,7.8106019],[99.1814064,7.8103487],[99.181234,7.8102221],[99.1803633,7.8104124],[99.179937,7.8104036],[99.1798825,7.8101594],[99.1796522,7.8100674],[99.1789665,7.8102773],[99.179003,7.8107839],[99.1791119,7.8109286]]]}]}}]}